id,name,address_01,address_02,city,id_geo_states,postal_code
3047,A A Anastasia Elementary School,92 SEVENTH AVENUE,,LONG BRANCH,37,7740
2679,A Chester Redshaw School,216 Livingston Avenue,,NEW BRUNSWICK,37,08901-2930
1176,A E BURLING ELEMENTARY SCHOOL,3600 HARRIS AVENUE,,Pennsauken,37,8105
1034,A. Russell Knight Elementary School,140 OLD CARRIAGE RD,,CHERRY HILL,37,08034-3332
4498,A.P. Morris Early Childhood Center,143 COE AVE,,Hillside,37,07205-2830
3272,Aaron Decker School,98 DECKER ROAD,,Butler,37,7405
1611,ABINGTON AVENUE SCHOOL,209 ABINGTON AVE,,Newark,37,07107-2507
4582,ABRAHAM CLARK HIGH SCHOOL,122 EAST 6TH AVE,,Roselle,37,07203-2026
691,Abraham Lincoln Elementary School,325 MASON AVE,,Wyckoff,37,07481-2822
318,ABRAHAM LINCOLN SCHOOL #6,111 PALISADE AVE,,Garfield,37,7026
4426,Abraham Lincoln School No. 14,50 GROVE ST,,Elizabeth,37,07202-2327
83,Absegami High School,201 S  WRANGLEBORO ROAD,,Galloway,37,08205-9554
4810,Academy Charter High School,1725 MAIN STREET,,LAKE COMO,37,7719
4693,Academy For Allied Health Sciences,1776 RARITAN ROAD,,SCOTCH PLAINS,37,07076-2997
4695,Academy For Information Technology,1776 RARITAN ROAD,,SCOTCH PLAINS,37,07076-2997
3418,Academy for Law and Public Safety,BUTLER HIGH SCHOOL ANNEX,,Butler,37,7405
3419,"Academy for Mathematics, Science and Eng",520 WEST MAIN STREET,,Rockaway,37,07866-3799
4697,Academy For Performing Arts,1776 Raritan Road,,Scotch Plains,37,07076-2997
4812,Academy for Urban Leader,612 Amboy Ave,,Perth Amboy,37,8861
2065,Academy I,209 BERGEN AVENUE,,JERSEY CITY,37,7305
2646,Academy Learning Center,145 PERGOLA AVENUE,,MONROE TOWNSHIP,37,8831
3157,ACADEMY OF ALLIED HEALTH AND SCIENCE,2325 HECK AVENUE,,Neptune,37,07753-4432
3159,Academy of Law &amp; Public Safety,255 West End Avenue,,Long Branch,37,7740
2054,Academy of Technology Design,525 Montgomery Street,,Jersey City,37,07302-3237
3290,Academy Street Elementary School,14 ACADEMY STREET,,Dover,37,07801-4906
2363,ACCREDITED EVENING HIGH SCHOOL,1055 KLOCKNER ROAD,,Hamilton,37,8619
4158,ADAMSVILLE ELEMENTARY SCHOOL,400 UNION AVE,,Bridgewater,37,8807
2980,ADELPHIA ELEMENTARY SCHOOL,495 ADELPHIA ROAD,,Freehold,37,7728
1521,Adlai E. Stevenson,15 KNOLL ROAD,,Fairfield,37,7006
7504,Administrator Proxy,125 Kent Place Boulevard,,Summit,37,7901
4428,Admiral William F. Halsey Jr. Health &am,641 South Street,,Elizabeth,37,7202
3901,ADULT AND CONTINUING EDUCATION,151 ELLISON STREET,,Paterson,37,7505
2067,Adult Evening High School,2 Palisade Avenue,,Jersey City,37,7306
2056,Adult High School and Post Secondary Pro,2000 85th Street,,North Bergen,37,07047-4715
1885,Adult Regional High School,1360 Tanyard Road,,Sewell,37,8080
7479,AfterSchool Music,40 South Broadway,NULL,Pitman,37,8071
2713,Alan B. Shepard Elementary School,33 BUSHNELL RD,,OLD BRIDGE,37,08857-2320
2365,ALBERT E GRICE MIDDLE SCHOOL,901 WHITEHORSE HAMILTON SQ,,Hamilton,37,08610-1426
4026,ALBERT PAYSON TERHUNE ELEMENTARY,40 GEOFFREY WAY,,Wayne,37,07470-4029
2208,Albio Sires Elementary School,6300 PALISADE AVE,,WEST NEW YORK,37,07093-2318
53,Alder Avenue Middle School,25 Alder Avenue,,Egg Harbor Township,37,08234-5315
2982,Aldrich Elementary School,615 ALDRICH ROAD,,Howell,37,07731-1936
4234,Alexander Batcho Intermediate School,100 NORTH 13TH AVE,,Manville,37,8835
2069,Alexander D. Sullivan School,171 SEAVIEW AVE,,JERSEY CITY,37,07305-2412
893,Alexander Denbo,ONE LEARNING WAY,,BROWNS MILLS,37,8015
2367,ALEXANDER ELEMENTARY SCHOOL,20 ROBERT FROST DRIVE,,Hamilton,37,08690-2331
3368,ALEXANDER HAMILTON,24 MILLS STREET,,Morristown,37,7960
3903,Alexander Hamilton Academy,11  27 16TH AVENUE,,Paterson,37,7501
4430,Alexander Hamilton Preparatory Academy,310 Cherry St,,Elizabeth,37,7208
342,ALEXANDER HAMILTON SCHOOL,380 HARRISTOWN ROAD,,GLEN ROCK,37,7452
2232,Alexandria Middle School,557 COUNTY ROAD 513,,Pittstown,37,08867-9508
3551,Alfred C. MacKinnon Middle School,137 East Central Avenue,,Wharton,37,07885-2431
985,Alfred Cramer College Preparatory Lab Sc,2800 MICKLE STREET,,Camden,37,08105-2274
237,ALFRED S. FAUST,100 Uhland Street,,East Rutherford,37,7073
3370,Alfred Vail School,125 SPEEDWELL AVENUE,,MORRIS PLAINS,37,7950
2071,Alfred Zampella School,201 NORTH ST,,JERSEY CITY,37,07307-3336
971,Alice Costello Elementary School,301 Haakon rd.,,Brooklawn,37,8030
1202,Aline Bingham Elementary School,100 FIRST &amp; ORCHARD AVE,,Runnemede,37,8078
4727,ALLAMUCHY TOWNSHIP SCHOOL,20 JOHNSONBURG ROAD,,Allamuchy,37,07820-0394
4544,Allen W. Roberts School,80 JONES DR,,NEW PROVIDENCE,37,07974-1121
3238,Allentown High School,27 High Street,,Allentown,37,08501-0278
3246,Allenwood Elementary School,3301 ALLENWOOD  LAKEWOOD RD,,Wall,37,07719-1199
4076,Alloway Township School,43 CEDAR ST,,Alloway,37,8001
1375,Almond Road Preschool,860 N Orchard Rd,,Vineland,37,08360-2606
4731,Alpha Borough School,817 NORTH BOULEVARD,,Alpha,37,08865-4245
152,Alpine Elementary School,500 HILLSIDE AVENUE,,Alpine,37,7620
1036,Alternative High School,MALBERG BUILDING,,CHERRY HILL,37,08034-0391
3905,Alternative High School,151 ELLISON STREET,,Paterson,37,7505
4121,Alternative Middle &amp; High School,Salem Community College,,Carney&amp;#39;s Point,37,8069
1473,Althea Gibson Academy,490  WILLIAM STREET,,EAST ORANGE,37,7017
1619,American History High School,74 Montgomery St,,Newark,37,7103
4216,Amsterdam Elementary School,301 AMSTERDAM DRIVE,,Hillsborough,37,8844
4776,ANDOVER MORRIS ELEMENTARY SCHOOL,712 SOUTH MAIN STREET,,Phillipsburg,37,08865-3324
4288,Angelo L. Tomaso School,46 WASHINGTON VALLEY RD,,Warren,37,7059
1090,Ann A. Mullen Middle School,1400 Sicklerville Road,,Sicklerville,37,8081
356,Ann Blanche Smith,1000 HILLSDALE AVE,,Hillsdale,37,7642
1613,ANN STREET SCHOOL,30 ANN ST,,Newark,37,07105-3108
386,Anna C. Scott Elementary School,100 Highland Street,,Leonia,37,7605
2034,ANNA L. KLEIN,301  69TH ST,,Guttenberg,37,07093-2411
2073,Anthony J. Infante School,3055 KENNEDY BLVD,,JERSEY CITY,37,07306-3603
1377,Anthony Rossi Middle School,2572 PALERMO AVE,,Vineland,37,08360-7309
2743,Anthony V. Ceres Elementary School,445 STATE STREET,,PERTH AMBOY,37,08861-3534
4028,ANTHONY WAYNE MIDDLE SCHOOL,201 GARSIDE AVENUE,,Wayne,37,7470
2663,Applegarth Elementary School,227 Applegarth Rd,,Monroe Twp,37,8831
167,Applied Technology High School,400 County Road 62,,Paramus,37,7652
4054,Apshawa Elementary School,140 HIGH CREST DRIVE,,WEST MILFORD,37,07480-3708
2764,Arbor Elementary School,1717 LESTER PLACE,,Piscataway,37,8854
2984,Ardena Elementary School,355 ADELPHIA ROAD,,Farmingdale,37,07727-3528
7492,Ars Nova Academy,45 Dayton Crescent,NULL,Bernardsville,37,7924
4402,Arthur L. Johnson High School,365 WESTFIELD AVENUE,,Clark,37,7066
2701,Arthur M. Judd,1595 ROOSEVELT AVENUE,,NORTH BRUNSWICK,37,8902
4094,Arthur P Schalick High School,718 Centerton Road,,Pittsgrove,37,08318-8901
71,Arthur Rann Elementary School,515 S EIGHTH AVE,,Galloway,37,8205
3329,Arthur Stanlick Elementary School,121 B  SHAWNEE TRAIL,,LK SHAWNEE JEFFERSON TWSP,37,7885
1615,ARTS HIGH SCHOOL,550 M  L  KING BLVD,,Newark,37,07102-1214
2904,Asbury Park High School,1001 SUNSET AVENUE,,ASBURY PARK,37,07712-5099
2906,Asbury Park Middle School,1200 BANGS AVENUE,,ASBURY PARK,37,07712-6314
803,Ashbrook Elementary School,33 MUNICIPAL DRIVE,,Lumberton,37,8048
3063,Asher Holmes Elementary School,48 MENZEL LANE,,Morganville,37,07751-1298
7500,Assumption Regional Catholic School,146 South Pitney Road,NULL,Galloway,37,8205
1227,Atco Elementary,2162 COOPER ROAD,,Atco,37,08004-1033
1122,ATLANTIC AVE,21 East Atlantic Avenue,,HADDON HEIGHTS,37,8035
7509,Atlantic Christian School,391 Zion Rd,NULL,Egg Harbor Township,37,8234
4814,Atlantic City Community,200 North Texas Ave,,Atlantic City,37,8401
6,Atlantic City High School,1400 N Albany Avenue,,Atlantic City,37,08401-6153
31,Atlantic County Alternative High School,1450 19th Street,,Mays Landing,37,8330
27,Atlantic County Elementary and Middle Sc,4805 NAWAKWA BOULEVARD,,MAYS LANDING,37,8330
29,Atlantic County High School,4805 NAWAKWA BOULEVARD,,MAYS LANDING,37,8330
33,Atlantic County Institute of Technology,5080 ATLANTIC AVENUE,,MAYS LANDING,37,08330-2024
2914,Atlantic Highlands Elementary School,140 FIRST AVENUE,,ATLANTIC HIGHLANDS,37,07716-1238
877,Atlantis Elementary School,3 SCHOOL ROAD,,Joint Base MDL,37,8641
955,Audubon Junior/Senior High School,350 EDGEWOOD AVENUE,,Audubon,37,8106
1533,AUGUSTA PRESCHOOL ACADEMY,97 AUGUSTA STREET,,Irvington,37,7111
1870,Aura Elementary School,900 Clems Run,,Glassboro,37,08028-0338
4218,Auten Road Intermediate School,281 AUTEN ROAD,,Hillsborough,37,8844
154,Autistic,355 EAST RIDGEWOOD AVE,,Paramus,37,7652
1251,Avalon Elementary School,235 32ND STREET,,Avalon,37,8202
2853,AVENEL MIDDLE SCHOOL,WOODBINE AVENUE,,Avenel,37,7001
2855,AVENEL STREET ELEMENTARY SCHOOL,AVENEL STREET,,Avenel,37,07001-1411
1617,AVON AVENUE SCHOOL,219 AVON AVE,,Newark,37,07108-2801
2902,AVON ELEMENTARY SCHOOL,505 LINCOLN AVENUE,,Avon,37,07717-1150
961,Avon Elementary School,862 MERCER DR,,Haddonfield,37,8033
717,B. Bernice Young Elementary School,1203 NECK ROAD,,Burlington,37,08016-9741
1178,BALDWIN ELEMENTARY SCHOOL,41ST &amp; SHARON TERRACE,,Pennsauken,37,8110
1883,Bankbridge Regional School,870 BANKBRIDGE ROAD,,Sewell,37,8080
4552,Barack Obama Academy for Academic &amp; ,1200 MYRTLE AVE,,Plainfield,37,7063
4778,BARBER ELEMENTARY SCHOOL,50 SARGENT STREET,,Phillipsburg,37,08865-1520
2665,Barclay Brook School,358 BUCKELEW AVENUE,,MONROE TWP,37,8831
1038,Barclay Early Childhood Center,1220 WINSTON WAY,,CHERRY HILL,37,08034-2919
1621,BARD EARLY COLLEGE HIGH SCHOOL,321 BERGEN STREET,,Newark,37,7103
2260,Barley Sheaf Elementary School,80 BARLEY SHEAF ROAD,,Flemington,37,08822-9180
3563,Barnegat High School,180 BENGAL BLVD,,Barnegat,37,8005
2908,BARRACK OBAMA ELEMENTARY SCHOOL,1300 BANGS AVENUE,,ASBURY PARK,37,07712-6368
1633,Barringer Academy of S.T.E.A.M.,90 Parker Street,,Newark,37,7104
1623,BARRINGER ARTS HIGH SCHOOL,90 PARKER ST,,Newark,37,07104-1028
2602,BARTLE ELEMENTARY SCHOOL,435 MANSFIELD STREET,,HIGHLAND PARK,37,8904
701,BASS RIVER TOWNSHIP ELEMENTARY SCHOOL,11 NORTH MAPLE AVENUE,,NEW GRETNA,37,08224-0304
4663,BATTLE HILL,2600 KILLIAN PLACE,,Union,37,7083
3575,Bay Head Elementary,145 GROVE STREET,,BAY HEAD,37,8742
4298,Bayberry School,BAYBERRY LANE,,Watchung,37,7069
2057,Bayonne Academy,669 Avenue A,,Bayonne,37,07002-1851
2006,Bayonne Adult Alternative High School,669 Avenue A,,Bayonne,37,7002
2008,Bayonne High School,669 AVENUE A,,Bayonne,37,7002
3079,Bayshore Middle School,834 LEONARDVILLE ROAD,,Leonardo,37,07737-1796
3081,Bayview Elementary School,300 LEONARDVILLE ROAD,,Belford,37,07718-1299
3579,BAYVILLE ELEMENTARY SCHOOL,356 ATLANTIC CITY BLVD,,Bayville,37,08721-1246
3577,Beach Haven School,8th Street &amp; Beach Avenue,,Beach Haven,37,8008
3754,Beachwood Elementary School,901 BERKELEY AVENUE,,Beachwood,37,8722
2411,Bear Tavern Elementary School,1162 BEAR TAVERN ROAD,,Titusville,37,08560-9633
4070,Beatrice Gilmore School,1075 MCBRIDE AVENUE,,Woodland Park,37,07424-2538
4180,Bedminster Township Public School,234 SOMERVILLE ROAD,,Bedminster,37,7921
3319,Bee Meadow School,120 Reynolds Avenue,,Whippany,37,07981-1252
4536,BEECHWOOD SCHOOL,1497 WOODACRES DR,,Mountainside,37,7092
3004,Beers Street School,610 BEERS STREET,,Hazlet,37,07730-1405
103,Belhaven Middle School,51 BELHAVEN AVENUE,,Linwood,37,8221
965,Bell Oaks Upper Elementary School,256  Anderson Avenue,,Bellmawr,37,8031
1406,Belleville High School,100 PASSAIC AVE,,Belleville,37,07109-1807
1408,Belleville Middle School,279 WASHINGTON AVE,,Belleville,37,07109-3150
1410,Belleville PS10,527 BELLEVILLE AVE,,Belleville,37,07109-1307
1412,Belleville PS3,230 JORALEMON ST,,Belleville,37,07109-3210
1414,Belleville PS4,30 MAGNOLIA ST,,Belleville,37,07109-1110
1416,Belleville PS5,149 ADELAIDE ST,,Belleville,37,07109-2207
1418,Belleville PS7,20 PASSAIC AVE,,Belleville,37,07109-1864
1420,Belleville PS8,183 UNION AVE,,Belleville,37,07109-1628
1422,Belleville PS9,301 RALPH ST,,Belleville,37,07109-3309
967,BELLMAWR PARK ELEMENTARY SCHOOL,29 PEACH ROAD,,Bellmawr,37,8031
1970,BELLS ELEMENTARY SCHOOL,227 GREENTREE RD,,Turnersville,37,8012
2920,Belmar Elementary,1101 MAIN STREET,,Belmar,37,07719-2727
1625,BELMONT RUNYON ELEMENTARY SCHOOL,1 BELMONT RUNYON WAY,,Newark,37,07108-2406
4816,BelovED Community Charte,508 Grand Street,,Jersey City,37,7302
4733,Belvidere High School,809 OXFORD STREET,,Belvidere,37,7823
2423,Ben Franklin Elementary,2939 PRINCETON PIKE,,Lawrenceville,37,08648-3224
3555,Benedict A. Cucinella School,470 NAUGHRIGHT ROAD,,LONG VALLEY,37,7853
1475,Benjamin Banneker Academy,500 South Clinton Street,,EAST ORANGE,37,7018
4818,Benjamin Banneker Prep CS,300 Willingboro Way,,Willingboro,37,8046
2565,Benjamin Franklin Elementary School,2485 WOODBRIDGE AVENUE,,Edison,37,8817
1627,BENJAMIN FRANKLIN ELEMENTARY SCHOOL,42 PARK AVE,,Newark,37,07104-1044
1180,BENJAMIN FRANKLIN ELEMENTARY SCHOOL,7201 IRVING AVENUE,,Pennsauken,37,08109-3173
559,Benjamin Franklin Middle School,335 NORTH VAN DIEN AVE,,Ridgewood,37,7451
636,Benjamin Franklin Middle School,1315 TAFT ROAD,,Teaneck,37,7666
4432,Benjamin Franklin School No. 13,248 RIPLEY PL,,Elizabeth,37,07206-2122
4820,Bergen Arts and Sciences,200 MACARTHUR AVENUE,,Garfield,37,7026
552,Bergen Boulevard School,635 BERGEN BLVD,,Ridgefield,37,7657
169,Bergen County Academies,200 Hackensack Avenue,,Hackensack,37,07601-6110
171,Bergen County Technical High School - Pa,E.285 Pascack Road,,Paramus,37,07652-4237
173,Bergen County Technical High School - Te,504 Route 46 West,,Teterboro,37,7608
175,Bergen County Technical Schools Adult &a,200A Hackensack Avenue,,Hackensack,37,7601
5880,Bergenfield High School,80 South Prospect Street,,Bergenfield,37,7621
1423,BERKELEY ELEMENTARY,351 Bloomfield Ave,,Bloomfield,37,07003-4804
656,BERKELEY ELEMENTARY,47 BERKELEY AVE,,Westwood,37,07675-2401
1535,BERKELEY TERRACE,787     GROVE STREET,,Irvington,37,07111-3605
3581,BERKELEY TOWNSHIP ELEMENTARY SCHOOL,10 EMORY ROAD,,Bayville,37,8721
456,BERKLEY STREET ELEMENTARY SCHOOL,812 BERKLEY STREET,,NEW MILFORD,37,7646
973,Berlin Community School,215 S FRANKLIN AVE,,Berlin,37,08009-9220
4278,Bernards High School,25 OLCOTT AVENUE,,Bernardsville,37,7924
4280,Bernardsville Middle School,141 SENEY DRIVE,,Bernardsville,37,7924
458,BERTRAND F GIBBS ELEMENTARY SCHOOL,195 SUTTON PLACE,,NEW MILFORD,37,7646
430,Betsy Ross Elementary,20 MALCOLM RD,,Mahwah,37,07430-1822
3260,Betty McElmon Elementary,20 PARKER ROAD,,WEST LONG BRANCH,37,07764-1133
703,Beverly City School,601 BENTLEY AVE,,Beverly,37,8010
1926,Billingsport Elementary School,441 NASSAU AVE,,Paulsboro,37,8066
3161,Biotechnology High School,5000 Kozloski Road,,Freehold,37,07728-5033
1972,BIRCHES ELEMENTARY SCHOOL,416 WESTMINSTER BLVD,,Turnersville,37,08012-1625
3509,Birchwood Elementary School,1 ART STREET,,Dover,37,7801
5320,Bishop Eustace Preparatory School,5552 NJ-70,,Pennsauken Township,37,8109
7505,Bishop Schad Regional School,922 E Landis Avenue,NULL,Vineland,37,8360
3280,Black River Middle School,133 Rt. 513 - North Road,,Chester,37,7930
1092,BLACKWOOD ELEMENTARY SCHOOL,260 BLENHEIM  ERIAL RD,,Blackwood,37,8012
4738,Blairstown Elementary School,1 SUNSET HILL ROAD,,Blairstown,37,7825
1425,Bloomfield High School,160 Broad Street,,Bloomfield,37,07003-2628
1427,Bloomfield Middle School,60 Huck Road,,Bloomfield,37,07003-4144
1513,Bloomfield Tech,209 FRANKLIN STREET,,Bloomfield,37,07003-4878
4412,Bloomingdale Avenue School,200 BLOOMINGDALE AVENUE,,Cranford,37,7016
2240,Bloomsbury School,20 Main Street,,Bloomsbury,37,08804-9538
805,Bobby&amp;#39;s Run Elementary School,32 DIMSDALE DRIVE,,Lumberton,37,8048
191,Bogota Jr./Sr. High School,2 HENRY C  LUTHIN PLACE,,Bogota,37,7603
3264,Boonton High School,306 LATHROP AVENUE,,Boonton,37,07005-2220
725,Bordentown Regional High School,318 WARD AVE,,Bordentown,37,08505-9615
727,Bordentown Regional Middle School,50 DUNNS MILL ROAD,,Bordentown,37,8505
4143,BOUND BROOK HIGH SCHOOL,111 West Union Avenue,,BOUND BROOK,37,8805
2543,Bowne-Munro Elementary School,120 MAIN STREET,,E BRUNSWICK,37,8816
1589,Bradford Elementary School,87 MT HEBRON RD,,UPPER MONTCLAIR,37,7042
2922,Bradley Beach Elementary School,515 BRINLEY AVENUE,,BRADLEY BEACH,37,07720-1311
2910,Bradley Elementary School,1100 THIRD AVENUE,,ASBURY PARK,37,07712-5798
4160,BRADLEY GARDENS ELEMENTARY SCHOOL,148 PINE STREET,,Bridgewater,37,8807
3278,BRAGG ELEMENTARY SCHOOL,250 Route 24,,Chester,37,7930
1629,BRANCH BROOK SCHOOL,228 RIDGE ST,,Newark,37,07104-1204
4152,Branchburg Central Middle School,220 BAIRD ROAD,,Branchburg,37,08876-3784
4806,Brass Castle School,16 CASTLE STREET,,Washington,37,07882-9804
4646,Brayton Elementary School,89 TULIP STREET,,Summit,37,07901-3410
1040,Bret Harte Elementary School,1909 QUEEN ANNE DR,,CHERRY HILL,37,08003-2843
3444,Briarcliff Middle School,93 Briarcliff Rd.,,Mountain Lakes,37,7046
3309,BRIARWOOD SCHOOL,151 BRIARWOOD ROAD,,FLORHAM PARK,37,7932
3587,Brick Township High School,346 CHAMBERS BRIDGE RD,,BRICK TOWN,37,08723-2804
3589,Brick Township Memorial High School,2001 LANES MILL RD,,Brick,37,08724-1405
1313,Bridgeton High School,111 N WEST AVENUE,,Bridgeton,37,8302
4822,Bridgeton Public Charter School,790 East Commerce Ave,,Bridgeton,37,8302
6846,Bridgewater-Raritan High School,600 Garretson Rd,,Bridgewater,37,8807
4162,BRIDGEWATER-RARITAN REGIONAL HIGH SCHOOL,600 GARRETSON ROAD,,Bridgewater,37,8807
4164,BRIDGEWATER-RARITAN REGIONAL MIDDLE SCHO,128 MERRIWOOD RD,,Bridgewater,37,8807
2918,Brielle Elementary School,605 UNION LANE,,Brielle,37,08730-1439
45,Brigantine Elementary School,301 E  EVANS BOULEVARD,,Brigantine,37,8203
47,Brigantine North Middle School,301 E  EVANS BOULEVARD,,Brigantine,37,8203
2648,Bright Beginnings Learning Center,1660 STELTON ROAD,,Piscataway,37,08854-5917
8,Brighton Avenue School,30 N. Brighton Avenue,,Atlantic City,37,8401
1888,Broad Street Elementary School,255 WEST BROAD ST,,Gibbstown,37,8027
1315,Broad Street School,251 WEST BROAD STREET,,Bridgeton,37,8302
1797,Brookdale Avenue School,14 BROOKDALE COURT,,Verona,37,07044-2431
1429,BROOKDALE ELEMENTARY,1230 Broad Street,,Bloomfield,37,07003-3031
3311,BROOKLAKE SCHOOL,235 BROOKLAKE ROAD,,FLORHAM PARK,37,7932
3453,Brooklawn Middle School,250 Beachwood Road,,Parsippany,37,07054-2459
2802,Brooks Crossing Elementary School,50 DEANS HALL ROAD,,MONMOUTH JUNCTION,37,8852
148,Brookside,100 BROOKSIDE AVE,,Allendale,37,7401
2667,Brookside Elementary School,370 BUCKELEW AVENUE,,MONROE TOWNSHIP,37,8831
658,Brookside Elementary School,20 LAKE DRIVE,,Westwood,37,07675-2935
4414,Brookside Place School,700 BROOKSIDE PLACE,,Cranford,37,7016
1631,BRUCE STREET SCHOOL FOR THE DEAF,333 CLINTON PL,,Newark,37,07112-1563
2804,Brunswick Acres Elementary School,41 KORY DRIVE,,KENDALL PARK,37,8824
1317,Buckshutem Road School,550 BUCKSHUTEM ROAD,,Bridgeton,37,08302-9501
35,Buena Regional High School,125 Weymouth Road,,Buena,37,08310-9620
37,Buena Regional Middle School,175 Weymouth Road,,Buena,37,8310
735,Bulington City High School,100 Blue Devil WAy,,Burlington,37,8016
1974,Bunker Hill Middle School,372 Pitman Downer RD,,Sewell,37,8080
4824,Burch Charter School of,100 LINDEN AVE,,Irvington,37,7111
7498,Burlington City High School,100 Blue Devil,NULL,Burlington,37,8016
711,Burlington County Alternative High Schoo,1000 Briggs Road,,Mt. Laurel,37,8054
705,BURLINGTON COUNTY INST OF TECH - Evening,695 WOODLANE ROAD,,Westampton,37,8060
709,BURLINGTON COUNTY INST OF TECH - Westham,695 WOODLANE RD,,WESTAMPTON TWP,37,08060-9614
707,Burlington County Institute of Tech - Medford,10 Hawkin Road,,Medford,37,08055-9412
719,Burlington Township High School,610 FOUNTAIN AVENUE,,Burlington,37,8016
721,Burlington Township Middle School at Spr,1600 BURLINGTON BY  PASS,,Burlington,37,8016
1557,Burnet Hill Elementary School,25 BYRON PLACE,,Livingston,37,7039
4665,BURNET MIDDLE SCHOOL,1000 CALDWELL AVENUE,,Union,37,7083
3274,Butler High School,38 BARTHOLDI AVENUE,,Butler,37,7405
4305,Byram Intermediate School,12 MANSFIELD DRIVE,,Stanhope,37,7874
4307,Byram Lakes Elementary School,11 MANSFIELD DRIVE,,Stanhope,37,7874
2964,C. Richard Applegate School,47 JEANNE BRENNAN DRIVE,,Freehold,37,07728-1328
2242,Califon Elementary,6 SCHOOL STREET,,Califon,37,07830-9044
693,Calvin Coolidge Elementary School,420 GRANDVIEW AVE,,Wyckoff,37,07481-2517
4500,Calvin Coolidge School,614 TILLMAN ST,,Hillside,37,07205-1721
2806,Cambridge Elementary School,35 CAMBRIDGE ROAD,,KENDALL PARK,37,8824
3137,Cambridge Park Elementary School,One Crest Way,,Aberdeen,37,7747
4826,Camden Academy Charter High School,879 BEIDEMAN AVENUE,,Camden,37,8106
5311,Camden Catholic High School,300 Cuthbert Blvd,,Cherry Hill,37,8002
4828,Camden Community CS,9th &amp; Linden Streets,,Camden,37,8102
1030,Camden County Technical School-GTC,343 Berlin Cross Keys Road,,Sicklerville,37,8081
1032,Camden County Technical School-Pennsauke,6008 Browning Road,,Pennsauken,37,8109
987,Camden High School,1700 Park Boulevard,,Camden,37,8103
1635,CAMDEN STREET ELEMENTARY SCHOOL,281 CAMDEN ST,,Newark,37,07103-2635
4830,CAMDEN&amp;#39;S PROMISE CS,879 BEIDEMAN AVENUE,,Camden,37,8105
4832,Camdens Pride Charter Sc,879 Beideman Ave,,Camden,37,8105
2614,Campbell Elementary School,24 DURHAM AVENUE,,Metuchen,37,8840
3402,Canfield Avenue School,42 CANFIELD AVENUE,,MINE HILL,37,7803
1253,Cape May City Elementary School,921 LAFAYETTE ST,,CAPE MAY,37,08204-1646
1255,Cape May County High School,148 CREST HAVEN ROAD,,CAPE MAY COURT HOUSE,37,8210
1258,Cape May County Technical Evening School,188 CREST HAVEN ROAD,,CAPE MAY COURT HOUSE,37,8210
1259,Cape May County Technical Evening Vo-Tec,188 CREST HAVEN ROAD,,CAPE MAY COURT HOUSE,37,8210
1261,Cape May County Technical High SChool,188 CREST HAVEN RD,,CAPE MAY COURT HOUSE,37,8210
737,Captain James Lawrence Elementary School,315 BARCLAY ST,,Burlington,37,8016
1755,Career and Innovation Academy of Orange,123 Cleveland Street,,Orange,37,07050-2280
4404,Carl H. Kumpf School,59 MILDRED TERRACE,,Clark,37,7066
2715,Carl Sandburg Middle School,3439 ROUTE 516,,OLD BRIDGE,37,8857
1271,Carl T. Mitnick Elementary School,905 SEASHORE ROAD,,CAPE MAY,37,08204-4650
3619,Carl W. Goetz Middle School,835 PATTERSON ROAD,,Jackson,37,08527-3497
197,CARLSTADT PUBLIC SCHOOL,550 WASHINGTON STREET,,Carlstadt,37,7072
1954,Caroline L. Reutter School,2150 DELSEA DR,,Franklinville,37,08322-2522
1431,CARTERET ELEMENTARY,158 Grove Street,,Bloomfield,37,07003-5650
2525,Carteret High School,199 WASHINGTON AVENUE,,Carteret,37,7008
2527,Carteret Middle School,300 CARTERET AVENUE,,Carteret,37,7008
1379,Casimer M. Dallago Jr. Impact Center,240 S. Sixth Street,,Vineland,37,08360-4625
3856,Casimir Pulaski School # 8,100 Fourth St.,,Passaic,37,07055-7604
3511,Catherine A Dwyer Elementary School,665 MT  HOPE AVENUE,,Wharton,37,7885
681,Catherine E. Doyle Elementary School,250 WOOD  RIDGE AVE,,WOOD  RIDGE,37,07075-1510
3565,"Cecil S, Collins Elementary",570 BARNEGAT BLVD  NORTH,,Barnegat,37,8005
3639,Cedar Creek Elementary School,220 WESTERN BLVD,,LANOKA HARBOR,37,08734-0313
85,Cedar Creek High School,1701 New York Ave.,,Egg Harbor City,37,08215-1606
2924,Cedar Drive Middle School,73 CEDAR DRIVE,,COLTS NECK,37,07722-1698
3756,Cedar Grove Elementary School,179 CEDAR GROVE ROAD,,TOMS RIVER,37,08753-4399
1457,Cedar Grove High School,90 RUGBY RD,,CEDAR GROVE,37,7009
4182,Cedar Hill School,100 PEACHTREE ROAD,,BASKING RIDGE,37,7920
3404,Cedar Hill School,46 PINE BROOK ROAD,,Towaco,37,07082-1426
4376,Cedar Mountain Primary School,17 SAMMIS ROAD,,Vernon,37,07462-0420
4554,Cedarbrook Elementary School,1049 CENTRAL AVE,,Plainfield,37,07060-2801
2650,Center for Lifelong Learning,333 CHEESEQUAKE RD,,Parlin,37,8859
3491,Center Grove School,25 SCHOOL HOUSE ROAD,,Randolph,37,7869
1900,Center Square School,100 PEACHWOOD DR,,LOGAN TWP,37,8085
3388,Central Avenue School,50 CENTRAL AVENUE,,Madison,37,7940
1848,Central Early Childhood Center,1447 DELSEA DRIVE,,Deptford,37,8096
2545,Central Elementary School,371 CRANBURY ROAD,,EAST BRUNSWICK,37,8816
3299,Central Elementary School,400 RIDGEDALE AVENUE,,EAST HANOVER,37,07936-1492
4744,CENTRAL ELEMENTARY SCHOOL,281 ROUTE 46,,GREAT MEADOWS,37,7838
3248,Central Elementary School,2007 ALLENWOOD ROAD,,Wall,37,07719-1199
1637,CENTRAL HIGH SCHOOL,250 18TH AVENUE,,Newark,37,7103
4834,Central Jersey College P,17 Schoolhouse Rd,,Somerset,37,08873-1235
7484,Central Jersey College Prep Charter School,17 Schoolhouse Road,NULL,Somerset,37,8873
1141,Central Middle School,THREE LINCOLN AVENUE,,Haddonfield,37,8033
3455,Central Middle School,1620 Route 46,,Parsippany,37,7054
3354,Central Middle School,90 Central Avenue,,Stirling,37,7980
4084,Central Park Elementary School,43 OLIVER AVE,,Pennsville,37,08070-1531
3611,Central Regional High School,509 FOREST HILLS PARKWAY,,Bayville,37,8721
3613,Central Regional Middle School,509 FOREST HILLS PARKWAY,,Bayville,37,8721
344,CENTRAL SCHOOL,600 S MAPLE AVE,,GLEN ROCK,37,07452-1821
4290,Central School,109 MT BETHEL RD,,Warren,37,7059
1918,Centre City Elementary School,301 COLUMBUS DR,,Mantua,37,8051
827,Chairville Elementary School,36 CHAIRVILLE ROAD,,Medford,37,8055
1537,CHANCELLOR AVENUE SCHOOL,844     CHANCELLOR AVENUE,,Irvington,37,7111
1639,CHANCELLOR AVENUE SCHOOL,321 CHANCELLOR AVE,,Newark,37,07112-1201
2075,Chaplain Charles Watters School,220 VIRGINIA AVE,,JERSEY CITY,37,07304-1424
482,Charles DeWolf Middle School,275 OLD TAPPAN RD,,OLD TAPPAN,37,07675-7047
2077,Charles E. Trefurt School,96 FRANKLIN ST,,JERSEY CITY,37,7307
1369,Charles F. Seabrook School,1373 Highway 77,,Seabrook,37,08302-4261
1591,Charles H. Bullock School,55 Washington Street,,Montclair,37,7042
4556,Charles H. Stillman Elementary School,201 W FOURTH ST,,Plainfield,37,07060-4235
3906,"CHARLES J RILEY, SCHOOL 9",6 TIMOTHY STREET,,Paterson,37,7503
4434,Charles J. Hudson School No. 25,525 FIRST AVENUE,,Elizabeth,37,7206
49,Charles L. Spragg School,601 BUFFALO AVE,,EGG HARBOR CITY,37,08215-2105
4072,Charles Olbon School,50 LINCOLN LANE,,Woodland Park,37,7424
501,Charles R Smith Early Chilhood Center,271 SECOND STREET,,PALISADES PARK,37,7650
889,Charles Street School,100 W  CHARLES STREET,,Palmyra,37,8065
989,Charles Sumner Elementary School,1600 South 8th Street,,Camden,37,8104
1094,CHARLES W. LEWIS MIDDLE SCHOOL,875 ERIAL ROAD,,Blackwood,37,8012
4977,Charter-Tech High School,413 New Road,,Somers Point,37,8244
3535,Chatham High School,255 LAFAYETTE AVENUE,,Chatham,37,7928
3537,Chatham Middle School,480 MAIN STREET,,Chatham,37,07928-2120
949,Chatsworth Elementary School,2 John Bowker Jr. Blvd,,Chatsworth,37,08019-0477
2717,Cheesequake Elementary School,111 ROUTE 34,,Matawan,37,07747-3450
10,Chelsea Heights School,4101  Filbert Avenue,,Atlantic City,37,08401-1023
795,Cherokee High School,120 TOMLINSON MILL ROAD,,Marlton,37,8053
1042,Cherry Hill High School East,1750 KRESSON RD,,CHERRY HILL,37,08003-2598
1044,Cherry Hill High School West,2101 CHAPEL AVE,,CHERRY HILL,37,8002
583,Cherry Hill School,410 BOGERT RD,,RIVER EDGE,37,07661-1813
1319,Cherry Street School,11 CHERRY STREET,,Bridgeton,37,8302
3432,Chester M. Stephens Elementary School,99 SUNSET DRIVE,,BUDD LAKE,37,7828
752,Chesterfield Township Elementary School,30 Saddle Way,,Chesterfield,37,8515
1976,Chestnut Ridge Middle School,641 Hurffville  Crosskeys Road,,Sewell,37,8080
1096,CHEWS ELEMENTARY SCHOOL,600 CHEWSLANDING SOMERDALE RD,,Blackwood,37,8012
1348,CHILD FAMILY CENTER,1100 COOMBS RD.,,Millville,37,8332
2547,Chittick Elementary School,5 FLAGLER STREET,,E BRUNSWICK,37,8816
3621,Christa McAuliffe Middle School,35 SOUTH HOPE CHAPEL ROAD,,Jackson,37,08527-3497
2079,Christa McAuliffe School,167 HANCOCK AVE,,JERSEY CITY,37,07307-2017
3798,Christopher Columbus Middle School,350 PIAGET AVENUE,,Clifton,37,7011
319,CHRISTOPHER COLUMBUS SCHOOL #8,147 CEDAR STREET,,Garfield,37,7026
4436,Christopher Columbus School No. 15,511 THIRD AVE,,Elizabeth,37,07202-3907
1523,Churchill,233 FAIRFIELD ROAD,,Fairfield,37,7006
2549,Churchill Jr High School,18 NORTON ROAD,,E BRUNSWICK,37,8816
1477,Cicely L. Tyson Community Elementary Sch,45 North Arlington Street,,EAST ORANGE,37,7017
1479,Cicely L. Tyson Community Middle/High Sc,35 Winans Street,,EAST ORANGE,37,7017
744,Cinnaminson High School,1197 Riverton Road,,Cinnaminson,37,8077
746,Cinnaminson Middle School,312 North Forklanding Road,,Cinnaminson,37,8077
3583,CLARA B. WORTH ELEMENTARY SCHOOL,57 CENTRAL PARKWAY,,Bayville,37,08721-2414
729,Clara Barton Elementary,100 CROSSWICKS ST,,Bordentown,37,08505-1739
1046,Clara Barton Elementary School,223 RHODE ISLAND AVE,,CHERRY HILL,37,08034-3121
346,CLARA E COLEMAN SCHOOL,100 PINELYNN RD,,GLEN ROCK,37,07452-3025
2857,CLAREMONT AVENUE ELEMENTARY SCHOOL,CLAREMONT AVENUE,,Colonia,37,7067
879,Clarence B. Lamb Elementary School,46 SCHOOLHOUSE ROAD,,Wrightstown,37,8562
2171,CLARENDON NO 4,685 FIFTH ST,,Secaucus,37,07094-3004
3117,Clark Mills School,34 GORDONS CORNER ROAD,,Manalapan,37,07726-3798
4406,Clark Preschool Annex,430 Westfield Ave,,Clark,37,7066
3163,CLASS ACADEMY,105 Neptune Blvd- Suite 305,,Neptune,37,7753
4836,Classical Academy Charter School,20 VALLEY ROAD,,Clifton,37,7013
1835,Clayton High School,55 Pop Kramer Boulevard,,Clayton,37,08312-1700
55,CLAYTON J. DAVENPORT ELEMENTARY SCHOOL,2501 SPRUCE AVENUE,,EGG HARBOR TOWNSHIP,37,08234-4513
1836,Clayton Middle School,55 POP KRAMER BLVD,,Clayton,37,08312-1700
1840,Clearview Regional High School,625 BREAKNECK RD,,MULLICA HILL,37,8082
1842,Clearview Regional Middle School,595 JEFFERSON RD,,MULLICA HILL,37,8062
1072,Clementon Elementary School,4 AUDUBON AVE,,Clementon,37,8021
1641,CLEVELAND Eighteenth Avenue School,388 BERGEN ST,,Newark,37,07103-2232
1753,CLEVELAND STREET ELEMENTARY SCHOOL,355 CLEVELAND ST,,Orange,37,07050-1916
199,Cliffside Park High School,538 PALISADE AVENUE,,CLIFFSIDE PARK,37,7010
3139,Cliffwood Elementary School,422 CLIFFWOOD AVENUE,,Cliffwood,37,07721-1195
3653,Clifton Ave Grade School,625 CLIFTON AVENUE,,Lakewood,37,8701
4370,CLIFTON E LAWRENCE,31 RYAN ROAD,,Wantage,37,7461
3800,Clifton High School,333 COLFAX AVENUE,,Clifton,37,7013
2966,Clifton T. Barkalow School,498 STILLWELLS CORNER ROAD,,Freehold,37,07728-2982
1777,Clinton Elementary School,27 BERKSHIRE RD,,Maplewood,37,07040-1429
4558,Clinton Elementary School,WEST 4TH ST  AND CLINTON AVE,,Plainfield,37,7063
2252,Clinton Public School,10 SCHOOL STREET,,Clinton,37,8809
2244,Clinton Township Middle School,34 GRAYROCK ROAD,,Clinton,37,8809
1129,Clyde S. Jennings Elementary School,100 CEDAR AVENUE,,Oaklyn,37,8107
1114,Cold Springs School,1194 MARKET STREET,,GLOUCESTER CITY,37,8030
2179,Colin Powell Elementary School,1500 New York Avenue,,Union City,37,7087
4838,College Achieve Central,365 Emerson Ave,,Plainfield,37,7062
39,COLLINGS LAKES ELEMENTARY SCHOOL,620 CAINS MILL RD  &amp; LAKE GEOR,,Williamstown,37,08094-8419
1074,Collingswood High School,424 COLLINGS AVE,,Collingswood,37,8108
1076,Collingswood Middle School,414 COLLINGS AVE,,Collingswood,37,8108
1559,Collins Elementary School,67 MARTIN RD,,Livingston,37,07039-4631
2859,Colonia High School,180 East Street,,Colonia,37,7067
2861,COLONIA MIDDLE SCHOOL,DELAWARE AVENUE,,Colonia,37,7067
274,COLONIAL ROAD SCHOOL,749 COLONIAL ROAD,,FRANKLIN LAKES,37,7417
2952,Colts Neck High School,59 FIVE POINTS ROAD,,COLTS NECK,37,07722-1710
1779,Columbia High School,17 PARKER AVE,,Maplewood,37,7040
4390,Columbia Middle School,345 PLAINFIELD AVE,,BERKELEY HTS,37,07922-1436
2529,Columbus Elementary School,1 CARTERET AVENUE,,Carteret,37,7008
2462,Columbus Elementary School,1200 BRUNSWICK AVENUE,,Trenton,37,8638
396,Columbus School,370 WESTERVELT PLACE,,Lodi,37,7644
410,Columbus School,640 LAKE AVE,,Lyndhurst,37,07071-1207
3165,Communications High School,1740 NEW BEDFORD ROAD,,Wall,37,07719-1320
4840,COMMUNITY CHARTER SCHOOL,75 SPRUCE ST,,Paterson,37,07501-1720
4145,Community Middle School,120 East Second Street,,BOUND BROOK,37,8805
2504,Community Middle School,95 GROVERS MILL ROAD,,Plainsboro,37,8536
2444,Community Park School,372 WITHERSPOON STREET,,Princeton,37,08540-3477
4842,COMPASS ACADEMY CS,2384 E. Landis Avenue,,Vineland,37,8361
2766,Conackamack Middle School,5205 WITHERSPOON STREET,,Piscataway,37,8854
4194,Conerly Road School,35 CONERLY ROAD,,Somerset,37,08873-2301
4667,CONNECTICUT FARMS,875 STUYVESANT AVENUE,,Union,37,7083
2926,Conover Road Elementary School,76 CONOVER ROAD,,COLTS NECK,37,07722-1250
2928,Conover Road Primary School,56 CONOVER ROAD,,COLTS NECK,37,07722-1250
2808,Constable Elementary School,29 CONSTABLE ROAD,,KENDALL PARK,37,8824
991,Cooper B. Hatch Family School,1875 Park Boulevard,,Camden,37,8103
993,Cooper&amp;#39;s Poynt Family School,201 State Street,,Camden,37,8102
3513,Copeland Middle School,100 LAKE SHORE DRIVE,,Rockaway,37,7866
2262,Copper Hill Elementary School,100 EVERITTS RD,,Ringoes,37,8551
2081,Cornelia F. Bradford School,96 SUSSEX ST,,JERSEY CITY,37,07302-4402
859,Countryside Elementary School,115 SCHOOLHOUSE LANE,,MOUNT LAUREL,37,8054
2059,County Prep High School,525 MONTGOMERY STREET,,JERSEY CITY,37,07306-3237
222,County Road School,130 COUNTY RD,,Demarest,37,07627-2431
3006,Cove Road School,8 COVE ROAD,,Hazlet,37,07730-2120
3331,Cozy Lake Elementary School,205 COZY LAKE ROAD,,OAK RIDGE,37,07438-9125
829,Cranberry Pines Elementary,400 FAIRVIEW ROAD,,Medford,37,08055-9172
2535,Cranbury School,23 N MAIN ST,,Cranbury,37,08512-3203
4416,Cranford High School,201 WEST END PLACE,,Cranford,37,7016
3623,Crawford-Rodriguez Elementary School,1025 LARSEN ROAD,,Jackson,37,08527-3497
995,Creative Arts Morgan Village Academy,990 Morgan Boulevard,,Camden,37,8104
668,Crescent Elementary School,165 CRESCENT AVENUE,,Waldwick,37,7463
7205,Cresskill High School,1 Lincoln Drive,,Cresskill,37,7626
217,Cresskill Middle School,1 LINCOLN DR,,Cresskill,37,7626
1310,CREST MEMORIAL SCHOOL,9100 PACIFIC AVE,,WILDWOOD CREST,37,08260-3433
4166,CRIM ELEMENTARY SCHOOL,1300 CRIM RD,,Bridgewater,37,8807
2810,Crossroads North Middle School,635 GEORGES ROAD,,MONMOUTH JUNCTION,37,8852
4683,Crossroads School,45 CARDINAL DRIVE,,Westfield,37,7090
2812,Crossroads South Middle School,195 Major Road,,MONMOUTH JUNCTION,37,8852
4123,Cumberland Campus,13 Ramah Road,,Bridgeton,37,8302
7470,Cumberland Christian School,1100 W Sherman Ave,NULL,Vineland,37,8360
1329,Cumberland County Technical Education Ce,601 BRIDGETON AVENUE,,Bridgeton,37,08302-9104
1331,Cumberland Regional High School,CUMB. REGIONAL HIGH SCHOOL,,Bridgeton,37,8302
3908,DALE AVENUE,295-315 ELLISON STREET,,Paterson,37,7501
1380,Dane Barse Elementary School,240 S ORCHARD RD,,Vineland,37,08360-4337
3858,Daniel F. Ryan Elementary School # 19,320 Highland Ave.,,Passaic,37,7055
2226,Daniel Webster School,2700  PALISADE AVE,,Weehawken,37,7086
4125,Daretown School,404 DARETOWN ROAD,,Elmer,37,8318
4510,David Brearley Middle/High School,401 MONROE AVENUE,,Kenilworth,37,7033
3065,David C Abbott Early Learning Center,171 TENNENT ROAD,,Morganville,37,7751
1273,David C. Douglass Memorial School,2600 BAYSHORE RD,,Villas,37,08251-4650
460,DAVID E. OWENS MIDDLE SCHOOL,470 MARION AVENUE,,NEW MILFORD,37,7646
136,Dawes Avenue Elementary School,22 W. Dawes Avenue,,Somers Point,37,08244-1408
2464,Daylight/Twilight High School,501 Edgewood Avenue,,Trenton,37,8618
2930,Deal Elementary School,201 ROSELD AVENUE,,Deal,37,07723-1098
3208,Deane-Porter Elementary School,50 BLACKPOINT ROAD,,Rumson,37,07760-1592
120,Decatur Avenue Early Childhood Center,115 WEST DECATUR AVE,,Pleasantville,37,08232-0960
4538,DEERFIELD ELEMENTARY SCHOOL,302 CENTRAL AVENUE,,Mountainside,37,7092
1575,Deerfield School,26 TROY LANE,,SHORT HILLS,37,7078
1335,DEERFIELD TOWNSHIP SCHOOL,419  MORTON AVE,,Rosenhayn,37,08352-0375
1181,DELAIR ELEMENTARY SCHOOL,850 DEROUSSE AVENUE,,Delair,37,08110-3411
2256,Delaware Township School,501 ROSEMONT  RINGOES ROAD,,Sergeantsville,37,8557
2254,Delaware Valley Regional High School,19 Senator Stout Rd,,Frenchtown,37,8825
7502,Delbarton School,230 Mendham Road,NULL,Morristown,38,7960
757,Delran High School,50 HARTFORD ROAD,,Delran,37,8075
759,Delran Intermediate School,20 CREEK ROAD,,Delran,37,8075
761,Delran Middle School,905 CHESTER AVENUE,,Delran,37,8075
1844,Delsea Regional High School,FRIES MILL RD,,Franklinville,37,08322-9139
1846,Delsea Regional Middle School,FRIES MILL RD,,Franklinville,37,8322
1433,DEMAREST ELEMENTARY,465 Broughton Ave,,Bloomfield,37,07003-4232
224,Demarest Middle School,568 PIERMONT RD,,Demarest,37,07627-1617
3515,Dennis B O&amp;#39;Brien Elementary Scho,16 MINERAL SPRING DRIVE,,Dover,37,7801
1265,Dennis Township Elementary/Middle School,165 Academy Road,,Dennisville,37,8214
1263,DENNIS TOWNSHIP PRIMARY SCHOOL,601 HAGAN ROAD,,CAPE MAY COURT HOUSE,37,8210
5813,Deprecated West Morris Mendham HS,65 East Main St.,,Mendham,37,7869
662,DEPRECATED: Use 6942 instead! Westwood Junior/Senior High School,701 RIDGEWOOD ROAD,,TOWNSHIP OF WASHINGTON,37,7676
1850,Deptford Township High School,575 S FOX RUN RD,,Deptford,37,8096
2916,Developmental Learning Center,100 Tornillo Way,,Tinton Falls,37,7712
4540,Developmental Learning Center New Provid,330 CENTRAL AVENUE,,NEW PROVIDENCE,37,7974
4542,Developmental Learning Center Warren,217 MOUNTAINVIEW ROAD,,Warren,37,7059
4560,Dewitt D. Barlow Elementary School,E  FRONT ST &amp; FARRAGUT RD,,Plainfield,37,7060
3282,DICKERSON ELEMENTARY SCHOOL,250 Rt. 24,,Chester,37,7930
1481,Dionne Warwick Institute,120 CENTRAL AVE,,EAST ORANGE,37,07018-3939
4844,DISCOVERY CS,240 Halsey St,,Newark,37,7102
881,Discovery Elementary School,2 SCHOOL ROAD,,Joint Base MDL,37,8641
488,Dogwood Hill Elementary School,25 DOGWOOD DR,,Oakland,37,07436-2659
3910,DON BOSCO ACADEMY,202 UNION AVENUE,,Paterson,37,7502
264,Donald A. Quarles Early Childhood Center,186 Davison Place,,Englewood,37,7631
4438,Donald Stewart Early Childhood Center #5,544 PENNSYLVANIA AVENUE,,Elizabeth,37,7208
687,Dorchester Elementary School,100 DORCHESTER ROAD,,WOODCLIFF LAKE,37,7677
1873,Dorthy L. Bullock School,370 E  NEW ST,,Glassboro,37,8028
3292,Dover High School,100 GRACE STREET,,Dover,37,07801-2697
7127,Dover High School,57 Kenvil Ave,,Succasunna,37,7876
3294,Dover Middle School,302 EAST MCFARLAN STREET,,Dover,37,7801
1337,Downe Township Elementary School,220 MAIN ST,,Newport,37,08345-9711
4846,Dr Lena Edwards Academic,509 Bramhall Ave.,,Jersey City,37,7304
12,Dr Martin Luther King Jr School Complex,1700 Marmora Avenue,,Atlantic City,37,8401
2083,Dr Ronald McNair High School,123 COLES  STREET,,JERSEY CITY,37,7302
1643,DR WILLIAM H HORTON ELEMENTARY SCHOOL,291 N 7TH ST,,Newark,37,07107-1799
4440,Dr. Albert Einstein Academy School No. 2,919 NORTH BROAD STREET,,Elizabeth,37,7208
1194,Dr. Albert M. Bean School,70 E THIRD AVE,,PINE HILL,37,08021-6204
4442,Dr. Antonia Pantoja School No. 27,505 -517 MORRIS AVENUE,,Elizabeth,37,7208
4584,DR. CHARLES C. POLK SCHOOL,1100 WARREN ST,,Roselle,37,07203-2736
997,Dr. Charles E. Brimm Medical Arts High S,1626 COPEWOOD STREET,,Camden,37,8103
2085,Dr. Charles P. DeFuccio School,214 PLAINFIELD AVE,,JERSEY CITY,37,07306-7006
1645,Dr. E. ALMA FLAGG SCHOOL,150 THIRD ST,,Newark,37,07104-2002
3718,Dr. Gerald H. Woehr Elementary School,44 N MAIN ST,,NEW EGYPT,37,08533-1316
999,Dr. Henry H. Davis Elementary School,3425 Cramer Street,,Camden,37,8105
41,Dr. J.P. Cleary Elementary School,1501 Central Avenue,,Minotola,37,8341
266,Dr. John Grieco Elementary School,50 Durie Ave,,Englewood,37,7631
57,Dr. Joyanne D. Miller Elementary School,2 ALDER AVENUE,,EGG HARBOR TOWNSHIP,37,8234
268,Dr. Leroy McCloud Elementary School,325 TENAFLY RD,,Englewood,37,07631-1742
4444,Dr. Martin Luther King Jr. ECC #52,130 TRUMBULL STREET,,Elizabeth,37,7206
3912,"DR. MARTIN LUTHER KING, JR EDUCATIONAL C",851 E  28TH STREET,,Paterson,37,7513
2087,Dr. Michael Conti School,182 MERSELES ST,,JERSEY CITY,37,07302-2235
4446,Dr. Orlando Edreira Academy School No. 2,631- 657 WESTMINSTER AVE,,Elizabeth,37,7208
1001,Dr. Ulysses S. Wiggins College Preparato,400 Mount Vernon Street,,Camden,37,8103
2010,Dr. Walter F. Robinson #3,95 WEST 31ST STREET,,Bayonne,37,7002
1382,Dr. William Mennies Elementary School,361 EAST GRANT AVENUE,,Vineland,37,08360-7107
3591,Drum Point Road Elementary School,41 DRUM POINT RD,,BRICK TOWN,37,08723-6021
227,Dumont High School,101 NEW MILFORD AVE,,Dumont,37,07628-2913
2537,Dunellen High School,411 First Street,,Dunellen,37,8812
2466,Dunn Middle School,401 DAYTON STREET,,Trenton,37,8610
4327,Durban Avenue Elementary School,616 Durban Avenue,,Hopatcong,37,7843
2506,DUTCH NECK ELEMENTARY SCHOOL,392 VILLAGE ROAD EAST,,West Windsor,37,8550
975,Dwight D Eisenhower Middle School,235 Grove Avenue,,West Berlin,37,8091
2784,Dwight D. Eisenhower Elementary School,601 ERNSTON ROAD,,Parlin,37,08859-2126
2768,Dwight D. Eisenhower Elementary School,360 STELTON ROAD,,Piscataway,37,8854
695,Dwight D. Eisenhower Middle School,344 CALVIN CT,,Wyckoff,37,07481-2227
2968,Dwight D. Eisenhower School,279 BURLINGTON ROAD,,Freehold,37,07728-1599
5316,Dwight Morrow Academies @ Englewood,264 Knickerbocker Rd,,Englewood,37,7631
270,Dwight Morrow Academies @ Englwood,274 KNICKERBOCKER RD,,Englewood,37,07631-1534
2845,E Raymond Appleby Elementary School,23 VLIET STREET,,Spotswood,37,8884
59,E. H. SLAYBAUGH ELEMENTARY SCHOOL,11 SWIFT AVENUE,,EGG HARBOR TOWNSHIP,37,08234-9697
193,E. Roy Bixby,25 FISCHER AVE,,Bogota,37,7603
1655,Eagle Academy for Young Men of Newark,279 Chancellor Avenue,,Newark,37,7112
3615,Eagleswood Elementary School,511 ROUTE 9,,WEST CREEK,37,8092
1647,EARLY CHILDHOOD ACADEMY - BERLINER,70 Montgomery Street,,Newark,37,7103
1657,Early Childhood Academy - Gladys Hillman,63 Webster Street,,Newark,37,7104
1649,EARLY CHILDHOOD ACADEMY - MAPLE,33 Maple Avenue,,Newark,37,7112
1650,EARLY CHILDHOOD ACADEMY - SOUTH,255 Chancellor Avenue,,Newark,37,7112
1658,Early Childhood Academy - West,26 Speedway Avenue,,Newark,37,7106
3179,EARLY CHILDHOOD CENTER,11 MEMORIAL DRIVE,,Neptune,37,7753
1003,Early Childhood Development Center,1602 Pine Street,,Camden,37,8103
2970,Early Childhood Learning Center,610 STILLWELLS CORNER ROAD,,Freehold,37,7728
2210,Early Childhood School,5204 HUDSON AVE,,WEST NEW YORK,37,07093-2614
2258,East Amwell Township,43 WERTSVILLE RD,,Ringoes,37,8551
522,East Brook Elementary School,167 SIBBALD DR,,PARK RIDGE,37,7656
506,East Brook Middle School,190 SPRING VALLEY RD,,Paramus,37,07652-5342
2551,East Brunswick High School,380 CRANBURY ROAD,,E BRUNSWICK,37,8816
3758,East Dover Elementary School,725 VAUGHN AVENUE,,TOMS RIVER,37,8753
3296,East Dover Elementary School N,302 EAST MCFARLAN STREET,,Dover,37,7801
4252,East End School,170 ONEIDA AVE,,N PLAINFIELD,37,07060-4421
3301,East Hanover Middle School,477 RIDGEDALE AVENUE,,EAST HANOVER,37,07936-3094
2032,East Newark Public School,501  11 NORTH THIRD STREET,,E NEWARK,37,7029
1483,East Orange Campus High School,344 PROSPECT STREET,,EAST ORANGE,37,7017
4848,EAST ORANGE COMMUNITY CS,99 WASHINGTON STREET,,EAST ORANGE,37,7017
1485,East Orange STEM Academy High School,129 RENSHAW AVENUE,,EAST ORANGE,37,07017-3308
1651,EAST SIDE HIGH SCHOOL,238 VAN BUREN ST,,Newark,37,07105-2512
765,Eastampton Township Community School,1 STUDENT DRIVE,,Eastampton,37,08060-9626
1088,Eastern Regional High School,1401 Laurel Oak Road,,Voorhees,37,8043
6892,Eastern Regional High School -,28 hidden acres drive,,Voorhees,37,08043-9999
3457,Eastlake Elementary School,40 Eba Road,,Parsippany,37,07054-2619
4856,ECO Charter School,817 CARPENTER STREET,,Camden,37,8102
1487,Ecole Toussaint Louverture,330 CENTRAL AVE,,EAST ORANGE,37,07018-2802
2616,Edgar Middle School,49 BRUNSWICK AVENUE,,Metuchen,37,8840
5313,Edgarton Christian Academy,212 Catawba Ave,,Newfield,37,8344
1593,Edgemont Elementary School,20 EDGEMONT RD,,Montclair,37,07042-2305
2567,Edison Early Learning Center,10 Boulevard of the Eagles,,Edison,37,8817
2569,Edison High School,50 BOULEVARD OF THE EAGLES,,Edison,37,8817
1813,EDISON MIDDLE SCHOOL,75 WILLIAM ST,,W ORANGE,37,07052-5725
650,Edith A. Bogert Elementary School,391 W  SADDLE RIVER RD,,UPPER SADDLE RIVER,37,7458
3428,Edith M. Decker Elementary School,446 HOWARD BOULEVARD,,MT  ARLINGTON,37,7856
2986,Edith M. Griebling Elementary School,130 HAVENS BRIDGE ROAD,,Farmingdale,37,07727-3542
2745,Edmund Hmieleski Early Childhood Center,925 AMBOY AVENUE,,PERTH AMBOY,37,8861
218,Edward H. Bryan,51 BROOKSIDE AVE,,Cresskill,37,7626
2747,Edward J. Patten Elementary School,500 CHARLES STREET,,PERTH AMBOY,37,8861
1489,"Edward T. Bowser, Sr. School of Excellen",180 Lincoln Street,,EAST ORANGE,37,07017-2503
1217,Edward T. Hamilton,23 Northgate Drive,,Voorhees,37,08043-9545
4636,Edward V. Walton Primary School,601 Mountain Ave.,,Springfield,37,7081
3914,EDWARD W KILPATRICK,295-315 ELLISON STREET,,Paterson,37,7501
51,Egg Harbor City Community School,730 Havana Avenue,,Egg Harbor City,37,08215-1547
61,Egg Harbor Township High School,24 High School Drive,,Egg Harbor Township,37,08234-9450
4168,EISENHOWER INTERMEDIATE SCHOOL,791 EISENHOWER AVE,,Bridgewater,37,8807
3521,Eisenhower Middle School,47 EYLAND AVENUE,,Succasunna,37,07876-1624
2425,Eldridge Park School,55 LAWN PARK AVE,,Lawrenceville,37,8648
4010,Eleanor G. Hewitt,266 SLOATSBURG ROAD,,Ringwood,37,7456
748,ELEANOR RUSH INTERMEDIATE SCHOOL,1200 WYNWOOD DRIVE,,Cinnaminson,37,08077-2404
241,Eleanor Van Gelder,251 UNDERCLIFF AVE,,Edgewater,37,07020-1112
739,Elias Boudinot Elementary School,WEST PEARL &amp; ELLIS STREETS,,Burlington,37,8016
4196,Elizabeth Avenue School,363 ELIZABETH AVENUE,,Somerset,37,08873-1105
1371,Elizabeth F. Moore School,1361 Highway 77,,Seabrook,37,08302-4261
1143,Elizabeth Haddon School,501 WEST REDMAN AVENUE,,Haddonfield,37,8033
4448,Elizabeth High School,447 Richmond St.,,Elizabeth,37,07202-3624
3655,Ella G Clarke Elementary School,455 MANETTA AVENUE,,Lakewood,37,8701
3333,Ellen T. Briggs Elementary School,1 JEFFERSON DRIVE,,LAKE HOPATCONG,37,7849
1653,ELLIOTT STREET ELEMENTARY SCHOOL,284 FIRST AVENUE,,Newark,37,07104-3422
4096,ELMER ELEMENTARY SCHOOL,207 Front Street,,Elmer,37,8318
4450,Elmora School No. 12,638 MAGIE AVE,,Elizabeth,37,07208-1505
3625,Elms Elementary School,780 PATTERSON ROAD,,Jackson,37,08527-3497
4078,Elsinboro Township School,631 SALEM  FORT ELFSBORG ROAD,,Salem,37,8079
1934,ELWOOD KINDLE ELEMENTARY SCHOOL,211 WASHINGTON AVENUE,,Pitman,37,8071
4850,ELYSIAN CS OF HOBOKEN,301 GARDEN STREET,,Hoboken,37,7030
4562,Emerson Elementary School,305 EMERSON AVE,,Plainfield,37,07062-1701
255,Emerson Jr Sr High,131 Main Street,,Emerson,37,7630
2181,Emerson Middle School,318 - 18th Street,,UNION CITY,37,7087
652,Emil A. Cavallini Middle School,392 W  SADDLE RIVER RD,,UPPER SADDLE RIVER,37,7458
2369,EMILY C REYNOLDS MIDDLE SCHOOL,2145 YARDVILLE HAMILTON SQ,,Hamilton,37,8690
2786,Emma Arleth Elementary School,3198 WASHINGTON ROAD,,Parlin,37,08859-1558
2,Emma C Attales Middle School,800 Irelan Avenue,,Absecon,37,8201
3593,Emma Havens Young Elementary School,43 DRUM POINT RD,,Brick,37,08723-6021
156,EMOTIONALLY DISTURBED,327 EAST RIDGEWOOD AVE,,Paramus,37,07652-4832
4852,Empowerment Academy,508 Grand Street,,Jersey City,37,7302
4854,Englewood on the Palisades Charter Schoo,65  WEST DEMAREST AVENUE,,Englewood,37,7631
1098,ERIAL ELEMENTARY SCHOOL,20 ESSEX AVENUE,,Sicklerville,37,8081
532,Eric S. Smith Middle School,2 MONROE STREET,,Ramsey,37,07446-1411
4610,"Ernest J. Finizio, Jr. - Aldene School",339 West Webster Avenue,,ROSELLE PARK,37,07204-1617
2284,ESC Academy,37 Hoffmans Crossing Road,,Califon,37,7830
2286,ESC School at West Amwell,1422 STATE HWY  179,,Lambertville,37,8530
1467,ESSEX CAMPUS ACADEMY,369 PASSAIC AVENUE,,Fairfield,37,7004
1465,Essex Fells Elementary School,102 HAWTHORNE RD,,ESSEX FELLS,37,07021-1120
1469,ESSEX HIGH SCHOOL,188 1ST STREET,,Passaic,37,7055
1471,ESSEX JUNIOR ACADEMY,520 Pompton Avenue,,Cedar Grove,37,7009
67,Estell Manor Elementary School,128 CAPE MAY AVENUE,,ESTELL MANOR,37,08319-1735
3677,Ethel A. Jacobsen Elementary School,200 S. BARNEGAT AVENUE,,SURF CITY,37,8008
2236,Ethel Hoppock Middle School,280 ASBURY  WEST PORTAL RD,,Asbury,37,8802
969,ETHEL M BURKE ELEMENTARY SCHOOL,112 SOUTH BLACK HORSE PIKE,,Bellmawr,37,8031
2341,ETHEL McKNIGHT ELEMENTARY SCHOOL,58 TWIN RIVERS DR   SOUTH,,EAST WINDSOR,37,8520
3860,Etta Gero School # 9,140 First St.,,Passaic,37,07055-6518
376,Euclid Elementary School,1 BURTON AVENUE,,HASBROUCK HEIGHTS,37,7604
109,Eugene A. Tighe Middle School,7804 AMHERST AVENUE,,Margate,37,8402
2183,Eugenio Maria de Hostos Center for Early,2200 KENNEDY BLVD,,UNION CITY,37,7087
1996,Evergreen Avenue Elementary School,160 North Evergreen Avenue,,Woodbury,37,8096
4564,Evergreen Elementary School,1033 EVERGREEN AVE,,Plainfield,37,07060-2613
4620,Evergreen School,2280 EVERGREEN AVENUE,,SCOTCH PLAINS,37,07076-1955
2353,Ewing High School,900 PARKWAY AVE,,Ewing,37,08618-2308
2060,Explore 2000 Middle School,180-9th St,,JERSEY CITY,37,7302
2089,Ezra L. Nolan School,88 GATES AVE,,JERSEY CITY,37,07305-2448
853,F. W. Holbein Middle School,333 LEVIS DRIVE,,MOUNT HOLLY,37,8060
282,Fair Lawn High School,14 Â 00 Berdan Avenue,,Fair Lawn,37,7410
1339,Fairfield Township School,375 GOULDTOWN  WOODRUFF ROAD,,Bridgeton,37,8302
362,Fairmount,105 GRAND AVENUE,,Hackensack,37,7601
1435,FAIRVIEW ELEMENTARY,376 Berkeley Avenue,,Bloomfield,37,07003-5036
3083,Fairview Elementary School,230 COOPER ROAD,,RED BANK,37,07701-6010
364,Fanny Meyer Hillers,56 LONGVIEW AVENUE,,Hackensack,37,7601
2944,Farmingdale Elementary,49 ACADEMY ST,,Farmingdale,37,07727-0706
1659,FAST TRACK SUCCESS ACADEMY,190 MUHAMMAD ALI AVENUE,,Newark,37,7108
3493,Fernbrook School,206 QUAKER CHURCH ROAD,,Randolph,37,7869
63,Fernwood Avenue Middle School,4034 Fernwood Avenue,,Egg Harbor Township,37,08234-5703
4103,Field Street School,144 FIELD STREET,,CARNEYS POINT,37,08069-1369
448,Fieldstone Middle School,47 Spring Valley Road,,Montvale,37,7645
1661,FIRST AVENUE SCHOOL,214 FIRST AVE,,Newark,37,07107-1802
7485,FJR School of Music,45 Dayton Crescent,NULL,Bernardsville,37,7924
861,Fleetwood Elementary School,231 FLEETWOOD AVE,,MOUNT LAUREL,37,8054
3557,Flocktown-Kossmann Elementary School,90 FLOCKTOWN ROAD,,LONG VALLEY,37,07853-8919
1539,FLORENCE AVENUE SCHOOL,1324      SPRINGFIELD AVENUE,,Irvington,37,07111-1916
807,Florence L. Walther School,56 CHESTNUT STREET,,Lumberton,37,08048-0008
4301,Florence M. Burd,219 NEWTON SPARTA ROAD,,Newton,37,7860
4638,Florence M. Gaudineer Middle School,75 South Springfield Ave.,,Springfield,37,07081-1312
788,Florence Riverfront School,500 Front Street,,Florence,37,8518
790,Florence Township Memorial High School,1050 CEDAR LANE,,Florence,37,8518
771,Florence V Evans,400 SOUTH ROUTE 73,,Marlton,37,8053
69,Folsom Elementary School,1357 Mays Landing Road,,Folsom,37,8037
2863,FORD AVENUE ELEMENTARY SCHOOL,186 FORD AVENUE,,Fords,37,8863
2865,FORDS MIDDLE SCHOOL,FANNING STREET,,Fords,37,8863
1525,Forest Avenue School,287 FOREST AVE,,GLEN RIDGE,37,07028-1818
1799,Forest Avenue School,118 FOREST AVE,,Verona,37,07044-1224
1005,Forest Hill School,1625 Wildwood Avenue,,Camden,37,8103
1757,FOREST STREET ELEMENTARY SCHOOL,651 FOREST ST,,Orange,37,7050
3641,Forked River Elementary School,110 LACEY ROAD,,FORKED RIVER,37,08731-0477
3210,Forrestdale School,60 FORREST AVENUE,,Rumson,37,07760-1681
895,Fort Dix Elementary School,1199 FORT DIX  JULIUSTOWN ROAD,,FORT DIX,37,08640-5780
306,Fort Lee High School,3000 LEMOINE AVE,,FORT LEE,37,7024
4858,FOUNDATION ACADEMY CS,363 West State Street,,Trenton,37,8608
723,Fountain Woods Elementary School,601 FOUNTAIN AVENUE,,Burlington,37,8016
1663,FOURTEENTH AVENUE SCHOOL,186  14TH AVE,,Newark,37,07103-2128
4452,Frances C. Smith Early Childhood Center ,1000 SOUTH ELMORA AVE,,Elizabeth,37,7202
773,Frances DeMasi Elementary School,199 EVESBORO  MEDFORD RD,,Marlton,37,8053
775,Frances DeMasi Middle School,199 EVESBORO  MEDFORD RD,,Marlton,37,8053
2264,Francis A. Desmares Elementary School,16 OLD CLINTON ROAD,,Flemington,37,08822-1325
2355,FRANCIS LORE ELEMENTARY SCHOOL,13 WESTWOOD DRIVE,,Ewing,37,08628-1912
1007,Francis X. McGraw Elementary,3051 Fremont St,,Camden,37,8105
3262,Frank Antonides School,135 LOCUST AVENUE,,WEST LONG BRANCH,37,07764-1698
3067,Frank Defino Central Elementary School,175 Route 79 North,,Marlboro,37,07746-1056
3303,Frank J Smith Elementary,27 GREEN DRIVE,,EAST HANOVER,37,07936-3798
3069,Frank J. Dugan Elementary School,48 TOPANEMUS ROAD,,Marlboro,37,07746-2320
4408,Frank K. Hehnly,590 RARITAN ROAD,,Clark,37,7066
2091,Frank R Conwell School,111 BRIGHT STREET,,JERSEY CITY,37,07302-4342
676,Frank W. Gavlak Elementary School,106 KING ST,,Wallington,37,7057
4311,Frankford Township School,4 PINES ROAD,,Branchville,37,7826
276,FRANKLIN AVENUE MIDDLE SCHOOL,755 FRANKLIN AVENUE,,FRANKLIN LAKES,37,7417
2571,Franklin D Roosevelt School,838 New Dover Rd,,Edison,37,8820
1437,FRANKLIN ELEMENTARY,85 Curtis Street,,Bloomfield,37,07003-3875
4669,FRANKLIN ELEMENTARY,1500 LINDY TERRACE,,Union,37,07083-4752
179,Franklin Elementary School,2 N  FRANKLIN AVENUE,,Bergenfield,37,7621
4313,Franklin Elementary School,50 WASHINGTON AVENUE,,Franklin,37,7416
2143,Franklin Elementary School,100 DAVIS AVE,,Kearny,37,07032-3328
2157,Franklin Elementary School,5211 COLUMBIA AVE,,NORTH BERGEN,37,7047
4598,Franklin Elementary School,1809 ST GEORGES AVE,,Rahway,37,07065-2003
2822,Franklin Elementary School,1000 FRANKLIN AVE,,SOUTH PLAINFIELD,37,7080
3523,Franklin Elementary School,8 MEEKER STREET,,Succasunna,37,07876-1419
4648,Franklin Elementary School,136 BLACKBURN ROAD,,Summit,37,07901-2313
2468,Franklin Elementary School,200 WILLIAM STREET,,Trenton,37,8610
4705,FRANKLIN ELEMENTARY SCHOOL,700 PROSPECT ST,,Westfield,37,07090-3907
4198,Franklin High School,500 ELIZABETH AVENUE,,Somerset,37,08873-3001
2093,Franklin L. Williams School,222 LAIDLAW AVENUE,,JERSEY CITY,37,7306
4200,Franklin Middle School,415 FRANCIS STREET,,Somerset,37,08873-2827
4202,Franklin Park School,30 EDEN  STREET,,FRANKLIN PARK,37,08823-1250
412,Franklin School,360 STUYVESANT AVE,,Lyndhurst,37,07071-2122
605,FRANKLIN SCHOOL,95 CALDWELL AVENUE,,SADDLE BROOK,37,7663
2272,Franklin Township School,226 QUAKERTOWN ROAD,,Quakertown,37,08868-0368
4742,Franklin Township School,52 ASBURY  BROADWAY ROAD,,Washington,37,7882
3710,Frederic A. Priff Elementary School,139 WELLS MILL ROAD,,Waretown,37,08758-2606
1801,Frederic N. Brown Elementary School,125 GROVE AVE,,Verona,37,07044-1621
4566,Frederic W. Cook Elementary School,739 LELAND AVE,,Plainfield,37,07062-2140
4309,Fredon Township School,459 ROUTE 94,,Newton,37,7860
4860,Freedom Prep Charter Sch,1000 Atlantic Avenue,,Camden,37,8104
2954,Freehold Borough High School,2 Robertsville Road,,Freehold,37,07728-1899
5815,Freehold High School,2 Robertsville Road,,Freehold,37,7728
2946,Freehold Intermediate School,280 PARK AVENUE,,Freehold,37,07728-2096
2948,Freehold Learning Center,30 Dutch Lane Rd.,,Freehold,37,07728-2212
2956,Freehold Township High School,281 Elton Adelphia Road,,FREEHOLD TWP.,37,07728-1899
4780,FREEMAN ELEMENTARY SCHOOL,120 FILMORE STREET,,Phillipsburg,37,08865-2421
3372,FRELINGHUYSEN MIDDLE SCHOOL,WEST HANOVER AVENUE,,Morristown,37,7960
4740,Frelinghuysen Township Elementary School,780 ROUTE 94,,Johnsonburg,37,7846
2273,Frenchtown Elementary,902 HARRISON ST,,Frenchtown,37,08825-1124
3671,FROG POND ELEMENTARY SCHOOL,305 FROG POND ROAD,,LITTLE EGG HARBOR,37,8087
2553,Frost Elementary School,65 FROST AVENUE,,EAST BRUNSWICK,37,8816
2847,G Austin Schoenly Elementary School,80 KANE AVENUE,,Spotswood,37,8884
3726,G. Harold Antrim Elementary School,401 Niblick Street,,Point Pleasant Beach,37,8742
3181,Gables Elementary School,1 Gables Court,,Neptune,37,07753-4299
73,Galloway Township Middle School,100 S  REEDS ROAD,,Galloway,37,8205
245,Gantner Avenue School,99 ROOSEVELT AVE,,ELMWOOD PARK,37,07407-1152
7495,Garden State Girlchoir,35 West Chelten Avenue,NULL,Philadelphia,44,19144
321,GARFIELD AUXILIARY MS/HS,43 CLIFTON AVE,,Clifton,37,7011
323,GARFIELD EARLY CHILDHOOD LEARNING CENTER,241 RAY STREET,,Garfield,37,7026
935,GARFIELD EAST ELEMENTARY SCHOOL,150 EVERGREEN DRIVE,,Willingboro,37,8046
2145,Garfield Elementary School,360 BELGROVE DR,,Kearny,37,07032-1628
325,GARFIELD HIGH SCHOOL,500 PALISADE AVE,,Garfield,37,07026-2637
327,GARFIELD MIDDLE SCHOOL,175 LANZA AVE,,Garfield,37,7026
331,Garfield Public Preschool 3 at Headstart,155 Midland Ave,,Garfield,37,7026
329,GARFIELD PUBLIC PRESCHOOL ANNEX,454 OUTWATER LANE,,Garfield,37,7026
333,Garfield Public Preschool Annex @Holy Tr,85 Summit Ave,,Garfield,37,7026
1871,Gateway Regional High School,775 TANYARD RD,,WOODBURY HTS,37,8096
1946,GENERAL CHARLES G. HARKER SCHOOL,1771 OLDMANS CREEK ROAD,,WOOLWICH TOWNSHIP,37,8085
1182,GEORGE B. FINE ELEMENTARY SCHOOL,3800 GLADWYN AVE,,Pennsauken,37,08109-3415
841,George C. Baker Elementary School,139 W  MAPLE AVE,,Moorestown,37,8057
2371,GEORGE E. WILSON ELEMENTARY SCHOOL,600 Park Avenue,,Hamilton,37,08610-5012
358,George G White,120 MAGNOLIA AVE,,Hillsdale,37,07642-2131
3673,GEORGE J. MITCHELL ELEMENTARY SCHOOL,950 ROUTE 539,,LITTLE EGG HARBOR,37,08087-9750
3049,George L Catrambone,240 Park Avenue,,Long Branch,37,7740
89,George L. Hess Educational Complex,700 Babcock Road,,Mays Landing,37,8330
4454,George Washington Academy School No. 1,250 BROADWAY,,Elizabeth,37,07206-1857
1665,GEORGE WASHINGTON CARVER ELEMENTARY SCHO,333 CLINTON PL,,Newark,37,07112-1563
1491,George Washington Carver Institute,135 GLENWOOD AVENUE,,EAST ORANGE,37,07017-4518
2185,George Washington Elementary School,3905 NEW YORK AVE,,UNION CITY,37,07087-4821
697,George Washington Elementary School,270 WOODLAND AVE,,Wyckoff,37,07481-1935
561,George Washington Middle School,155 WASHINGTON PL,,Ridgewood,37,7451
4030,GEORGE WASHINGTON MIDDLE SCHOOL,68 LENOX ROAD,,Wayne,37,07470-5551
243,George Washington School,801 Undercliff Ave,,Edgewater,37,7020
4502,George Washington School,1530 LESLIE ST,,Hillside,37,07205-1206
432,George Washington School,39 FARDALE AVENUE,,Mahwah,37,7430
1321,Geraldine O Foster Early Childhood Cente,550 BUCKSHUTEM ROAD,,Bridgeton,37,8302
855,Gertrude C. Folwell Elementary School,455 JACKSONVILLE RD,,MOUNT HOLLY,37,08060-9622
1184,GH CARSON ELEMENTARY SCHOOL,4150 GARFIELD AVENUE,,Pennsauken,37,8109
1112,Gibbsboro Elementary School,37 KIRKWOOD RD,,Gibbsboro,37,08026-1432
247,Gilbert Avenue School,151 GILBERT AVENUE,,ELMWOOD PARK,37,7407
3356,Gillette Elementary School,759 Valley Road,,Gillette,37,7933
2357,GILMORE J FISHER MIDDLE,1325 LOWER FERRY ROAD,,Ewing,37,08618-1409
1667,GIRLS ACADEMY OF NEWARK,279 Chancellor Avenue,,Newark,37,7112
2095,Gladys Nunery School,123 CLAREMONT AVE,,JERSEY CITY,37,07305-3603
1875,Glassboro High School,560 JOSEPH L  BOWE BLVD,,Glassboro,37,8028
1877,Glassboro Intermediate School,202 N DELSEA DR,,Glassboro,37,08028-1420
1100,GLEN LANDING MIDDLE SCHOOL,85 LITTLE GLOUCESTER ROAD,,Blackwood,37,8012
4378,Glen Meadow Middle School,7 SAMMIS ROAD,,Vernon,37,07462-0516
1527,Glen Ridge High School,200 RIDGEWOOD AVE,,GLEN RIDGE,37,07028-1228
348,GLEN ROCK HIGH SCHOOL,400 HAMILTON AVENUE,,GLEN ROCK,37,07452-2328
350,GLEN ROCK MIDDLE SCHOOL,600 HARRISTOWN ROAD,,GLEN ROCK,37,7452
563,Glen School,865 EAST GLEN AVENUE,,Ridgewood,37,7451
1102,Glendora Elementary School,201 Station Avenue,,Glendora,37,8029
1595,Glenfield Middle School,25 MAPLE AVE,,Montclair,37,07042-4513
1124,GLENVIEW School,1700 Sycamore Street,,HADDON HEIGHTS,37,8035
1305,GLENWOOD AVE ELEMENTARY SCHOOL,GLENWOOD &amp; NEW YORK AVE,,Wildwood,37,8260
1577,Glenwood School,325 TAYLOR ROAD  SOUTH,,SHORT HILLS,37,7078
1384,Gloria M Sabater Elementary School,301 SOUTH EAST BLVD,,Vineland,37,08360-3001
1116,Gloucester City Adult High School,1300 Market Street,,Gloucester City,37,8030
1118,Gloucester City Jr. Sr. High School,1300 MARKET STREET,,GLOUCESTER CITY,37,8030
1886,Gloucester County Institute of Technolog,1360 TANYARD ROAD,,Sewell,37,08080-9510
1104,GLOUCESTER TOWNSHIP ELEMENTARY SCHOOL,270 SOUTH BLACK HORSE PIKE,,Blackwood,37,08012-2996
442,Godwin Elementary School,41 E. Center Street,,Midland Park,37,7432
1852,Good Intent Elementary School,1555 GOOD INTENT RD,,Deptford,37,08096-6101
1493,Gordon Parks Academy,98 GREENWOOD AVE,,EAST ORANGE,37,07017-5106
1735,Gould/Mountain Elementary School,132 GOULD AVE,,N CALDWELL,37,7006
1948,GOVERNOR CHARLES C STRATTON,15 FREDRICK BOULEVARD,,WOOLWICH TWP,37,8085
4392,Governor Livingston High School,175 WATCHUNG BOULEVARD,,BERKELEY HEIGHTS,37,7922
2610,GRACE M. BRECKWEDEL MIDDLE SCHOOL,13 AUGUSTA ST,,Jamesburg,37,08831-1457
2343,GRACE N. ROGERS ELEMENTARY SCHOOL,380 STOCKTON ST,,Hightstown,37,8520
4586,GRACE WILDAY JUNIOR HIGH SCHOOL,500 BROOKLAWN AVE,,Roselle,37,7203
1204,Grade Downing Elementary School,3RD &amp; CENTRAL AVES,,Runnemede,37,8078
1737,Grandview Elementary School,35 HAMILTON DR EAST,,N CALDWELL,37,7006
2770,Grandview Elementary School,130 NORTH RANDOLPHVILLE RD,,Piscataway,37,8854
229,Grant Elementary School,100 GRANT AVE,,Dumont,37,07628-1650
542,Grant Elementary School,104 HENRY ST,,RIDGEFIELD PARK,37,07660-2209
2824,Grant Elementary School,305 CROMWELL PLACE,,SOUTH PLAINFIELD,37,7080
2470,Grant Elementary School,159 N  CLINTON AVENUE,,Trenton,37,8609
6592,Grapevine Academy,325 Windsor Court,,Cherry Hill,37,8002
4956,GRAY CS,55 LIBERTY STREET,,Newark,37,7102
4862,Great Futures Charter School,225 Morris Blvd,,Jersey City,37,07302-7398
4746,GREAT MEADOWS REGIONAL MIDDLE SCHOOL,273 ROUTE 46,,GREAT MEADOWS,37,07838-0074
4864,Great Oaks Charter School,24 Maiden Lane,,Newark,37,7102
4866,GREATER BRUNSWICK CS,429 JOYCE KILMER AVENUE,,NEW BRUNSWICK,37,8901
4212,Green Brook Middle School,132 JEFFERSON AVE,,GREEN BROOK,37,08812-2608
3183,Green Grove Elementary School,909 GREEN GROVE ROAD,,Neptune,37,07753-2999
4315,Green Hills School,69 MACKERLY ROAD,,Greendell,37,7839
4782,GREEN STREET ELEMENTARY SCHOOL,1000 GREEN STREET,,Phillipsburg,37,08865-3419
2814,Greenbrook Elementary School,23 ROBERTS STREET,,KENDALL PARK,37,8824
1960,Green-Fields Elementary School,15 HILL LANE,,Woodbury,37,8096
2988,Greenville Elementary School,210 RAMTOWN  GREENVILLE ROAD,,Howell,37,7731
4750,Greenwich School,101 WYNDHAM FARM BOULEVARD,,Stewartsville,37,8886
2373,GREENWOOD ELEMENTARY SCHOOL,2069 GREENWOOD AVENUE,,Hamilton,37,08609-2328
3051,Gregory Elementary School,201 Monmouth Avenue,,LONG BRANCH,37,07740-6992
2472,Gregory Elementary School,500 RUTHERFORD AVENUE,,Trenton,37,08618-4459
1815,GREGORY ELEMENTARY SCHOOL,301 GREGORY AVE,,W ORANGE,37,07052-4439
1978,GRENLOCH TERRACE EARLY CHILDHOOD CENTER,251 WOODBURY  TURNERSVILLE RD,,Sewell,37,8080
1541,GROVE STREET SCHOOL,594 GROVE STREET,,Irvington,37,07111-4531
4600,Grover Cleveland Elementary School,486 E MILTON AVE,,Rahway,37,07065-5202
1445,GROVER CLEVELAND MIDDLE SCHOOL,36 ACADEMY RD,,Caldwell,37,7006
3585,H &amp; M Potter School,60 VEEDER LANE,,Bayville,37,08721-1833
4,H Ashton Marsh,800 IRELAN AVE,,Absecon,37,8201
3220,H W Mountz Elementary School,411 Tuttle Ave,,Spring Lake,37,7762
65,H. RUSSEL SWIFT ELEMENTARY SCHOOL,5 SWIFT DRIVE,,EGG HARBOR TOWNSHIP,37,08234-9477
366,Hackensack High School,FIRST &amp; BEECH STREETS,,Hackensack,37,7601
368,Hackensack Middle School,360 Union Street,,Hackensack,37,7601
4756,Hackettstown High School,701 WARREN STREET,,Hackettstown,37,7840
4758,Hackettstown Middle School,500 WASHINGTON STREET,,Hackettstown,37,07840-2230
6930,Haddon Heights Jr/Sr High School,301 Second Avenue,,Haddon Heights,37,8035
1130,Haddon Township High School,406 Memorial Avenue,,Westmont,37,08108-3398
1145,Haddonfield Memorial High School,401 KINGS HIGHWAY EAST,,Haddonfield,37,08033-1206
1147,Haddonfield Middle School,FIVE LINCOLN AVENUE,,Haddonfield,37,8033
831,Haines Sixth Grade Center,162 STOKES ROAD,,Medford,37,8055
794,Hainesport Township School,211 BROAD STREET,,Hainesport,37,8036
3832,Haledon Public School,91 HENRY STREET,,Haledon,37,07508-1236
1333,Haleyville-Mauricetown Elementary School,1308 NORTH AVENUE,,PORT NORRIS,37,08349-9801
4344,Halsted Middle School,59 HALSTED STREET,,Newton,37,7860
4321,Hamburg School,30 LINWOOD AVENUE,,Hamburg,37,7419
2375,Hamilton East-Steinart,2900 KLOCKNER ROAD,,Hamilton,37,8690
4170,HAMILTON ELEMENTARY SCHOOL,9 HAMILTON LANE,,Basking Ridge,37,7920
2036,Hamilton Intermediate School,223 HAMILTON STREET,,Harrison,37,7029
2377,Hamilton North-Nottingham,1055 KLOCKNER ROAD,,Hamilton,37,08619-3046
2379,Hamilton West-Watson,2720 SOUTH CLINTON AVENUE,,Hamilton,37,08610-5053
2555,Hammarskjold Middle School,200 RUES LANE,,E BRUNSWICK,37,8816
95,Hammonton Early Childhood Eductional Cen,601C NORTH 4TH STREET,,Hammonton,37,8037
97,Hammonton High School,566 OLD FORKS ROAD,,Hammonton,37,8037
99,Hammonton Middle School,75 NORTH LIBERTY STREET,,Hammonton,37,08037-9425
2275,HAMPTON BOROUGH SCHOOL,32  41 SOUTH STREET,,Hampton,37,08827-9502
4671,HANNAH CALDWELL ELEM SCH,1120 COMMERCE AVENUE,,Union,37,7083
3315,Hanover Park High School,63 MT  PLEASANT AVENUE,,EAST HANOVER,37,07936-2601
3327,Harding Township School,34 LEES HILL ROAD,,NEW VERNON,37,07976-0248
4323,Hardyston Township Elementary School,50 ROUTE 23,,Franklin,37,7416
4325,Hardyston Township Middle School,183 WHEATSWORTH ROAD,,Hamburg,37,7419
897,Harker-Wylie/Isaiah Haines School,125C TRENTON ROAD,,BROWNS MILLS,37,8015
3085,Harmony Elementary School,100 Murphy Road,,NEW MONMOUTH,37,07748-1699
4754,HARMONY TOWNSHIP SCHOOL,2551 BELVIDERE ROAD,,Phillipsburg,37,08865-2155
1669,HARRIET TUBMAN ELEMENTARY SCHOOL,504 S TENTH ST,,Newark,37,07103-1802
374,Harrington Park School,191 HARRIOT AVE,,HARRINGTON PARK,37,07640-1401
1561,Harrison Elementary School,148 N LIVINGSTON AVE,,Livingston,37,07039-2121
4588,HARRISON ELEMENTARY SCHOOL,310 HARRISON AVE,,Roselle,37,7203
2038,Harrison High School,800 Hamilton Street,,Harrison,37,07029-1405
1892,Harrison Township Elementary School,120 N MAIN STREET,,MULLICA HILL,37,08062-9494
1008,Harry C. Sharp Elementary School,928 North 32nd Street,,Camden,37,8105
2212,Harry L Bain,5400 BROADWAY,,WEST NEW YORK,37,07093-2639
2788,Harry S. Truman Elementary School,ONE TAFT PLACE,,Parlin,37,08859-1672
863,Hartford Upper Elementary School,397 HARTFORD ROAD,,MOUNT LAUREL,37,8054
1579,Hartshorn School,400 HARTSHORN DRIVE,,SHORT HILLS,37,7078
378,Hasbrouck Heights High School,365 BOULEVARD,,HASBROUCK HEIGHTS,37,07604-1402
380,Hasbrouck Heights Middle School,365 BOULEVARD,,HASBROUCK HEIGHTS,37,07604-1402
4022,Haskell Elementary School,973 RINGWOOD AVENUE,,Haskell,37,07420-1322
4760,Hatchery Hill Elementary School,398 5th Avenue,,Hackettstown,37,07840-2497
4868,HATIKVAH INTERNATIONAL CS,7 Lexington Avenue,,East Brunswick,37,8816
957,Haviland Avenue School,240 SOUTH HAVILAND AVENUE,,Audubon,37,8106
565,Hawes Elementary School,531 STEVENS AVENUE,,Ridgewood,37,7451
1671,HAWKINS STREET SCHOOL,8 HAWKINS ST,,Newark,37,07105-3918
354,Haworth Public School,205 VALLEY RD,,Haworth,37,07641-1218
1673,HAWTHORNE AVENUE SCHOOL,428 HAWTHORNE AVE,,Newark,37,7112
5318,Hawthorne Christian Academy,2000 NJ-208,,Hawthorne,37,7506
3834,Hawthorne High School,160 PARMELEE AVENUE,,Hawthorne,37,7506
937,HAWTHORNE PARK ELELMENTARY SCHOOL,84 Hampshire Lane,,Willingboro,37,8046
1817,HAZEL AVENUE ELEMENTARY SCHOOL,45 HAZEL AVE,,W ORANGE,37,07052-4524
2622,HAZELWOOD ELEMENTARY SCHOOL,800 HAZELWOOD AVENUE,,Middlesex,37,8846
3008,Hazlet Middle School,1639 UNION AVENUE,,Hazlet,37,07730-2497
2288,HC Computer Science and Software Enginee,19 Senator Stout Road,,Frenchtown,37,8825
2332,Health Science Academy,1085 Old Trenton Rd,,Trenton,37,8690
158,HEARING IMPAIRED,327 EAST RIDGEWOOD AVENUE,,Paramus,37,7652
2474,Hedgepeth Williams Middle School,301 GLADSTONE AVE,,Trenton,37,8629
490,Heights Elementary School,114 SEMINOLE AVE,,Oakland,37,07436-2924
899,Helen A. Fort/Marcus Newcomb Middle School,101 FORT DIX ROAD,,Pemberton,37,8068
607,HELEN I. SMITH SCHOOL,30 CAMBRIDGE AVENUE,,SADDLE BROOK,37,7663
776,Helen L Beeler,60 CALDWELL AVE,,Marlton,37,8053
4351,HELEN MORGAN SCHOOL,100 STANHOPE ROAD,,Sparta,37,7871
284,HENRY B. MILNES ELEMENTARY SCHOOL,8-01 PHILLIP ST,,FAIR LAWN,37,7410
1803,Henry B. Whitehorne Middle School,600 BLOOMFIELD AVE,,Verona,37,07044-1817
1010,Henry B. Wilson Family School,2250 South 8th Street,,Camden,37,8104
1048,Henry C. Beck Middle School,950 CROPWELL RD,,CHERRY HILL,37,08003-1499
2012,Henry E. Harris #1,135 AVENUE C,,Bayonne,37,7002
3020,Henry Hudson Regional School,1 GRAND TOUR,,Highlands,37,07732-2001
1012,Henry L. Bonsall Family School,1575 Mount Ephraim Avenue,,Camden,37,8104
213,HENRY P. BECTON REGIONAL HIGH SCHOOL,Vreeland Avenue,,EAST RUTHERFORD,37,7073
2097,Henry Snyder High School,239 BERGEN AVE,,JERSEY CITY,37,07305-1524
2572,Herbert Hoover Middle School,174 JACKSON AVENUE,,Edison,37,8837
2749,Herbert N. Richardson 21st Century Schoo,318 STOCKTON STREET,,PERTH AMBOY,37,08861-3910
3595,Herbertsville Elementary School,2282 LANES MILL RD,,Brick,37,08724-1003
1563,Heritage Middle School,20 FOXCROFT DR,,Livingston,37,07039-2614
1838,HERMA S. SIMMONS ELEMENTARY SCHOOL,300 WEST CHESTNUT STREET,,Clayton,37,08312-1700
1759,HEYWOOD AVENUE ELEMENTARY SCHOOL,421 HEYWOOD AVE,,Orange,37,07050-2006
2276,HIGH BRIDGE ELEMENTARY SCHOOL,40 FAIRVIEW AVENUE,,HIGH BRIDGE,37,08829-1503
2278,HIGH BRIDGE MIDDLE SCHOOL,50 THOMAS ST,,HIGH BRIDGE,37,08829-2010
3852,HIGH MOUNTAIN MIDDLE SCHOOL,515 HIGH MOUNTAIN ROAD,,NORTH HALEDON,37,07508-2603
278,HIGH MOUNTAIN ROAD SCHOOL,765 HIGH MOUNTAIN RD,,FRANKLIN LAKES,37,07417-2914
4319,High Point Regional High School,299 Pidgeon Hill Road,,Sussex,37,07461-2733
2062,High Tech High School,2000 85TH STREET,,N BERGEN,37,07047-4715
3167,High Technology High School,765 Newman Springs Road,,Lincroft,37,07738-0119
444,Highland Elementary School,31 Highland Avenue,,Midland Park,37,07432-1803
2604,Highland Park High School,102 North Fifth Avenue,,Highland Park,37,8904
2606,Highland Park Middle School,330 Wayne Street,,Highland Park,37,8904
979,Highland Regional High School,450 Erial Road,,Blackwood,37,8012
3022,Highlands Elementary School,360 NAVESINK AVENUE,,Highlands,37,07732-1323
2345,Hightstown High School,25 Leshin Lane,,Hightstown,37,08520-4006
4685,Hillcrest Academy-North,2630 PLAINFIELD AVENUE,,SCOTCH PLAINS,37,07076-2462
4687,Hillcrest Academy-South,1571 Lamberts Mill Road,,Westfield,37,7090
3374,HILLCREST SCHOOL,160 HILLCREST AVENUE,,Morristown,37,7960
4204,Hillcrest School,500 FRANKLIN BLVD,,Somerset,37,08873-3030
3406,Hilldale School,123 KONNER AVENUE,,PINE BROOK,37,07058-9433
4220,Hillsborough High School,466 RAIDER BOULEVARD,,Hillsborough,37,8844
4222,Hillsborough Township Elementary School,435 ROUTE 206,,Hillsborough,37,8844
4224,Hillsborough Township Middle School,260 TRIANGLE ROAD,,Hillsborough,37,8844
4418,Hillside Avenue School,125 HILLSIDE AVENUE,,Cranford,37,7016
150,Hillside Elementary School,89 HILLSIDE AVENUE,,Allendale,37,7401
209,HILLSIDE ELEMENTARY SCHOOL,340 HOMANS AVENUE,,Closter,37,07624-2907
1565,Hillside Elementary School,98 BELMONT DRIVE,,Livingston,37,7039
1597,Hillside Elementary School,54 ORANGE RD,,Montclair,37,07042-2110
865,Hillside Elementary School (08054),1370 Hainesport Mt Laurel Road,,Mount Laurel,37,8054
4504,Hillside High School,1085 LIBERTY AVE,,Hillside,37,07205-2526
4172,HILLSIDE INTERMEDIATE SCHOOL,844 BROWN ROAD,,Bridgewater,37,08807-1239
398,Hilltop School,200 KIPP AVENUE,,Lodi,37,7644
3360,HILLTOP SCHOOL,12 HILLTOP ROAD,,Mendham,37,07945-1215
3481,Hillview School,206 Boulevard,,Pompton Plains,37,07444-1903
4870,HOBOKEN CS,713 Washington St,,Hoboken,37,7030
2044,Hoboken Junior Senior High School,NINTH &amp; CLINTON STS,,Hoboken,37,7030
384,Ho-Ho-Kus Public School,70 LLOYD ROAD,,HO  HO  KUS,37,7423
4872,HOLA HOBOKEN DUAL LANG CS,123 Jefferson Street,,Hoboken,37,7030
587,Holdrum Middle School,393 RIVERVALE ROAD,,RIVER VALE,37,7675
2308,Holland Brook School,52 READINGTON ROAD,,WHITEHOUSE STATION,37,8889
2280,Holland Township Elementary School,714 MILFORD  WARREN GLEN ROAD,,Milford,37,8848
1906,HOLLY GLEN ELEMENTARY SCHOOL,900 NORTH MAIN STREET,,Williamstown,37,08094-9102
1350,Holly Heights Elementary School,2509 E Main Street,,Millville,37,08332-9639
951,Holly Hills Elementary School,500 OGDEN DRIVE,,Westampton,37,8060
3024,Holmdel High School,36 CRAWFORDS CORNER ROAD,,Holmdel,37,07733-1999
7471,Holy Spirit High School,500 S New Rd,NULL,Absecon,37,8201
7491,Home School Kadetsky,103 Wildflower Court,NULL,Egg Harbor Township,37,12345
7490,Home School Yee,86 Forest Way,NULL,Morris Plains,37,12345
231,Honiss ElementaryMiddle School,31 DEPEW ST,,Dumont,37,07628-3601
3760,Hooper Avenue Elementary School,1517  HOOPER AVENUE,,TOMS RIVER,37,8753
181,Hoover Elementary School,273 MURRAY HILL TERRACE,,Bergenfield,37,7621
4329,Hopatcong High School,2A Windsor Ave,,Hopatcong,37,7843
4331,Hopatcong Middle School,1 David Road,,Hopatcong,37,7843
3890,Hope Academy,226 Harrison Street,,Passaic,37,7055
4874,HOPE ACADEMY CS,601 GRAND AVENUE,,ASBURY PARK,37,07712-6656
4875,Hope Community CS,836 S. 4th Street,,Camden,37,8103
4764,HOPE TOWNSHIP SCHOOL,320 JOHNSONBURG ROAD,,Hope,37,07844-0293
1342,Hopewell Crest School,122 SEWALL ROAD,,Bridgeton,37,08302-8503
2413,Hopewell Elementary School,35 PRINCETON AVENUE,,Hopewell,37,8525
2415,Hopewell Valley Central High School,259 PENNINGTON TITUSVILLE RD,,Pennington,37,08534-9701
2014,Horace Mann #6,25 WEST 38TH STREET,,Bayonne,37,7002
1050,Horace Mann Elementary School,150 WALT WHITMAN BLVD,,CHERRY HILL,37,08003-3747
2159,Horace Mann Elementary School,1215  83RD STREET,,NORTH BERGEN,37,07047-4215
4622,Howard B. Brunner,721 WESTFIELD ROAD,,SCOTCH PLAINS,37,7076
3627,Howard C. Johnson Elementary School,1021 LARSEN ROAD,,Jackson,37,08527-3497
901,Howard L. Emmons,14 SCRAPETOWN ROAD,,Pemberton,37,8068
1185,HOWARD M PHIFER MIDDLE SCHOOL,8201 PARK AVE,,Pennsauken,37,08109-3544
815,Howard R. Yocum Elementary School,748 NORTH FORKLANDING ROAD,,MAPLE SHADE,37,8052
2958,Howell High School,405 SQUANKUM  YELLOWBROOK ROAD,,Farmingdale,37,07727-3756
7486,Howell Home School,,NULL,Howell,37,7710
2990,Howell Township Memorial Elementary Scho,485 ADELPHIA ROAD,,Freehold,37,7728
2992,Howell Township Middle School North,501 SQUANKUM  YELLOWBROOK ROAD,,Farmingdale,37,7727
2994,Howell Township Middle School South,220 Ramtown-Greenville Road,,Howell,37,7731
4568,Hubbard Middle School,661 W EIGHTH ST,,Plainfield,37,07060-2233
2173,HUBER ST NO 3,1520 PATERSON PLANK RD,,Secaucus,37,7094
2187,Hudson Elementary School,167  19TH ST,,UNION CITY,37,07087-5459
4333,Hudson Maxim Elementary School,452 Lakeside Blvd,,Hopatcong,37,7843
3738,HUGH J BOYD JR. ELEMENTARY SCHOOL,1200 BAY BOULEVARD,,SEASIDE HTS,37,8751
2282,Hunterdon Central Regional High School District,84  ROUTE 31,,Flemington,37,8822
2289,Hunterdon County Vocational School District,8 Bartles Corner Road,,Flemington,37,8822
2293,Hunterdon Polytech Bartles Corner Campus,8 Bartles Corner Road,,Flemington,37,8822
4506,Hurden Looker School,1261 LIBERTY AVE,,Hillside,37,07205-2032
1980,HURFFVILLE ELEMENTARY SCHOOL,200 HURFFVILLE  GRENLOCH RD,,Sewell,37,08080-9499
2751,Ignacio Cruz Early Childhood Center,601 CORTLANDT ST,,PERTH AMBOY,37,8861
5020,Immaculata High School,240 Mountain Avenue,,Somerville,37,8876
1323,Indian Ave School,399 INDIAN AVENUE,,Bridgeton,37,8302
2816,Indian Fields Elementary School,359 RIDGE ROAD,,Dayton,37,8810
3026,Indian Hill School,735 HOLMDEL ROAD,,Holmdel,37,07733-1599
528,Indian Hills High School,97 Yawpo Avenue,,Oakland,37,07436-2740
920,Indian Mills Elementary School,112 Indian Mills Road,,Shamong,37,08088-9512
922,Indian Mills Memorial School,295 Indian Mills Road,,Shamong,37,8088
2867,INDIANA AVENUE ELEMENTARY SCHOOL,INDIANA AVENUE,,Iselin,37,8830
2099,Infinity Institute,193 Old Bergen Road,,Jersey City,37,7305
4877,International Academy of,720 Bellevue Ave,,Trenton,37,8618
4879,International Charter School,105 GRAND STREET,,Trenton,37,08611-2417
3916,International High School,200 Grand Street,,Paterson,37,7501
3459,Intervale Elementary School,60 Pitt Road,,Boonton,37,7005
4456,IPrep Academy School No 8,221-227 Court Street,,Elizabeth,37,7206
4214,Irene E. Feldkirchner Elementary School,105 ANDREW ST,,GREEN BROOK,37,08812-2505
3495,Ironia School,303 DOVER  CHESTER ROAD,,Randolph,37,7869
2608,IRVING PRIMARY SCHOOL,121 SOUTH ELEVENTH AVENUE,,HIGHLAND PARK,37,8904
1543,IRVINGTON HIGH SCHOOL,1253      CLINTON AVE,,Irvington,37,07111-2437
2557,Irwin Elementary School,71 RACETRACK ROAD,,EAST BRUNSWICK,37,8816
2869,ISELIN MIDDLE SCHOOL,900 WOODRUFF STREET,,Iselin,37,8830
3617,Island Heights Elementary School,115 SUMMIT AVE,,ISLAND HEIGHTS,37,08732-0329
1675,IVY HILL ELEMENTARY SCHOOL,107 IVY STREET,,Newark,37,7106
778,J Harold Van Zant,270 CONESTOGA DRIVE,,Marlton,37,8053
624,J SPENCER SMITH SCHOOL,101 DOWNEY DRIVE,,Tenafly,37,7670
4624,J. Ackerman Coles,16 KEVIN ROAD,,SCOTCH PLAINS,37,7076
939,J. C. STUART ELEMENTARY SCHOOL,70 SUNSET ROAD,,Willingboro,37,8046
1149,J. Fithian Tatem School,ONE GLOVER AVENUE,,Haddonfield,37,8033
1495,J. Garfield Jackson Sr. Academy,106 PROSPECT STREET,,EAST ORANGE,37,07017-2203
1879,J. Harvey Rodgers School,301 GEORGETOWN RD,,Glassboro,37,8028
1920,J. Mason Tomlin Elementary School,393 MAIN ST,,Mantua,37,8051
2266,J.P. Case Middle School,301 CASE BOULEVARD,,Flemington,37,8822
2508,J.V.B. WICOFF ELEMENTARY SCHOOL,510 PLAINSBORO ROAD,,Plainsboro,37,8536
370,Jackson Avenue,421 JACKSON AVE,,Hackensack,37,7601
5901,Jackson Liberty High School,125 North Hope Chapel Rd.,,Jackson,37,8527
3631,Jackson Memorial High School,101 DON CONNOR BLVD,,Jackson,37,08527-3497
1078,James A. Garfield Elementary School,480 HADDON AVE,,Collingswood,37,8108
2719,James A. McDivitt Elementary School,1 MANNY MARTIN WAY,,OLD BRIDGE,37,8857
4640,James Caldwell Elementary School,36 Caldwell Place,,Springfield,37,7081
1447,JAMES CALDWELL HIGH SCHOOL,265 WESTVILLE AVE,,WEST CALDWELL,37,7006
1052,James F. Cooper Elementary School,1960 GREENTREE RD,,CHERRY HILL,37,08003-1121
2101,James F. Murray School,339 STEGMAN PARKWAY,,JERSEY CITY,37,07305-1408
4032,JAMES FALLON ELEMENTARY SCHOOL,51 CLIFFORD DRIVE,,Wayne,37,7470
2103,James J Ferris High School,35 COLGATE ST,,JERSEY CITY,37,07302-3307
2752,James J. Flynn Elementary School,850 CHAMBERLAIN AVENUE,,PERTH AMBOY,37,08861-1705
1054,James Johnson Elementary School,500 KRESSON RD,,CHERRY HILL,37,08034-3121
2574,James Madison Intermediate School,838 NEW DOVER ROAD,,Edison,37,8820
2576,James Madison Primary School,840 NEW DOVER ROAD,,Edison,37,8820
335,JAMES MADISON SCHOOL #10,62 ALPINE ST,,Garfield,37,7026
2578,James Monroe Elementary School,45 Wilus Way,,Iselin,37,8830
638,James Russell Lowell Elementary School,1025 LINCOLN PLACE,,Teaneck,37,7666
1106,"JAMES W. LILLEY,JR. ELEMENTARY SCHOOL",1275 WILLIAMSTOWN ROAD,,Erial,37,8081
272,Janis E. Dismus Middle School,325 Tryon Avenue,,Englewood,37,7631
678,Jefferson (Annex) Elementary School,6 Bond Street,,Wallington,37,7057
4673,JEFFERSON ELEMENTARY,155 HILTON AVENUE,,Union,37,7083
183,Jefferson Elementary School,200 HICKORY AVENUE,,Bergenfield,37,7621
1781,Jefferson Elementary School,518 RIDGEWOOD RD,,Maplewood,37,07040-2158
464,Jefferson Elementary School,100 Prospect Avenue,,North Arlington,37,7031
4570,Jefferson Elementary School,1700 W. FRONT ST,,Plainfield,37,7063
3525,Jefferson Elementary School,CORN HOLLOW ROAD,,Succasunna,37,7876
4650,Jefferson Elementary School,110 ASHWOOD AVENUE,,Summit,37,07901-3823
2476,Jefferson Elementary School,1 WHITTLESEY ROAD,,Trenton,37,8618
2188,Jefferson Elementary School,3400 PALISADE AVENUE,,UNION CITY,37,7087
1449,JEFFERSON ELEMENTARY SCHOOL,85 PROSPECT ST,,WEST CALDWELL,37,7006
4707,JEFFERSON ELEMENTARY SCHOOL,1200 BOULEVARD,,Westfield,37,07090-2726
414,Jefferson School,336 LAKE AVE.,,Lyndhurst,37,07071-1416
3335,Jefferson Township High School,1010 WELDON RD   RD2,,OAK RIDGE,37,07438-9511
3337,Jefferson Township Middle School,1000 WELDON ROAD,,OAK RIDGE,37,07438-9511
1866,Jeffrey Clark School,7 QUAKER RD,,Mickleton,37,8056
4458,Jerome Dunn Academy No 9,201 Livingston Street,,Elizabeth,37,7206
4881,JERSEY CITY COMM. CS,128 DANFORTH AVENUE,,JERSEY CITY,37,7305
4883,Jersey City Global CS,255 Congress Street,,Jersey City,37,7307
4885,Jersey City Golden Door,3044 Kennedy Blvd,,JERSEY CITY,37,7306
660,Jessie F. George Elementary,1 PALM STREET,,TOWNSHIP OF WASHINGTON,37,7676
1056,John A. Carusi Middle School,315 ROOSEVELT DR,,CHERRY HILL,37,08034-1599
286,JOHN A. FORREST ELEMENTARY SCHOOL,10 - 00 HOPPER AVE,,FAIR LAWN,37,07410-1815
2703,John Adams,1420 REDMOND STREET,,NORTH BRUNSWICK,37,8902
2580,John Adams Middle School,1081 NEW DOVER ROAD,,Edison,37,8820
857,John Brainerd Elementary School,100 WOLLNER DR,,MOUNT HOLLY,37,8060
43,John C. Milanesi Elementary School,880 Harding Highway,,Buena,37,08310-9701
2826,John E Riley Elementary School,100 MORRIS AVENUE,,SOUTH PLAINFIELD,37,7080
4460,John E. Dwyer Technology Academy,123 Pearl St,,Elizabeth,37,7202
2161,John F Kennedy Elementary School,1210 ELEVENTH ST,,N BERGEN,37,07047-1810
4174,JOHN F KENNEDY ELEMENTARY SCHOOL,255 WOODMERE ST,,Raritan,37,8869
2828,John F Kennedy Elementary School,2900 NORWOOD AVENUE,,SOUTH PLAINFIELD,37,7080
4034,JOHN F KENNEDY ELEMENTARY SCHOOL,1310 RATZER ROAD,,Wayne,37,07470-5652
977,John F Kennedy Elementary School,228 Mt Vernon Avenue,,West Berlin,37,8091
1677,JOHN F KENNEDY SCHOOL,311 S TENTH ST,,Newark,37,07103-2114
2612,JOHN F. KENNEDY ELEMENTARY SCHOOL,28 FRONT STREET,,Jamesburg,37,8831
2871,JOHN F. KENNEDY HIGH SCHOOL,200 WASHINGTON AVENUE,,Iselin,37,8830
7028,John F. Kennedy Memorial High School,200 Washington Ave,,Iselin,37,8830
4115,John Fenwick Academy,183 SMITH STREET,,Salem,37,08079-9048
640,John Greenleaf Whittier Elementary Schoo,491 W ENGLEWOOD AVENUE,,Teaneck,37,7666
1013,John Greenleaf Whittier Family School,525 Clinton St,,Camden,37,8103
1196,John H. Glenn School,1005 TURNERVILLE RD,,PINE HILL,37,08021-6526
1739,JOHN H. WALKER MIDDLE SCHOOL,325 FRANKLIN AVE,,Nutley,37,07110-2735
1386,John H. Winslow Elementary School,1335 MAGNOLIA RD,,Vineland,37,08360-6578
3266,John Hill School,435 LATHROP AVENUE,,Boonton,37,07005-2221
811,John Hydock Elementary School,19 LOCUST AVE,,Columbus,37,08022-9504
3119,John I. Dawes Early Learning Center,38 GORDONS CORNER ROAD,,Manalapan,37,7726
1497,John L. Costley Middle School,116 HAMILTON ST,,EAST ORANGE,37,07017-2912
2016,John M. Bailey #12,75 WEST 10TH STREET,,Bayonne,37,7002
4462,John Marshal School No. 20,521 MAGNOLIA AVE,,Elizabeth,37,07206-1406
2582,John Marshall Elementary School,15 CORNELL STREET,,Edison,37,8817
4887,John P Holland Charter S,190 Oliver Street,,Paterson,37,7501
2539,JOHN P. FABER ELEMENTARY SCHOOL,400 HIGH STREET,,Dunellen,37,8812
2584,John P. Stevens High School,855 GROVE AVENUE,,Edison,37,8820
2446,John Witherspoon Middle School,217 WALNUT LANE,,Princeton,37,8540
534,John Y Dater Elementary School,35 SCHOOL STREET,,Ramsey,37,07446-1833
1499,Johnnie L. Cochran Jr. Academy,190 MIDLAND AVENUE,,EAST ORANGE,37,7017
2448,Johnson Park School,285 ROSEDALE ROAD,,Princeton,37,8540
1388,Johnstone Elementary School,165 S  BREWSTER RD,,Vineland,37,08361-7871
2721,Jonas Salk Middle School,155 W GREYSTONE ROAD,,OLD BRIDGE,37,08857-9625
4642,Jonathan Dayton High School,139 Mountain Ave.,,Springfield,37,7081
138,Jordan Road Elementary School,129 Jordan Road,,Somers Point,37,08244-1408
2190,Jose Marti Freshman Academy,1800 SUMMIT AVE,,UNION CITY,37,7087
3762,Joseph A. Citta Elementary School,2050 LAKEWOOD ROAD,,TOMS RIVER,37,8755
4464,Joseph Battin School No. 4,300 SOUTH BROAD STREET,,Elizabeth,37,07202-3516
91,JOSEPH C SHANER MEMORIAL ELEMENTARY SCHO,5801 THIRD STREET,,MAYS LANDING,37,8330
3032,Joseph C. Caruso School,285 Carr Avenue,,Keansburg,37,07734-1596
1058,Joseph D. Sharp Elementary School,300 OLD ORCHARD RD,,CHERRY HILL,37,08003-1299
4514,Joseph E. Soehl Middle School,300 E  HENRY ST,,Linden,37,07036-5320
2046,Joseph F Brandt School,215 NINTH STREET,,Hoboken,37,7030
2437,Joseph F. Cappello School,1072 Old Trenton Road,,Hamilton,37,8690
2105,Joseph H. Brensinger School,600 BERGEN AVE,,JERSEY CITY,37,7304
2972,Joseph J Catena School,275 BURLINGTON ROAD,,Freehold,37,07728-1598
3053,Joseph M. Ferraina Early Childhood Learn,80 AVENEL BOULEVARD,,LONG BRANCH,37,7740
3033,Joseph R. Bolger Middle School,100 PALMER PLACE,,Keansburg,37,07734-2056
903,Joseph S. Stackhouse School,125A TRENTON ROAD,,BROWNS MILLS,37,8015
3567,Joseph T. Donahue Elementary School,200 BENGAL BLVD,,Barnegat,37,8005
2107,Jotham W. Wakeman School,100 ST PAULS AVE,,JERSEY CITY,37,07306-2208
1060,Joyce Kilmer Elementary School,2900 CHAPEL AVE,,CHERRY HILL,37,08002-1661
2478,Joyce Kilmer Middle School,1300 STUYVESANT AVENUE,,Trenton,37,8618
434,Joyce Kilmer School,80 RIDGE ROAD,,Mahwah,37,7430
2659,Joyce Kilmer School,21 WEST CHURCH STREET,,Milltown,37,8850
4466,Juan Pablo Duarte - Jose Julian Marti #2,25 FIRST STREET,,Elizabeth,37,7206
670,Julia A Traphagen School,153 SUMMIT AVENUE,,Waldwick,37,7463
2109,Julia A. Barnes School,91 ASTOR PLACE,,JERSEY CITY,37,07304-2920
3517,Katharine D Malone Elementary School,524 GREEN POND ROAD,,Rockaway,37,7866
4675,KAWAMEEH MIDDLE SCHOOL,490 DAVID TERRACE,,Union,37,7083
3035,Keansburg High School,140 PORT MONMOUTH ROAD,,Keansburg,37,07734-1999
2147,Kearny High School,336 DEVON ST,,Kearny,37,07032-2612
3527,Kennedy Elementary School,PLEASANT HILL ROAD,,Succasunna,37,7876
2873,KENNEDY PARK ELEMENTARY SCHOOL,GOODRICH AVENUE,,Iselin,37,8830
931,Kenneth R. Olson Middle School,132 NEW ROAD,,Tabernacle,37,8088
3039,Keyport Central School,335 BROAD STREET,,Keyport,37,07735-1694
3041,Keyport High School,351 BROAD STREET,,Keyport,37,07735-1695
3342,Kiel Elementary School,115 KIEL AVENUE,,Kinnelon,37,7405
4590,KINDERGARTEN SUCCESS ACADEMY,150 EAST 3RD AVENUE,,Roselle,37,7203
4958,Kingdom CS of Leadership,121 West Church Street,,Blackwood,37,8012
3390,Kings Road School,215 KINGS ROAD,,Madison,37,7940
1062,Kingston Elementary School,320 KINGSTON RD,,CHERRY HILL,37,08034-1600
1896,Kingsway Regional High School,201 KINGS HIGHWAY,,WOOLWICH TWP,37,08085-9608
1898,Kingsway Regional Middle School,203 KINGS HIGHWAY,,WOOLWICH TWP,37,8085
2294,KINGWOOD TOWNSHIP SCHOOL,880 COUNTY ROAD 519,,Frenchtown,37,08825-9731
3344,Kinnelon High School,121 KINNELON ROAD,,Kinnelon,37,7405
1151,KIPP Cooper Norcross Academy at Lanning ,465 Berkley Street,,Camden,37,8103
833,Kirby's Mill Elementary School,151 HARTFORD ROAD,,Medford,37,8055
2381,KISTHARDT ELEMENTARY SCHOOL,215 HARCOURT DRIVE,,Hamilton,37,08610-4213
4337,Kittatinny Regional High School,77 HALSEY ROAD,,Newton,37,7860
2383,KLOCKNER ELEMENTARY SCHOOL,830 KLOCKNER AVENUE,,Hamilton,37,08619-2933
3461,Knollwood Elementary School,445 Knoll Road,,Lake Hiawatha,37,7034
2772,Knollwood Elementary School,333 WILLOW AVENUE,,Piscataway,37,08854-1332
2940,Knollwood School,224 HANCE ROAD,,FAIR HAVEN,37,07704-3198
4889,Knowledge A to Z Charter,1725 Park Boulevard,,Camden,37,8103
2064,Knowledge Advanced Skills,2000 85th Street,,North Bergen,37,07047-4715
4766,KNOWLTON TOWNSHIP BOARD OF EDUCATION,80 Route 46,,Delaware,37,07833-0152
1219,Kresson School,7 SCHOOL LANE,,Voorhees,37,08043-9545
2385,KUSER ELEMENTARY SCHOOL,70 NEWKIRK AVENUE,,Hamilton,37,08629-1428
3643,Lacey Township High School,73 HAINES STREET,,LANOKA HARBOR,37,8734
3645,Lacey Township Middle School,660 DENTON AVENUE,,FORKED RIVER,37,08731-0535
4893,LADY LIBERTY ACADEMY CS,746 Sanford Avenue,,Newark,37,7106
4105,Lafayette - Pershing,237 SHELL ROAD,,CARNEYS POINT,37,08069-1369
3539,Lafayette Avenus School,221 LAFAYETTE AVENUE,,Chatham,37,07928-1830
4149,Lafayette Elementary School,50 West High Street,,BOUND BROOK,37,8805
4036,LAFAYETTE ELEMENTARY SCHOOL,100 LAAUWE AVENUE,,Wayne,37,07470-2950
2875,LAFAYETTE ESTATES ELEMENTARY SCHOOL,FORD AVENUE,,Fords,37,8863
3376,LAFAYETTE LERNING CENTER,31 HAZEL STREET,,Morristown,37,7960
3121,Lafayette Mills School,66 MAXWELL LANE,,Manalapan,37,07726-2710
1679,LAFAYETTE STREET SCHOOL,205 LAFAYETTE ST,,Newark,37,07105-1843
4339,LAFAYETTE TOWNSHIP SCHOOL,178 BEAVER RUN ROAD,,Lafayette,37,7848
3446,Lake Drive Program for Hearing Impared,10 LAKE DRIVE,,MOUNTAIN LAKES,37,07046-1342
3463,Lake Hiawatha Elementary School,1 Lincoln Avenue,,Lake Hiawatha,37,7034
3465,Lake Parsippany Elementary School,225 Kingston Road,,Parsippany,37,7054
3597,Lake Riviera Middle School,171 BEAVERSON BOULEVARD,,Brick,37,8723
1854,Lake Tract Elementary School,690 ISZARD RD,,Deptford,37,8096
3651,Lakehurst Elementary School,301 UNION AVE,,Lakehurst,37,08733-2935
3844,Lakeland Regional High School,205 CONKLINTOWN ROAD,,Wanaque,37,07465-2198
1352,Lakeside Middle School,2 N  SHARP ST,,Millville,37,8332
4000,Lakeside School,316 LAKESIDE AVENUE,,POMPTON LAKES,37,07442-1299
3284,Lakeview Elementary School,44 COOPER ROAD,,Denville,37,7834
3657,Lakewood Early Childhood Center,100 Linden Avenue,,Lakewood,37,8701
3659,Lakewood High School,855 SOMERSET AVENUE,,Lakewood,37,8701
3661,Lakewood Middle School,755 SOMERSET AVENUE,,Lakewood,37,8701
2387,LALOR ELEMENTARY SCHOOL,25 BARNT DEKLYN ROAD,,Hamilton,37,08610-6632
4689,Lamberts Mill Academy,1571 LAMBERTS MILL ROAD,,Westfield,37,7090
2316,LAMBERTVILLE PUBLIC SCHOOL,200 N. Main,,Lambertville,37,08530-3210
4147,LaMonte-Annex Elementary School,330 WEST SECOND STREET,,BOUND BROOK,37,8805
2996,Land O&amp;#39;Pines Elementary School,81 Windeler Road,,Howell,37,07731-8700
1390,Landis Middle School,61 W LANDIS AVE,,Vineland,37,08360-8122
3599,Lanes Mill Elementary School,1891 LANES MILL RD,,Brick,37,08724-1445
1501,Langston Hughes Elementary School,160 Rhode Island Avenue,,EAST ORANGE,37,07018-2438
2389,LANGTREE ELEMENTARY SCHOOL,2080 WHATLEY ROAD,,Hamilton,37,08690-3142
1805,Laning Avenue School,18 LANNING RD,,Verona,37,07044-2510
3647,Lanoka Harbor Elementary School,281 MANCHESTER AVE,,LANOKA HARBOR,37,8734
867,Larchmont Elementary School,301 LARCHMONT BLVD,,MOUNT LAUREL,37,8054
2974,Laura Donovan School,237 STONEHURST BLVD,,Freehold,37,07728-3198
1153,Laurel Springs School,623 GRAND AVENUE,,LAUREL SPRINGS,37,8021
3669,Lavallette Elementary School,105 BROOKLYN AVE,,Lavallette,37,08735-2321
1155,Lawnside School,426 EAST CHARLESTON AVE,,Lawnside,37,08045-1404
2559,Lawrence Brook Elementary School,48 SULLIVAN WAY,,E BRUNSWICK,37,8816
2427,Lawrence High School,2525 PRINCETON PIKE,,Lawrenceville,37,08648-3631
2429,Lawrence Intermediate School,66 EGGERTS CROSSING ROAD,,Lawrenceville,37,08648-2804
2431,Lawrence Middle School,2455 PRINCETON PIKE,,Lawrenceville,37,08648-3938
7117,Lawrence Township Public Schools,2525 Princeton Pike,,Lawrenceville,37,8648
2433,Lawrenceville Elementary School,40 CRAVEN LANE,,Lawrenceville,37,08648-1637
4652,Lawton C. Johnson Summit Middle School,272 MORRIS AVE,,Summit,37,07901-2526
4891,LEAP ACADEMY UNIVERSITY,549 COOPER STREET,,Camden,37,8102
4895,LEARNING COMMUNITY CS,2495 John F Kennedy Blvd,,JERSEY CITY,37,7304
2296,Lebanon Borough School,6 MAPLE ST,,Lebanon,37,08833-9707
122,Leeds Avenue Elementary School,100 W  LEEDS AVENUE,,Pleasantville,37,8232
797,Lenape High School,235 HARTFORD ROAD,,Medford,37,8055
436,Lenape Meadows,160 RIDGE ROAD,,Mahwah,37,7430
4341,Lenape Valley Regional High School,28 SPARTA ROAD,,Stanhope,37,7874
3055,Lenna W. Conrow Elementary School,335 LONG BRANCH AVE,,LONG BRANCH,37,7740
4002,Lenox School,35 LENOX AVENUE,,POMPTON LAKES,37,07442-1729
4592,LEONARD V. MOORE MIDDLE SCHOOL,720 LOCUST ST,,Roselle,37,07203-1919
3087,Leonardo Elementary School,14 HOSFORD AVENUE,,Leonardo,37,07737-1797
388,Leonia High School,100 Chrisite Heights Street,,Leonia,37,07605-1525
390,Leonia Middle School,500 Broad Avenue,,Leonia,37,7605
2723,Leroy Gordon Cooper Elementary School,160 BIRCHWOOD DRIVE,,CLIFFWOOD BEACH,37,07735-6123
1775,Lester C Noecker,100 PASSAIC AVE,,Roseland,37,7068
2234,Lester D. Wilson Elementary School,525 COUNTY ROAD 513,,Pittstown,37,08867-9509
308,Lewis F. Cole Middle School,467 STILLWELL AVENUE,,FORT LEE,37,07024-2140
4184,Liberty Corner School,61 CHURCH STREET,,LIBERTY CORNER,37,7938
4748,LIBERTY ELEMENTARY SCHOOL,334 MOUNTAIN LAKE ROAD,,GREAT MEADOWS,37,7838
2111,Liberty High School,299 SIP AVENUE,,JERSEY CITY,37,7306
1819,LIBERTY MIDDLE SCHOOL,1  KELLY  DRIVE,,WEST ORANGE,37,7052
160,LIFE SKILLS,327 EAST RIDGEWOOD AVE,,Paramus,37,07652-4832
3010,Lillian Drive School,28 LILLIAN DRIVE,,Hazlet,37,07730-2699
3569,Lillian M. Dunfee Elementary,128 BARNEGAT BLVD,,Barnegat,37,08005-2497
195,Lillian M. Steen,152 W. Main,,Bogota,37,7603
4496,Lincoln,400 SECOND AVENUE,,Garwood,37,7027
1681,Lincoln,87 RICHELIEU TER,,Newark,37,07106-2419
1761,LINCOLN AVENUE ELEMENTARY SCHOOL,216 LINCOLN AVE,,Orange,37,07050-2605
2018,Lincoln Community School #5,208 PROSPECT AVENUE,,Bayonne,37,7002
4709,LINCOLN EARLY CHILDHOOD CENTER,728 WESTFIELD AVENUE,,Westfield,37,7090
185,Lincoln Elementary School,115 HIGHVIEW AVENUE,,Bergenfield,37,7621
1451,LINCOLN ELEMENTARY SCHOOL,18 CRANE ST,,Caldwell,37,7006
233,Lincoln Elementary School,80 PROSPECT AVE,,Dumont,37,07628-2736
2586,Lincoln Elementary School,53 BROOKVILLE ROAD,,Edison,37,8817
2040,Lincoln Elementary School,221 CROSS STREET,,Harrison,37,07029-2613
382,Lincoln Elementary School,BURTON &amp; PATERSON AVES,,HASBROUCK HEIGHTS,37,7604
2681,Lincoln Elementary School,66 BARTLETT STREET,,NEW BRUNSWICK,37,08901-1152
2163,Lincoln Elementary School,1206 63RD ST,,NORTH BERGEN,37,07047-3408
544,Lincoln Elementary School,712 LINCOLN AVENUE,,RIDGEFIELD PARK,37,7660
3505,Lincoln Elementary School,37 KELLER AVENUE,,Rockaway,37,07866-3921
2113,Lincoln High School,60 CRESCENT AVE,,JERSEY CITY,37,07304-2925
2541,Lincoln Middle School,400  Dunellen Avenue,,Dunellen,37,8812
3836,Lincoln Middle School,230 HAWTHORNE AVENUE,,Hawthorne,37,7506
2149,Lincoln Middle School,121 BEECH ST,,Kearny,37,07032-2707
3862,Lincoln Middle School # 4,291 Lafayette Ave.,,Passaic,37,7055
3350,Lincoln Park Elementary School,274 PINEBROOK ROAD,,LINCOLN PARK,37,7035
3352,Lincoln Park Middle School,90 RYERSON ROAD,,LINCOLN PARK,37,07035-1226
300,Lincoln School,140 ANDERSON  AVENUE,,Fairview,37,7022
416,Lincoln School,281 RIDGE RD,,Lyndhurst,37,07071-1928
1741,LINCOLN SCHOOL,301 HARRISON ST,,Nutley,37,07110-2614
4004,Lincoln School,40 MILL STREET,,POMPTON LAKES,37,07442-1490
595,Lincoln School,414 MONTROSS AVENUE,,Rutherford,37,07070-2218
302,Lincoln School Annex,130 HAMILTON AVENUE,,Fairview,37,7022
3529,Lincoln/Roosevelt School,34 HILLSIDE AVENUE,,Succasunna,37,07876-1446
4654,Lincoln-Hubbard Elementary School,52 WOODLAND AVE,,Summit,37,07901-2101
3089,Lincroft Elementary School,729 NEWMAN SPRINGS ROAD,,Lincroft,37,07738-1596
503,Lindbergh Elementary School,401 GLEN AVE,,PALISADES PARK,37,7650
1529,Linden Avenue School,205 LINDEN AVE,,GLEN RIDGE,37,7028
4516,Linden High School,121 W ST GEORGE AVE,,Linden,37,07036-3960
2588,Lindeneau Elementary School,50 BLOSSOM STREET,,Edison,37,8817
1157,Lindenwold High School,801 Egg Harbor Road,,Lindenwold,37,8021
1159,Lindenwold Middle School,40 WHITE HORSE AVENUE,,Lindenwold,37,8021
1161,Lindenwold Preschool Building,100 South Avenue,,Lindenwold,37,8021
1162,Lindenwold School Five,550 Chews Landing Rd.,,Lindenwold,37,8021
1164,Lindenwold School Four,900 Gibbsboro Rd.,,Lindenwold,37,8021
4897,Link Community Charter S,23 Pennsyvania Ave,,Newark,37,7114
2705,Linwood Middle School,25 LINWOOD PLACE,,NORTH BRUNSWICK,37,8902
3846,Little Falls Township Public School # 1,Little Falls School # 1,,LITTLE FALLS,37,07424-1082
3848,Little Falls Township Public School # 2,Little Falls School # 2,,LITTLE FALLS,37,07424-1082
3850,Little Falls Township Public School # 3,Little Falls School # 3,,LITTLE FALLS,37,07424-1082
7195,Little Way Homeschool Cooperative,St. Rose of Lima Church,312 Ridgedale Avenue,East Hanover,37,7936
2450,Littlebrook School,39 MAGNOLIA LANE,,Princeton,37,08540-4013
3467,Littleton Elementary School,250 Brooklawn Drive,,Morris Plains,37,7950
4677,Livingston,960 MIDLAND BLVD,,Union,37,7083
4420,Livingston Avenue School,75 LIVINGSTON AVENUE,,Cranford,37,7016
2683,Livingston Elementary School,206 DELAVAN STREET,,NEW BRUNSWICK,37,08901-3035
1567,Livingston High School,30 ROBERT HARP DRIVE,,Livingston,37,7039
2707,Livingston Park,1128 LIVINGSTON AVENUE,,NORTH BRUNSWICK,37,8902
3141,Lloyd Road Elementary School,401 LLOYD ROAD,,Aberdeen,37,07747-1800
400,Lodi High School,99 PUTNAM STREET,,Lodi,37,7644
617,Lodi MS HS,123 UNION ST,,Lodi,37,7644
1902,Logan Middle School,110 School Lane,,Logan Township,37,8085
1904,Logan Township Elementary School,110 SCHOOL LANE,,LOGAN TWP,37,8085
3679,Long Beach Island Grade School,201    20TH STREET,,SHIP BOTTOM,37,8008
3057,Long Branch High School,404 Indiana Avenue,,LONG BRANCH,37,07740-5557
3059,Long Branch Middle School,350 INDIANA AVENUE,,LONG BRANCH,37,07740-6192
4303,Long Pond School,707 LIMECREST RD,,Newton,37,7860
3559,Long Valley Middle School,51 WEST MILL RD,,LONG VALLEY,37,07853-9200
1187,LONGFELLOW ELEMENTARY SCHOOL,GROSS &amp; FORREST AVE,,Pennsauken,37,8110
4767,Lopatcong Elementary School,263 ROUTE 57,,Phillipsburg,37,08865-9410
4769,Lopatcong Township Middle School,321 STONEHENGE DRIVE,,Phillipsburg,37,08865-9410
2685,Lord Stlrling Elementary School,101 REDMOND STREET,,NEW BRUNSWICK,37,08901-1343
1108,LORING-FLEMMING ELEMENTARY SCHOOL,135 LITTLE GLOUCESTER RD,,Blackwood,37,08012-3311
1928,Loudenslager Elementary School,100 BAIRD AVE,,Paulsboro,37,08066-1536
1683,LOUISE A SPENCER ELEMENTARY SCHOOL,66 MUHAMMAD ALI AVENUE,,Newark,37,07108-2914
4380,Lounsberry Hollow Middle School,30 SAMMIS ROAD,,Vernon,37,07462-0219
4468,Louverture-Lafayette School No. 6,1071 JULIA ST,,Elizabeth,37,07201-1554
4131,Lower Alloways Creek Elementary School,967 MAIN ST CANTON,,Salem,37,8079
1267,Lower Cape May Regional High School,687 RT 9,,CAPE MAY,37,8204
3633,Lucy N. Holman Elementary School,125 MANHATTAN STREET,,Jackson,37,08527-3497
1685,LUIS MUNOZ MARIN ELEMENTARY SCHOOL,663 Broadway,,Newark,37,7104
2480,LUIS MUNOZ-RIVERA MS,400 N  MONTGOMERY STREET,,Trenton,37,8618
713,LUMBERTON CAMPUS,71 ARK ROAD,,Lumberton,37,8048
809,Lumberton Middle School,30 DIMSDALE DRIVE,,Lumberton,37,8048
226,Luther Lee Emerson School,15 COLUMBUS ROAD,,Demarest,37,7627
288,LYNCREST ELEMENTARY SCHOOL,9-04 MORLOT AVE,,FAIR LAWN,37,7410
418,Lyndhurst High School,400 Weart Avenue,,Lyndhurst,37,7071
2877,LYNN CREST ELEMENTARY SCHOOL,98 IRA AVENUE,,Colonia,37,7067
4899,M E T S Charter School,211 SHERMAN AVE,,JERSEY CITY,37,7307
754,M. Joan Pearson Elementary School,1301 BURLINGTON AVE,,Delanco,37,8075
2725,M. Scott Carpenter Elementary School,ONE PAR AVENUE,,OLD BRIDGE,37,08857-3045
4470,Mabel G. Homes School No. 5,650 Bayway Avenue,,Elizabeth,37,7202
731,Mac Farland Intermediate,87 CROSSWICKS ST,,Bordentown,37,08505-1767
4206,MacAfee Road School,53 MACAFEE ROAD,,Somerset,37,08873-2949
4056,Macopin Middle School,70 HIGHLANDER DRIVE,,WEST MILFORD,37,07480-1511
1545,MADISON AT CHANCELLOR SOUTH,36 MT. VERNON AVENUE,,Irvington,37,7111
4602,Madison Elementary,944 MADISON AVE,,Rahway,37,07065-1803
3392,Madison High School,170 RIDGEDALE AVENUE,,Madison,37,7940
3394,Madison Junior School,160 MAIN STREET,,Madison,37,7940
4472,Madison Monroe School No. 16,1091 NORTH AVE,,Elizabeth,37,07201-1612
2727,Madison Park Elementary School,33 HARVARD RD,,Parlin,37,08859-1211
1169,Magnolia,420 NORTH WARWICK RD,,Magnolia,37,08049-1320
3222,Mahala F. Atchison School,961 SYCAMORE AVENUE,,TINTON FALLS,37,07724-3199
2115,Mahatma K. Gandhi School,143 ROMAINE AVE,,JERSEY CITY,37,07306-5218
438,Mahwah High School,50 RIDGE ROAD,,Mahwah,37,7430
1956,Main Road School,1452 MAIN RD,,Newfield,37,08344-5341
107,Mainland Regional High School,1301 Oak Avenue,,Linwood,37,8221
626,MALCOLM S MACKAY SCHOOL,111 JEFFERSON AVENUE,,Tenafly,37,7670
1686,MALCOLM X SHABAZZ HIGH SCHOOL,80 JOHNSON AVE,,Newark,37,7108
2960,Manalapan High School,20 CHURCH LANE,,Englishtown,37,07726-3498
3123,Manalapan-Englishtown Middle School,155 MILLHURST ROAD,,Manalapan,37,07726-4006
3133,Manasquan Elementary School,168 BROAD STREET,,Manasquan,37,08736-2892
3135,Manasquan High School,167 BROAD STREET,,Manasquan,37,08736-2893
3681,Manchester Regional Day School,890 TOMS RIVER ROAD,,Jackson,37,08527-9105
3683,Manchester Township Elementary School,101 N  COLONIAL DRIVE,,Manchester,37,8733
3685,Manchester Township High School,101 S  COLONIAL DR,,Manchester,37,8759
3687,Manchester Township Middle School,2759 RIDGEWAY RD,,Manchester,37,8759
492,Manito Elementary School,111 MANITO AVE,,Oakland,37,07436-4012
4080,Mannington Township Elementary School,495 ROUTE 45,,Salem,37,08079-9801
4771,Mansfield Township Elementary,50 PORT MURRAY ROAD,,PORT MURRAY,37,07865-9702
813,Mansfield Township Elementary School,200 MANSFIELD ROAD EAST,,Columbus,37,8022
959,Mansion Avenue School,300 MANSION AVENUE,,Audubon,37,8106
4236,Manville High School,1100 BROOKS BOULEVARD,,Manville,37,8835
3195,MAPLE PLACE MIDDLE SCHOOL,MAPLE PLACE,,Oceanport,37,07757-1600
4058,Maple Road Elementary School,36 MAPLE ROAD,,WEST MILFORD,37,07480-2706
817,Maple Shade High School,180 Frederick Ave,,MAPLE SHADE,37,8052
1783,Maplewood Middle School,7 BURNETT ST,,Maplewood,37,07040-2620
1950,Margaret C. Clifford School,601 Auburn Avenue,,Swedesboro,37,8085
2932,Margaret L Vetter,3 Grant Avenue,,Eatontown,37,07724-1399
1287,Margaret Mace Elementary School,1201 Atlantic Avenue,,North Wildwood,37,8260
4901,MARIA L. VARISCO-ROGERS,18 Heller Parkway,,Newark,37,7104
4317,MARIAN E. MCKEOWN ELEMENTARY SCHOOL,ONE SCHOOL ROAD,,Newton,37,7860
1392,Marie Durand Elementary School,371 W FOREST GROVE RD,,Vineland,37,08360-2060
3553,Marie V. Duffy Elementary School,137 East Central Avenue,,Wharton,37,07885-2431
3169,MARINE ACADEMY OF SCIENCE AND TECHNOLOGY,305 Mast Way,,Highlands,37,07732-5196
3693,Marine Academy of Technology and Environ,195 CEDAR BRIDGE ROAD,,Manahawkin,37,8050
3864,Mario Drago School # 3,155 Van Houten Ave.,,Passaic,37,07055-4502
4902,MARION P. THOMAS CS,370  374 SOUTH 7TH STREET,,Newark,37,07103-2047
4282,Marion T. Bedwell Elementary School,141 SENEY DRIVE,,Bernardsville,37,7924
1080,Mark Newbie Elementary School,2 EAST BROWNING RD,,Collingswood,37,8108
3043,MARKHAM PLACE,95 MARKHAM PLACE,,LITTLE SILVER,37,07739-1496
3071,Marlboro Elementary School,100 SCHOOL ROAD WEST,,Marlboro,37,07746-1596
2962,Marlboro High School,95 NORTH MAIN STREET,,Marlboro,37,07746-1055
3073,Marlboro Memorial Middle School,71 NOLAN ROAD,,Morganville,37,7751
3075,Marlboro Middle School,355 COUNTY ROAD 520,,Marlboro,37,07746-1057
780,Marlton Elementary,190 TOMLINSON MILL ROAD,,Marlton,37,8053
782,Marlton Middle,150 TOMLINSON MILL ROAD,,Marlton,37,8053
1785,Marshall Elementary School,262 GROVE RD,,S ORANGE,37,07079-2367
4060,Marshall Hill Elementary School,210 MARSHALL HILL ROAD,,WEST MILFORD,37,07480-3512
2976,Marshall W. Errickson School,271 ELTON  ADELPHIA ROAD,,Freehold,37,07728-3127
3792,Martha B. Day Elementary School,225 RAFKIND ROAD,,Bloomingdale,37,7403
2117,Martin Center for the Arts,59 WILKINSON AVE,,JERSEY CITY,37,07305-4227
4012,Martin J. Ryerson School,130 VALLEY ROAD,,Ringwood,37,7456
2590,Martin Luther King Elementary School,285 TINGLEY LANE,,Edison,37,8820
2774,Martin Luther King Elementary School,5205 LUDLOW STREET,,Piscataway,37,8854
2482,Martin Luther King Jr. Elementary School,401-411 Brunswick Avenue,,Trenton,37,8638
2119,"Martin Luther King, Jr. School",886 BERGEN AVE,,JERSEY CITY,37,07306-4302
3866,"Martin Luther King, Jr. School # 6",85 Hamilton Ave.,,Passaic,37,07055-5215
536,Mary A. Hubbard Elementary School,10 HUBBARD LANE,,Ramsey,37,07446-2202
1166,Mary Bray Elementary School,225 WEST KINGS HIGHWAY,,MOUNT EPHRAIM,37,08059-1803
843,Mary E. Roberts Elementary School,290 CRESCENT AVENUE,,Moorestown,37,8057
1205,Mary E. Volz Elementary School,509 WEST THIRD AVENUE,,Runnemede,37,8078
1120,Mary Ethel Costello School,520 CUMBERLAND STREET,,GLOUCESTER CITY,37,8030
1958,Mary F. Janvier School,1532 PENNSYLVANIA AVE,,Franklinville,37,08322-2355
2020,Mary J. Donohoe #4,38 DODGE STREET,,Bayonne,37,7002
4394,Mary Kay McMillin Early Childhood Center,651 MOUNTAIN AVENUE,,BERKELEY HEIGHTS,37,7922
4135,Mary S. Shoemaker School,MARY S  SHOEMAKER SCHOOL,,Woodstown,37,8098
1171,Mastery Schools of Camden,800 Erie St,,Camden,37,8108
3143,Matawan Regional High School,450 ATLANTIC AVENUE,,Aberdeen,37,07747-2398
3145,Matawan-Aberdeen Middle School,469 MATAWAN AVENUE,,Cliffwood,37,07721-1295
5312,Mater Dei High School,538 Church St,,Middletown,37,7748
2879,MATTHEW JAGO ELEMENTARY SCHOOL,99 CENTRAL AVENUE,,Sewaren,37,7077
1275,Maud Abrams School,714 TOWNBANK RD,,CAPE MAY,37,08204-4650
819,Maude M. Wilkins Elementary School,34 WEST MILL ROAD,,MAPLE SHADE,37,8052
2510,Maurice Hawk Elementary School,303  305 CLARKSVILLE ROAD,,West Windsor,37,8550
7511,Maurice River Township Elementary School,3593 NJ-47,NULL,Millville,37,8348
1346,MAURICE RIVER TOWNSHIP SCHOOL,3593 RT 47,,PORT ELIZABETH,37,08348-0464
2881,MAWBEY STREET ELEMENTARY SCHOOL,275 MAWBEY STREET,,Woodbridge,37,7095
1394,Max Leuchter,519 N WEST AVE,,Vineland,37,08360-3510
4572,Maxson Middle School,920 E SEVENTH ST,,Plainfield,37,07062-1854
426,MAYWOOD AVENUE SCHOOL,452 MAYWOOD AVE,,Maywood,37,07607-1969
619,Maywood Campus,404 MAYWOOD AVENUE,,Maywood,37,7607
2395,McGALLIARD ELEMENTARY SCHOOL,1600 ARENA DRIVE,,Hamilton,37,08610-3205
239,MCKENZIE SCHOOL,125 CARLTON AVENUE,,EAST RUTHERFORD,37,7073
1688,Mckinley,1 COLONNADE PL,,Newark,37,07104-1810
3744,McKinley Avenue Elementary School,1000 McKinley Avenue,,Manahawkin,37,08050-2807
2687,Mckinley Community School,15 VAN DYKE AVE,,NEW BRUNSWICK,37,08901-3255
2165,McKinley Elementary School,3110 LIBERTY AVE,,NORTH BERGEN,37,07047-2319
4711,MCKINLEY ELEMENTARY SCHOOL,500 FIRST ST,,Westfield,37,07090-4123
2333,MCVS Adult Evening School,1085 Old Trenton Rd,,Trenton,37,8690
2334,MCVS Alternative School,11 Buttonwood,,Ewing,37,8638
2335,MCVS Arthur R. Sypek Center,129 BULL RUN ROAD,,Pennington,37,08534-1303
2337,MCVS Assunpink Center,1085 OLD TRENTON ROAD,,Trenton,37,08690-1229
2339,MCVS Health Careers Center,1070 Klockner Rd,,Hamilton,37,8619
2340,MCVS STEM Academy,1200 Old Trenton Rd,,West Windsor,37,8550
2934,Meadowbrook,65 WYCKOFF ROAD,,Eatontown,37,07724-1736
360,Meadowbrook,50 PIERMONT AVE,,Hillsdale,37,7642
835,Medford Memorial Middle School,55 MILL STREET,,Medford,37,8055
2347,MELVIN H. KREPS MIDDLE SCHOOL,5 KENT LANE,,EAST WINDSOR,37,8520
428,Memorial,764 GRANT AVE,,Maywood,37,07607-1621
420,Memorial Campus,319 New York Ave.,,Lyndhurst,37,7071
2561,Memorial Elementary School,14 INNES ROAD,,E BRUNSWICK,37,8816
2729,Memorial Elementary School,11 ELY AVE,,LAURENCE HARBOR,37,8879
392,Memorial Elementary School,130 LIBERTY ST,,LITTLE FERRY,37,07643-1756
450,Memorial Elementary School,53 Grand Avenue West,,Montvale,37,7645
3854,Memorial Elementary School,201 Squaw Brook Rd.,,NORTH HALEDON,37,07508-2720
508,Memorial Elementary School,EAST 203 MIDLAND AVE,,Paramus,37,7652
1936,MEMORIAL ELEMENTARY SCHOOL,400 HUDSON AVE,,Pitman,37,8071
2214,Memorial High School,5501 PARK AVE,,WEST NEW YORK,37,07093-3523
3321,Memorial Junior School,61 Highland Avenue,,Whippany,37,7981
1459,MEMORIAL MIDDLE SCHOOL,500 RIDGE ROAD,,CEDAR GROVE,37,7009
2936,Memorial Middle School,7 GRANT AVENUE,,Eatontown,37,07724-1398
249,Memorial Middle School,375 RIVER DRIVE,,ELMWOOD PARK,37,07407-1622
290,MEMORIAL MIDDLE SCHOOL,12 - 00 FIRST STREET,,FAIR LAWN,37,7410
3730,Memorial Middle School,LAURA HERBERT DR,,POINT PLEASANT,37,8742
4074,Memorial Middle School,15 MEMORIAL DRIVE,,Woodland Park,37,7424
257,Memorial School,1 Haines Avenue,,Emerson,37,7630
622,Memorial School,DYER AVENUE,,SOUTH HACKENSACK,37,07606-1537
4018,Memorial School,294 TOTOWA ROAD,,Totowa,37,07512-2661
3244,Memorial School,221 MORNINGSIDE AVENUE,,UNION BEACH,37,07735-3098
251,Memorial Senior High School,375 RIVER DR,,ELMWOOD PARK,37,07407-1622
3398,Mendham Township Elementary School,18 WEST MAIN STREET,,Brookside,37,7926
3400,Mendham Township Middle School,16 WASHINGTON VALLEY ROAD,,Brookside,37,7926
2592,Menlo Park Elementary School,155 MONROE AVENUE,,Edison,37,8820
2883,MENLO PARK TERRACE ELEMENTARY SCHOOL,19 MARYKNOLL ROAD,,Metuchen,37,8840
2439,Mercer Elementary School,1020 OLD TRENTON ROAD,,Hamilton,37,8690
2441,Mercer High School,1030 Old Trenton Road,,Hamilton,37,08690-1230
2391,MERCERVILLE ELEMENTARY SCHOOL,60 REGINA AVENUE,,Hamilton,37,08619-2202
1173,Merchantville Elementary School,130 S CENTRE ST,,Merchantville,37,08109-2207
4904,Merit Prep CS of Newark,909 Broad Street,,Newark,37,7102
4346,Merriam Avenue School,81 MERRIAM AVENUE,,Newton,37,7860
220,Merritt Memorial,1 DOGWOOD LANE,,Cresskill,37,7626
1015,Met East High School,1656 Kaighn Avenue,,Camden,37,8103
2618,Metuchen High School,400 GROVE AVE,,Metuchen,37,08840-1104
3012,Middle Road School,305 MIDDLE ROAD,,Hazlet,37,07730-2343
2121,Middle School # 4,107 BRIGHT STREET,,JERSEY CITY,37,7302
1279,Middle Township Elementary #1,215 ELDREDGE ROAD,,CAPE MAY COURT HOUSE,37,8210
1281,Middle Township Elementary #2,101 WEST PACIFIC AVE,,CAPE MAY COURT HOUSE,37,8210
1283,Middle Township Elementary #4,300 E PACIFIC AVE,,CAPE MAY COURT HOUSE,37,8210
1285,Middle Township High School,300 EAST ATLANTIC AVENUE,,CAPE MAY COURT HOUSE,37,8210
2632,Middlesex Co Voc School East Bruns. Scho,112 Rues Lane,,East Brunswick,37,08816-1070
2634,Middlesex Co Voc School Piscataway Schoo,21 SUTTONS LANE,,Piscataway,37,8854
2652,Middlesex County Academy,1690 STELTON ROAD,,Piscataway,37,08854-5917
2636,Middlesex County Voc Acad Allied Health ,1 CONVERY BOULEVARD,,Woodbridge,37,07095-2650
2638,Middlesex County Voc Academy Math Scienc,100 TECHNOLOGY DRIVE,,Edison,37,8837
2640,Middlesex County Vocational School  East,112 RUES LANE,,EAST BRUNSWICK,37,08816-4235
2642,Middlesex County Vocational School Perth,457 HIGH STREET,,PERTH AMBOY,37,8861
2644,Middlesex County Vocational School Pisca,21 SUTTONS LANE,,Piscataway,37,08854-5715
2624,Middlesex High School,300 JOHN F. KENNEDY DRIVE,,Middlesex,37,08846-1489
3091,Middletown High School North,63 TINDALL ROAD,,Middletown,37,07748-2798
3093,Middletown High School South,900 NUT SWAMP ROAD,,Middletown,37,07748-3199
3095,Middletown Village Elementary School,147 KINGS HIGHWAY,,Middletown,37,07748-2085
510,Midland Elementary School,241 WEST MIDLAND AVENUE,,Paramus,37,7652
446,Midland Park Jr./Sr. High School,250 PROSPECT ST,,MIDLAND PARK,37,7432
593,Midland School #1,300 ROCHELLE AVE,,ROCHELLE PARK,37,07662-3915
767,Midred Magowan Elementary School,405 CHERRIX AVENUE,,EDGEWATER PARK,37,8010
3601,Midstreams Elementary School,500 MIDSTREAMS RD,,BRICK TOWN,37,08724-3816
3185,Midtown Community Elementary School,1155 Corlies Ave,,Neptune,37,07753-5034
2022,Midtown Community School #8,550 AVENUE A,,Bayonne,37,7002
2620,Mildred B. Moss Elementary School,16 SIMPSON PLACE,,Metuchen,37,8840
1503,Mildred Barry Garvin Elementary,1 GROVE PLACE,,EAST ORANGE,37,07017-4706
3125,Milford Brook School,20 GLOBAR  TERRACE,,Manalapan,37,07726-1599
2302,Milford School,7 HILLSIDE AVENUE,,Milford,37,08848-9459
2669,MILL LAKE SCHOOL,115 MONMOUTH ROAD,,MONROE TWP,37,8831
3649,Mill Pond Elementary School,210 WESTERN BLVD,,LANOKA HARBOR,37,8734
763,Millbridge Elementary School,282 CONROW ROAD,,Delran,37,08075-9751
1581,Millburn High School,462 Millburn Avenue,,Millburn,37,07041-1210
1583,Millburn Middle School,25 OLD SHORT HILLS RD,,Millburn,37,7041
164,Millburn Regional Day School,70 SPRING STREET,,Millburn,37,7041
1690,MILLER STREET SCHOOL AT SPENCER,66 Muhammad Ali Avenue,,Newark,37,7108
3358,Millington Elementary School,91 Northfield Road,,Millington,37,07946-1352
2513,Millstone River School,75 GROVERS MILL ROAD,,Plainsboro,37,8536
3151,Millstone Township Elementary School,308 Millstone Road,,Clarksburg,37,8510
3153,Millstone Township Middle School,5 Dawson Court,,Millstone Township,37,8535
3155,Millstone Township Primary School,SCHOOLHOUSE ROAD,,MILLSTONE TOWNSHIP,37,8510
4176,MILLTOWN ELEMENTARY SCHOOL,611 MILLTOWN ROAD,,Bridgewater,37,8807
1354,Millville Memorial High School,504 EAST BROAD STREET,,Millville,37,8332
4906,Millville Public Charter School,1101 Wheaton Avenue,,Millville,37,8332
1356,Millville Senior High School,200 Wade Boulevard,,Millville,37,08332-2206
3541,Milton Avenue School,16 MILTON AVENUE,,Chatham,37,7928
3339,Milton Elementary School,52 SCHOOLHOUSE ROAD,,OAK RIDGE,37,07438-9110
837,Milton H. Allen Elementary School,24 ALLEN AVENUE,,Medford,37,08055-2402
4353,Mohawk Avenue School,18 Mohawk Avneue,,Sparta,37,7871
3113,Monmouth Beach Elementary School,7 HASTINGS PLACE,,MONMOUTH BEACH,37,07750-1199
3171,MONMOUTH COUNTY CAREER CENTER,1000 KOZLOSKI ROAD,,Freehold,37,07728-4395
3173,MONMOUTH COUNTY VOCATIONAL TECHNICAL HIG,417 Middle Rd,,Hazlet,37,7730
2818,Monmouth Junction Elementary School,630 RIDGE ROAD,,MONMOUTH JUNCTION,37,08852-9514
3115,Monmouth Regional High School,One Norman J. Field Way,,Tinton Falls,37,07724-3299
1856,Monongahela Middle School,890 BANKBRIDGE RD,,Sewell,37,8080
2673,Monroe Township High School,200 Schoolhouse Road,,MONROE TOWNSHIP,37,8831
2671,MONROE TWP MIDDLE SCHOOL,1629 PERRINEVILLE ROAD,,MONROE TOWNSHIP,37,8831
4342,MONTAGUE TOWNSHIP SCHOOL,475 ROUTE 206,,Montague,37,7827
1599,Montclair High School,100 CHESTNUT ST,,Montclair,37,07042-2908
5720,Montclair Kimberley Academy Upper School,6 Lloyd Road,,Montclair,37,7042
4244,Montgomery Lower Middle School,373 BURNT HILL ROAD,,Skillman,37,8558
4242,Montgomery Township School District,1016 ROUTE 601,,Skillman,37,8558
4246,Montgomery Upper Middle School,375 BURNT HILL ROAD,,Skillman,37,08558-9401
3408,Montville Township High School,100 HORSENECK ROAD,,Montville,37,07045-9626
621,Moonachie Campus,Robert L. Craig School,,Moonachie,37,7074
7499,Moorestown Friends School,110 East Main Street,NULL,Moorestown,37,8057
845,Moorestown High School,350 Bridgeboro Road,,Moorestown,37,08057-3702
847,Moorestown Upper Elementary School,325 Borton Landing Road,,Moorestown,37,8057
2393,MORGAN ELEMENTARY SCHOOL,38 STAMFORD ROAD,,Hamilton,37,08619-1446
3061,Morris Avenue Elementry School,318 MORRIS AVENUE,,LONG BRANCH,37,7740
3420,Morris County School of Technology,400 EAST MAIN STREET,,Denville,37,07834-2516
1340,MORRIS GOODWIN SCHOOL,839 YE GREATE STREET,,Greenwich,37,08323-0360
3422,Morris Hills High School,520 WEST MAIN STREET,,Rockaway,37,07866-3799
3424,Morris Hills Regional District Adult Hig,48 Knoll Drive,,Denville,37,7834
3426,Morris Knolls High School,50 KNOLL DRIVE,,Denville,37,07834-4099
3364,Morris Plains Borough School,531 SPEEDWELL AVENUE,,MORRIS PLAINS,37,07950-2134
3378,MORRISTOWN HIGH SCHOOL,50 EARLY STREET,,Morristown,37,7960
5924,Morristown-Beard School,70 Whippany Rd,,Morristown,37,07960-4523
2484,Mott Elementary School,45 STOKELY AVENUE,,Trenton,37,8611
3430,Mount Arlington Public School,235 HOWARD BOULEVARD,,MT  ARLINGTON,37,7856
3434,Mount Olive High School,18 COREY ROAD,,Flanders,37,7836
3436,Mount Olive Middle School,160 WOLFE ROAD,,BUDD LAKE,37,7828
1569,Mount Pleasant Elementary School,11 BROADLAWN DR,,Livingston,37,07039-3117
1358,MOUNT PLEASANT ELEMENTARY SCHOOL,100 CARMEL RD,,Millville,37,8332
1821,MOUNT PLEASANT ELEMENTARY SCHOOL,9 MANGER ROAD,,WEST ORANGE,37,7052
1571,Mount Pleasant Middle School,11 BROADLAWN DR,,Livingston,37,07039-3117
4186,Mount Prospect Elementary School,111 HANSOM RD,,BASKING RIDGE,37,7920
5021,Mount Saint Mary Academy,1645 US-22,,Watchung,37,7069
3469,Mount Tabor Elementary School,900 PARK RD &amp; ROUTE 53,,MOUNT TABOR,37,7878
3448,Mountain Lakes High School,96 Powerville Rd.,,Mountain Lakes,37,7046
4396,Mountain Park School,55 FAIRFAX DR,,BERKELEY HTS,37,07922-1832
3362,MOUNTAIN VIEW,100 DEAN ROAD,,Mendham,37,07945-1626
3438,Mountain View Elementary School,118 CLOVER HILL DRIVE,,Flanders,37,7836
4729,Mountain Villa School,1686 County Rt 517,,Allamuchy,37,7820
3366,Mountain Way School,531 Speedwell Avenue,,MORRIS PLAINS,37,7950
3323,Mountview Road School,30 MOUNTVIEW ROAD,,MORRIS PLAINS,37,7950
1691,MT VERNON PLACE SCHOOL,142 MOUNT VERNON PL,,Newark,37,07106-3303
1601,Mt. Hebron Middle School,173 BELLEVUE AVE,,UPPER MONTCLAIR,37,7042
4292,Mt. Horeb School,80 MT HOREB RD,,Warren,37,07059-5531
1547,MT. VERNON AVENUE SCHOOL,54 MT   VERNON AVENUE,,Irvington,37,7111
113,Mullica Township Middle School,500 ELWOOD ROAD,,Elwood,37,08217-0318
115,Mullica Township Primary School,500 ELWOOD ROAD,,Elwood,37,08217-0318
162,MULTIPLY HANDICAPED,327 EAST RIDGEWOOD AVENUE,,Paramus,37,07652-1831
7515,Music Studio Linwood,203 Shore Road,NULL,Linwood,37,8221
7513,Music Training Center,137 Route 73,NULL,South Marlton,37,8053
4518,Myles J. McManus MIddle School,300 EDGEWOOD RD,,Linden,37,07036-5320
1344,Myron L. Powell Elementary School,225 MAIN STREET,,Cedarville,37,8311
1693,N J REGIONAL DAY SCHOOL - NEWARK,334 LYONS AVE,,Newark,37,07112-1441
165,N. A. Bleshman Regional Day School,333 EAST RIDGEWOOD AVENUE,,Paramus,37,7652
2531,Nathan Hale Elementary School,678 ROOSEVELT AVENUE,,Carteret,37,7008
642,Nathaniel Hawthorne Elementary School,201 FYCKE LANE,,Teaneck,37,7666
1924,National Park School,516 LAKEHURST AVE,,NATIONAL PARK,37,08063-1534
3097,Navesink Elementary School,151 MONMOUTH AVENUE,,ATLANTIC HIGHLANDS,37,7716
823,Neeta School,44 Neeta Trail,,Medford Lakes,37,8055
1890,Nehaunsey Middle School,415 SWEDESBORO ROAD,,Gibbstown,37,8027
3732,Nellie F. Bennett Elementary School,RIVIERA PARKWAY,,POINT PLEASANT,37,8742
372,Nellie K. Parker,261 MAPLE HILL DR,,Hackensack,37,7601
3187,NEPTUNE HIGH SCHOOL,55 NEPTUNE BOULEVARD,,Neptune,37,07753-4894
3189,NEPTUNE MIDDLE SCHOOL,2300 HECK AVENUE,,Neptune,37,07753-4493
3452,Netcong Elementary School,26 COLLEGE ROAD,,Netcong,37,07857-1621
750,NEW ALBANY,2701 NEW ALBANY ROAD,,Cinnaminson,37,8077
2689,New Brunswick Adult High School,268 Baldwin street,,New Brunswick,37,8901
2691,New Brunswick High School,1000 Somerset St,,NEW BRUNSWICK,37,08901-3309
2693,New Brunswick Middle School,1125 Livingston Avenue,,NEW BRUNSWICK,37,8901
3720,New Egypt High School,117 EVERGREEN ROAD,,NEW EGYPT,37,08533-1316
3722,New Egypt Middle School,115 EVERGREEN ROAD,,NEW EGYPT,37,08533-1316
3724,New Egypt Primary School,131 EVERGREEN ROAD,,NEW EGYPT,37,8533
875,New Hanover Township School,122 FORT DIX STREET,,Wrightstown,37,8562
4908,NEW HORIZONS COMM. CS,45  59 HAYES STREET,,Newark,37,7103
7496,New Jersey BOychoir,35 West Chelten Avenue,NULL,Philadelphia,44,19144
7514,New Jersey Boychoir & Garden State Girlchoir,Unknown,NULL,Cinnaminson,37,8077
3174,New Jersey Virtual School,100 TORNILLO WAY,,TINTON FALLS,37,7712
5314,New Jersey Youth Chorus,230 Mendham Rd,,Morristown,37,7960
462,NEW MILFORD HIGH SCHOOL,330 River Road,,NEW MILFORD,37,7646
3099,New Monmouth Elementary School,121 NEW MONMOUTH ROAD,,Middletown,37,07748-2298
4546,New Providence High School,35 PIONEER DR,,NEW PROVIDENCE,37,07974-1515
4548,New Providence Middle School,35 PIONEER DRIVE,,NEW PROVIDENCE,37,7974
3918,NEW ROBERTO CLEMENTE,482-506 MARKET STREET,,Paterson,37,7501
1858,New Sharon School,1810 DELSEA DR,,Deptford,37,08096-3627
140,New York Avenue Elementary School,121 WEST NEW YORK AVENUE,,SOMERS POINT,37,08244-1408
14,New York Avenue School,411 N New York Avenue,,Atlantic City,37,8401
5315,Newark Academy,91 S Orange Ave,,Livingston,37,7039
1700,Newark Early College High School,403 South Orange Avenue,,Newark,37,7103
4910,Newark Educators Communi,9-11 Hill St,,Newark,37,7102
1695,NEWARK INNOVATION ACADEMY,190 Muhammad Ali Avenue,,Newark,37,7108
1697,NEWARK LEADERSHIP ACADEMY,301 West Kinney Street,,Newark,37,7103
4912,NEWARK LEGACY CS,823 S. 16th Street,,Newark,37,7108
4914,Newark Prep Charter Scho,570 Broad St.,,Newark,37,7102
1515,Newark Tech,91 WEST MARKET STREET,,Newark,37,7103
1698,NEWARK VOCATIONAL HIGH SCHOOL,403 South Orange Avenue,,Newark,37,7103
2998,Newbury Elementary School,179 NEWBURY ROAD,,Howell,37,07731-1813
3240,Newell Elementary School,27 HIGH STREET,,Allentown,37,08501-0278
4348,Newton High School,44 RYERSON AVENUE,,Newton,37,7860
4474,Nicholas Murray Butler School No. 23,501 UNION AVE,,Elizabeth,37,07208-2126
2024,Nicholas Oresko #14,33 East 24th Street,,Bayonne,37,7002
4476,Nicholas S. Lacorte-Peterstown School No,700 SECOND AVE,,Elizabeth,37,07202-3823
2123,Nicolaus Copernicus School,3385 KENNEDY BLVD,,JERSEY CITY,37,07307-4210
1603,Nishuane Elementary School,32 CEDAR AVE,,Montclair,37,07042-3110
3531,Nixon Elementary School,275 MT  ARLINGTON BOULEVARD,,Landing,37,7850
825,Nokomis School,135 Mudjekeewis Trail,,Medford Lakes,37,8055
4098,NORMA ELEMENTARY SCHOOL,873 GERSHAL AVE,,Pittsgrove,37,8318
3920,NORMAN S WEIR,152 COLLEGE BOULEVARD,,Paterson,37,07505-1102
3380,NORMANDY PARK SCHOOL,19A NORMANDY PARKWAY,,Morristown,37,7960
1517,North 13th St Tech,300 N 13TH ST,,Newark,37,07107-1218
466,North Arlington High School,222 Ridge Road,,North Arlington,37,7031
468,North Arlington Middle School,45 Beech Street,,North Arlington,37,7031
2167,North Bergen High School,7417 KENNEDY BLVD,,N BERGEN,37,07047-5916
3483,North Boulevard School,363 Boulevard,,Pompton Plains,37,07444-1701
2709,North Brunswick Township High School,98 RAIDER ROAD,,NORTH BRUNSWICK,37,08902-9607
261,North Cliff School,700 FLOYD ST,,ENGLEWOOD CLIFFS,37,7632
7512,North Dover Elementary,1759 New Hampshire Avenue,NULL,Toms River,37,8755
3297,North Dover Elementary School,51 HIGHLAND AVENUE,,Dover,37,7801
3764,North Dover Elementary School,1759 NEW HAMPSHIRE AVENUE,,TOMS RIVER,37,8753
1461,NORTH END ELEMENTARY,122 STEVENS AVE,,CEDAR GROVE,37,07009-1147
883,North Hanover Township Upper Elementary ,351 MONMOUTH ROAD,,Wrightstown,37,8652
2304,North Hunterdon High School,1445 State Route 31,,Annandale,37,8801
5317,North Jersey Home Schoolers Association,23 Cheryl Hills Drive,,Hawthorne,37,7506
124,NORTH MAIN ST ELEMENTARY SCHOOL,215 NORTH MAIN STREET,,Pleasantville,37,8232
4254,North Plainfield High School,34 WILSON AVE,,N PLAINFIELD,37,07060-4075
4256,North Plainfield Middle School,34 Wilson Avenue,,North Plainfield,37,07060-4075
4916,North Star Academy Chart,10 WASHINGTON PLACE,,Newark,37,7102
4773,North Warren Regional School,10 NOE RD,,Blairstown,37,07825-0410
1605,Northeast Elementary School,603 GROVE ST,,UPPER MONTCLAIR,37,7042
885,Northern Burlington County Regional High School,160 Mansfield Road East,,Columbus,37,8022
887,Northern Burlington County Regional Middle School,160 Mansfield Road East,,Columbus,37,8022
474,Northern Highlands Regional High School,298 HILLSIDE AVE,,Allendale,37,07401-1447
4362,Northern Hills Academy,10 GAIL COURT,,Sparta,37,7871
478,Northern Valley Region III,162 Knickerbocker Raod,,Demarest,37,7627
479,Northern Valley Regional H. S. at Old Tappan,100 Central Ave.,,Old Tappan,37,7675
476,Northern Valley Regional H. S.at Demarest ,150 KNICKERBOCKER RD,,Demarest,37,07627-1026
116,Northfield Community Elementary School,2000 NEW ROAD,,Northfield,37,8225
118,Northfield Community Middle School,2000 NEW ROAD,,Northfield,37,8225
3471,Northvail Elementary School,10 EILEEN COURT,,Parsippany,37,07054-1430
454,NORTHVALE PUBLIC SCHOOL,441 TAPPAN ROAD,,Northvale,37,7647
481,Norwood Public School,177 SUMMIT ST,,Norwood,37,07648-1812
4520,Number 1,728 NO WOOD AVE,,Linden,37,07036-4064
4522,Number 10,2801 HIGHLAND AVENUE,,Linden,37,7036
4524,Number 2,1700 SOUTH WOOD AVENUE,,Linden,37,7036
4526,Number 4,1602 DILL AVENUE,,Linden,37,7036
4528,Number 5,1014 BOWER STREET,,Linden,37,7036
4530,Number 6,19 East Morris Ave.,,Linden,37,7036
4532,Number 8,500 W BLANCKE ST,,Linden,37,07036-5058
4534,Number 9,1401 Deerfield Terrace,,Linden,37,7036
304,Number Three School,403 CLIFF STREET,,Fairview,37,7022
3101,Nut Swamp Elementary School,925 Nut Swamp Road,,Middletown,37,07748-3198
1743,Nutley High School,300 Franklin Avenue,,Nutley,37,07110-2734
2654,NuView Academy,1 PARK AVENUE,,Piscataway,37,8854
2656,NuView Academy Annex,1690 STELTON ROAD,,Piscataway,37,08854-5917
1908,Oak Knoll Elementary School,23 Bodine Avenue,,Williamstown,37,8094
2885,OAK RIDGE HEIGHTS SCHOOL,720 INMAN AVENUE,,Colonia,37,7067
3663,Oak Street Elem School,75 OAK STREET,,Lakewood,37,8701
4188,Oak Street School,70 W OAK ST,,BASKING RIDGE,37,07920-1735
2675,Oak Tree Elementary School,226 APPLEGARTH ROAD,,MONROE TOWNSHIP,37,8831
1860,Oak Valley Elementary School,525 COLLEGE BLVD,,Wenonah,37,8090
1439,Oak View Elementary,150 Garrabrant Avenue,,Bloomfield,37,7003
87,Oakcrest High School,1824 DR  DENNIS FOREMAN DRIVE,,MAYS LANDING,37,08330-2640
1174,Oaklyn Public School,140 Kendall Boulevard,,Oaklyn,37,8107
1962,Oakview Elementary School,350 DUBOIS AVE,,WEST DEPTFORD,37,8096
1763,OAKWOOD AVENUE ELEMENTARY SCHOOL,135 OAKWOOD AVE,,Orange,37,07050-3909
1257,Ocean Academy,148 CREST HAVEN ROAD,,CAPE MAY COURT HOUSE,37,8210
3746,Ocean Acres Elementary School,489 Nautilus Drive,,Manahawkin,37,8050
3103,Ocean Avenue Elementary School,235 OCEAN AVENUE,,NORTH MIDDLETOWN,37,07748-2798
1289,Ocean City High School,501 Atlantic Avenue,,Ocean City,37,8226
1291,OCEAN City Intermediate School,1901 Bay Avenue,,Ocean City,37,8226
1293,OCEAN CITY PRIMARY SCHOOL,550 WEST AVENUE,,OCEAN CITY,37,8226
3695,Ocean County Vocational Technical School,350 CHAMBERS BRIDGE ROAD,,Brick,37,08723-2896
3699,Ocean County Vocational Technical School,850 TOMS RIVER ROAD,,Jackson,37,08527-9241
3701,Ocean County Vocational Technical School,HANGAR ONE,,Lakehurst,37,8733
3697,Ocean County Vocational Technical School,261 Country Club Blvd.,,Little Egg Harbor,37,8087
3703,Ocean County Vocational Technical School,1299 OLD FREEHOLD ROAD,,TOMS RIVER,37,08753-4298
3705,Ocean County Vocational Technical School,423 WELLS MILLS ROAD,,Waretown,37,08758-8822
3708,Ocean Gate Elementary School,126 WEST ARVERNE AVENUE,,OCEAN GATE,37,08740-0478
3734,Ocean Road Elementary School,BENEDICT STREET,,POINT PLEASANT,37,8742
3228,Ocean Township Elementary School,555 DOW AVENUE,,Oakhurst,37,07755-1199
6546,Ocean Township High School,550 West Park Ave,,Oakhurst,37,7755
1017,Octavio V. Catto Community Family School,3100 WESTFIELD AVE,,Camden,37,8105
3707,OCVTS Performing Arts High School,Joint Base McGuire-Dix-Lakehurst,,Lakehurst,37,8733
4350,Ogdensburg Borough School,100 MAIN STREET,,Ogdensburg,37,7439
2731,Old Bridge High School,4209 ROUTE 516,,Matawan,37,7747
3561,Old Farmers Road School,51 OLD FARMERS ROAD,,LONG VALLEY,37,7853
3250,Old Mill Elementary School,2119 OLD MILL ROAD,,SEA GIRT,37,08750-1199
2324,Old Turnpike School,171 OLD TURNPIKE ROAD,,Califon,37,7830
4082,OLDMANS TOWNSHIP SCHOOL,10 FREED ROAD,,Pedricktown,37,08067-9610
1701,OLIVER STREET SCHOOL,104 OLIVER ST,,Newark,37,07105-1120
4099,OLIVET ELEMENTARY SCHOOL,235 SHEEP PEN ROAD,,Pittsgrove,37,08318-8901
2125,"Ollie Culbreth, Jr. School",153 UNION ST,,JERSEY CITY,37,07304-2317
486,Oradell Public School,350 PROPECT AVENUE,,Oradell,37,7649
4422,Orange Avenue School,901 ORANGE AVENUE,,Cranford,37,07016-2099
1769,Orange Early Childhood Center,397 Park Avenue,,Orange,37,7050
1765,ORANGE HIGH SCHOOL,400 LINCOLN AVE,,Orange,37,07050-2208
1767,ORANGE PREPARATORY ACADEMY,400 CENTRAL AVE,,Orange,37,07050-2420
7482,Oratory Preparatory School,1 Beverly Road,NULL,Summit,37,7901
567,Orchard Elementary School,230 DEMAREST ST,,Ridgewood,37,7451
4248,Orchard Hill Elementary School,244 ORCHARD ROAD,,Skillman,37,8558
1982,Orchard Valley Middle School,238 PITMAN  DOWNER RD,,Sewell,37,08080-2118
1221,Osage School,112 Somerdale Road,,Voorhees,37,08043-9545
3603,Osbornville Elementary School,218 DRUM POINT RD,,Brick,37,08723-6312
7480,Our Lady Of Mercy Academy,1001 Main Road,NULL,Newfield,37,8334
7475,Our Lady of Mount Carmel,175 W White Horse Pike,NULL,Berlin,37,8009
1198,Overbrook Senior High School,1200 TURNERVILLE ROAD,,PINE HILL,37,8021
4775,Oxford Central School,17 Kent Street,,Oxford,37,07863-0510
4735,OXFORD STREET ELEMENTARY SCHOOL,807 OXFORD STREET,,Belvidere,37,7823
3748,Oxycocus Elementary School,250 North Main Street,,Manahawkin,37,08050-3011
2486,P.J. Hill Elementary,1010 EAST STATE STREET,,Trenton,37,08609-1506
4917,PACE CS OF HAMILTON,1949 HAMILTON AVENUE,,HAMILTON TWP,37,8619
4038,PACKANACK ELEMENTARY SCHOOL,190 OAKWOOD DRIVE,,Wayne,37,07470-5652
504,Palisades Park Jr-Sr High School,VETERANS PLAZA,,PALISADES PARK,37,7650
891,Palmyra High School,5TH &amp; WEART BOULEVARD,,Palmyra,37,8065
4062,Paradise Knoll Elementary School,103 PARADISE ROAD,,OAK RIDGE,37,07438-8931
512,Paramus High School,99 EAST CENTURY RD,,Paramus,37,7652
2950,Park Avenue Elementary School,280 Park Ave.,,Freehold,37,07728-2006
1771,PARK AVENUE ELEMENTARY SCHOOL,231 PARK AVE,,Orange,37,07050-4102
1703,PARK ELEMENTARY SCHOOL,120 MANCHESTER PLACE,,Newark,37,7104
3305,Park Lake School,72 ACADEMY STREET,,Rockaway,37,7866
4626,Park Middle School,580 PARK AVENUE,,SCOTCH PLAINS,37,7076
524,Park Ridge High School,2 PARK AVE,,PARK RIDGE,37,07656-1240
2488,Parker Elementary,820 S Warren St,,Trenton,37,8611
2626,PARKER ELEMENTARY SCHOOL,SOUTH LINCOLN AVENUE,,Middlesex,37,8846
1211,Parkivew Elementary School,123 PARKVIEW RD,,Stratford,37,8084
2661,Parkview  School,80 VIOLET TERRACE,,Milltown,37,8850
1994,Parkview Elementary School,101 BIRCH ST,,Westville,37,8093
2359,PARKWAY ELEMENTARY SCHOOL,446 PARKWAY AVENUE,,Ewing,37,08618-2605
869,Parkway Elementary School,142 RAMBLEWOOD PARKWAY,,MOUNT LAUREL,37,8054
514,Parkway Elementary School,145 E Ridgewood Avenue,,Paramus,37,7652
3473,Parsippany High School,309 Baldwin Rd,,Parsippany,37,7054
3475,Parsippany Hills High School,20 Rita Drive,,Morris Plains,37,7950
2711,Parsons,116 HOLLYWOOD STREET,,NORTH BRUNSWICK,37,8902
496,Pascack Hills High School,225 West Grand Avenue,,Montvale,37,7645
498,Pascack Valley High School,200 Piermont Avenue,,Hillsdale,37,7642
4919,Passaic Arts and Science,7 St. Francis Way,,Passaic,37,7055
3899,Passaic County Technical Institute,45 REINHARDT ROAD,,Wayne,37,07470-2210
3895,Passaic County-Manchester Regional High ,70 CHURCH STREET,,Haledon,37,07508-1753
3868,Passaic Gifted and Talented Academy Scho,19 Henry Street,,Passaic,37,7055
3870,Passaic High School # 12,170 Paulison Ave.,,Passaic,37,7055
3897,Passaic Valley Regional High School,170 EAST MAIN STREET,,LITTLE FALLS,37,7424
4920,Paterson Arts &amp; Sci. CS,764 11the Ave,,Paterson,37,7514
4921,PATERSON CS FOR SCI/TECH,276 WABASH AVENUE,,Paterson,37,7503
1505,Patrick F. Healy Middle School,116 HAMILTON ST,,EAST ORANGE,37,07017-2912
259,Patrick M Villano School,175 Linwood Avenue,,Emerson,37,07630-1847
2246,Patrick McGaheran,63  ALLERTON ROAD,,Lebanon,37,8833
2695,Paul Robeson Community School,199 Commercial Ave,,NEW BRUNSWICK,37,08901-2734
4923,Paul Robeson Humanities,643 INDIANA AVE,,Trenton,37,8638
2490,Paul S. Robeson Elementary School,350 Cuyler Avenue,,Trenton,37,8629
4107,Paul W. Carleton Elementary School,251 MAPLE AVENUE,,PENNS GROVE,37,8069
1396,Pauline J. Petway Elementary School,1115 SO  LINCOLN AVE,,Vineland,37,08631-6601
4925,Paulo Freire Charter School,28 Burnet Street,,Newark,37,7102
1932,Paulsboro High School,670 N DELAWARE ST,,Paulsboro,37,8066
1930,PAULSBORO JUNIOR HIGH SCHOOL,670 N Delaware Street,,Paulsboro,37,8066
3892,PCESC Academy at Preakness,1006 Hamburg Turnpike,,Wayne,37,7470
3346,Pearl R. Miller Middle School,117 KIEL AVENUE,,Kinnelon,37,7405
7488,Peddie School,201 Main Street,NULL,Hightstown,37,8520
905,Pemberton Early Childhood Education Cent,100 Arney&amp;#39;s Mt. Road,,Pemberton,37,8068
907,Pemberton Township High School,148 Arney's Mount Road,,Pemberton,37,08068-9701
4086,Penn Beach Elementary School,96 Kansas Road,,Pennsville,37,8070
6343,Penns Grove High School,334 Harding Hwy,,Penns Grove,37,8069
4111,Penns Grove Middle School,351 MAPLE AVENUE,,PENNS GROVE,37,08069-1369
1189,Pennsauken High School,800 Hylton Road,,Pennsauken,37,8110
1191,Pennsauken Intermediate School,8125 Park Avenue,,Pennsauken,37,8110
4090,Pennsville Memorial High School,110 South Broadway,,Pennsville,37,08070-2060
4088,Pennsville Middle School,4 William Penn Avenue,,Pennsville,37,08070-1800
16,PENNSYLVANIA AVE SCHOOL,201 N. Pennsylvania Avenue,,Atlantic City,37,08401-5235
2887,PENNSYLVANIA AVENUE SCHOOL,PENNSYLVANIA AVENUE,,Colonia,37,7067
4927,Peoples Preparatory Charter School,321 Bergen Street,,Newark,37,7103
3485,Pequannock Township High School,85 Sunset Road,,Pompton Plains,37,07444-1652
3487,Pequannock Valley School,493 Newark Pompton Tpke.,,Pompton Plains,37,07444-1923
2349,PERRY L. DREW ELEMENTARY SCHOOL,70 TWIN RIVERS DRIVE NORTH,,EAST WINDSOR,37,8520
2754,Perth Amboy Adult High School,178 Barracks Street,,Perth Amboy,37,8861
2756,Perth Amboy High School,EAGLE AVE  &amp; FRANCIS ST,,PERTH AMBOY,37,8861
1705,PESHINE AVENUE SCHOOL,433 Peshine Avenue,,Newark,37,7112
4014,Peter Cooper School,54 ROGER COURT,,Ringwood,37,7456
733,Peter Muschal Elementary,323 WARD AVE,,Bordentown,37,08505-2326
7497,Philadelphia Girls Choir,1336 Spring Garden Street,NULL,Philadelphia,44,19123
2026,Philip G. Vroom #2,18 WEST 26TH ST,,Bayonne,37,07002-3803
4929,Phillip&amp;#39;s Academy CS,342 Central Avenue,,Newark,37,7103
4784,PHILLIPSBURG EARLY CHILDHOOD LEARNING CE,459 CENTER STREET,,Phillipsburg,37,8865
4786,PHILLIPSBURG HIGH SCHOOL,200 HILLCREST BOULEVARD,,Phillipsburg,37,8865
4788,PHILLIPSBURG MIDDLE SCHOOL,525 WARREN STREET,,Phillipsburg,37,08865-3230
597,Pierrepont School,70 E PIERREPONT AVE,,Rutherford,37,07070-2333
1862,Pine Acres Early Childhood Center,720 PURDUE AVE,,Wenonah,37,8090
3766,Pine Beach Elementary School,101 PENNSYLVANIA AVENUE,,PINE BEACH,37,8741
3127,Pine Brook School,155 PEASE ROAD,,Manalapan,37,07726-3598
4208,Pine Grove Manor School,130 HIGHLAND AVENUE,,Somerset,37,08873-2063
1200,Pine Hill Middle School,1100 TURNERVILLE ROAD,,PINE HILL,37,8021
3714,Pinelands Regional High School,565 Nugentown Road,,Little Egg Harbor,37,08087-0248
3716,PINELANDS REGIONAL JUNIOR HIGH SCHOOL,590 NUGENTOWN ROAD,,LITTLE EGG HARBOR,37,08087-0248
3665,Piner Elementary School,1143 E County Line Road,,Lakewood,37,8701
4040,PINES LAKE ELEMENTARY SCHOOL,511 PINES LAKE DRIVE,,Wayne,37,7470
7487,Pingry School,131 Martingsville Road,NULL,Basking Ridge,37,7924
7025,Piscataway High School,100 Behmer Road,,Piscataway,37,8854
2657,Piscataway Regional Day School,1670 STELTON RD,,Piscataway,37,08854-5917
2776,Piscataway Township High School,100 BEHMER ROAD,,Piscataway,37,8854
1938,Pitman High School,225 Linden Avenue,,Pitman,37,8071
1940,Pitman Middle School,138 East Holly Avenue,,Pitman,37,8071
4101,PITTSGROVE TOWNSHIP MIDDLE SCHOOL,1082 ALMOND ROAD,,Pittsgrove,37,8318
4574,PLAINFIELD ACADEMY FOR THE ARTS &amp; AD,1700 West Front St,,Plainfield,37,7063
4576,Plainfield High School,950 PARK AVENUE,,Plainfield,37,07060-3002
1894,Pleasant Valley School,401 CEDAR RD,,MULLICA HILL,37,08062-9494
1823,PLEASANTDALE ELEMENTARY SCHOOL,555 PLEASANT VALLEY WAY,,W ORANGE,37,07052-2803
126,PLEASANTVILLE HIGH SCHOOL,701 MILL ROAD,,Pleasantville,37,8232
128,Pleasantville Middle School,801 MILL ROAD,,Pleasantville,37,8232
4790,Pohatcong Township School,240 RTE  519,,Phillipsburg,37,8865
3728,Point Pleasant Beach High School,700 Trenton Avenue,,Point Pleasant Beach,37,8742
3736,Point Pleasant Borough High School,LAURA HERBERT DR,,POINT PLEASANT,37,8742
3045,POINT ROAD SCHOOL,357 LITTLE SILVER POINT ROAD,,LITTLE SILVER,37,07739-1799
75,Pomona Preschool,400 S  GENOA AVENUE,,EGG HARBOR,37,8215
4006,Pompton Lakes High School,44 Lakeside Avenue,,Pompton Lakes,37,07442-1793
2456,Pond Road Middle School,150 POND ROAD,,Robbinsville,37,8691
5631,Pope John XX111 Regional High SchoolScho,28 Andover Rd,,Sparta,37,7871
5611,Pope John XXIII Regional High School,28 Andover Road,,Sparta,37,7871
4808,Port Colden School,30 PORT COLDEN ROAD,,Washington,37,07882-9475
3105,Port Monmouth Elementary School,202 MAIN STREET,,PORT MONMOUTH,37,07758-1299
3037,Port Monmouth Road School,142 PORT MONMOUTH ROAD,,Keansburg,37,07734-1998
1334,Port Norris Middle School,6812 Brown Street,,Port Norris,37,8349
2889,PORT READING SCHOOL,TURNER STREET,,PORT READING,37,07064-1326
134,Port Republic Elementary School,137 POMONA AVENUE,,PORT REPUBLIC,37,8241
4931,Pride Academy Charter School,117 ELMWOOD AVE,,EAST ORANGE,37,7018
4656,Primary Center at Jefferson,110 ASHWOOD AVENUE,,Summit,37,7091
4657,Primary Center at Wilson,14 BEEKMAN TERRACE,,Summit,37,07091-1702
4933,PRINCETON CS,100 Bunn Drive,,Princeton,37,08540-2821
5022,Princeton Day School,650 Great Road,,Princeton,37,8540
2452,Princeton High School,151 Moore Street,,Princeton,37,08540-3312
7501,Private 7994,Private Teacher,NULL,Private,37,12345
2533,Private Nicholas Minue Elementary School,83 POST BLVD,,Carteret,37,7008
500,Programs at Park Academy,609 Westwood Avenue,,River Vale,37,7675
4008,Prospect Park School No. 1,94 BROWN AVENUE,,PROSPECT PARK,37,07508-2018
2127,PS # 20,160 DANFORTH AVE,,JERSEY CITY,37,07305-2626
2129,PS # 33,362 UNION ST,,JERSEY CITY,37,07304-1212
2131,PS # 34,1830 KENNEDY BLVD,,JERSEY CITY,37,07305-2123
2216,Public School Number Five,5401 HUDSON AVE,,WEST NEW YORK,37,07093-2617
2218,Public School Number One,6129 MADISON ST,,WEST NEW YORK,37,07093-1512
2220,Public School Number Two,5200 BROADWAY,,WEST NEW YORK,37,07093-2638
1325,Quarter Mile Lane School,300 Quarter Mile Lane,,Bridgeton,37,8302
4960,QUEEN CITY ACADEMY CS,815 WEST SEVENTH STREET,,Plainfield,37,7063
2778,Quibbletown Middle School,99 ACADEMY STREET,,Piscataway,37,8854
4113,Quinton Township School,8 Robinson Street,,Quinton,37,08072-0365
1707,QUITMAN COMMUNITY SCHOOL,21 QUITMAN ST,,Newark,37,07103-4105
1360,R. D. WOOD ELEMENTARY SCHOOL,700 ARCHER ST,,Millville,37,8332
1362,R. M. BACON ELEMENTARY SCHOOL,501 SOUTH THIRD STREET,,Millville,37,8332
292,RADBURN ELEMENTARY SCHOOL,18-00 RADBURN RD,,FAIR LAWN,37,7410
1745,Radcliffe School,379 BLOOMFIELD AVE,,Nutley,37,07110-2252
1910,Radix Elementary School,363 RADIX RD,,Williamstown,37,08094-8602
1019,Rafael Cordero Molina Elementary School,601 Vine Street,,Camden,37,8102
2133,Rafael de J. Cordero School,158 ERIE ST,,JERSEY CITY,37,07302-1718
1709,RAFAEL HERNANDEZ SCHOOL,345 BROADWAY,,Newark,37,7104
4604,Rahway 7th &amp; 8th Grade Academy,KLINE PLACE,,Rahway,37,7065
4606,Rahway High School,1012 MADISON AVE,,Rahway,37,07065-2003
821,Ralph J. Steinhauer Elementary School,25 NORTH FELLOWSHIP ROAD,,MAPLE SHADE,37,8052
628,Ralph S Maugham School,111 MAGNOLIA AVENUE,,Tenafly,37,7670
530,Ramapo High School,331 George Street,,Franklin Lakes,37,7417
440,Ramapo Ridge,150 Ridge Road,,Mahwah,37,7430
5933,Ramsey High School,256 E. Main St,,Ramsey,37,7446
3000,Ramtown Elementary School,216 RAMTOWN -GREENVILLE ROAD,,Howell,37,07731-0216
917,Rancocas Valley Regional High School,520 JACKSONVILLE ROAD,,MOUNT HOLLY,37,08060-9622
4042,RANDALL CARTER ELEMENTARY SCHOOL,531 ALPS ROAD,,Wayne,37,07470-4672
3497,Randolph High School,511 MILLBROOK AVENUE,,Randolph,37,7869
3499,Randolph Middle School,507 MILLBROOK AVENUE,,Randolph,37,7869
2780,Randolphville Elementary School,ONE SUTTIE AVENUE,,Piscataway,37,8854
5321,Ranney School,235 Hope Rd,,Tinton Falls,37,7724
3014,Raritan High School,419 MIDDLE ROAD,,Hazlet,37,07730-2498
3016,Raritan Valley School,37 CRESCI BLVD,,Hazlet,37,07730-1168
3147,Ravine Drive Elementary School,170 RAVINE DRIVE,,Matawan,37,07747-2800
2733,Raymond E. Voorhees Elementary School,11 LIBERTY STREET,,OLD BRIDGE,37,08857-3414
4699,Raymond Lesniak Energy Strength Hope Rec,1000 Morris Avenue,,Union,37,7083
1167,Raymond W. Kershaw School,125 SOUTH BLACK HORSE PIKE,,MOUNT EPHRAIM,37,08059-1803
2895,Reaching Individual Student Excellence,77 Turner Street,,Port Reading,37,7064
2268,Reading-Fleming Intermediate School,50 COURT STREET,,Flemington,37,08822-1325
2310,Readington Middle School,48 READINGTON RD,,WHITEHOUSE STATION,37,8889
1964,Red Bank Elementary School,192 PHILADELPHIA AVE,,WEST DEPTFORD,37,08086-9703
3202,Red Bank Middle School,101 HARDING ROAD,,RED BANK,37,07701-2008
3204,Red Bank Primary School,222 RIVER STREET,,RED  BANK,37,07701-1397
3206,Red Bank Regional High School,101 RIDGE ROAD,,LITTLE SILVER,37,07739-1698
1825,REDWOOD ELEMENTARY SCHOOL,75 REDWOOD AVE,,W ORANGE,37,07052-3623
77,Reeds Road Elementary School,103 SOUTH REEDS ROAD,,Galloway,37,8205
3176,Regional Alternative School,100 TORNILLO WAY,,TINTON FALLS,37,7712
2442,Regional Day School,1070 Old Trenton Road,,Hamilton,37,08690-1230
2135,Regional Day School,425 JOHNSTON AVENUE,,JERSEY CITY,37,7304
3307,Regional Day School,7 Jean Street,,Morristown,37,7960
1607,Renaissance Middle School at the Rand Bu,176 North Fullerton Avenue,,Montclair,37,7042
7477,Resurrection Catholic School,402 Kings Hwy N,NULL,Cherry Hill,37,8034
7507,Retired ,Proxy,Proxy,Proxy,37,99999
7493,Retired School,Saturday Drive,NULL,Happy Valley,37,12345
3922,"REV DR FRANK NAPIER, JR SCHOOL",55 CLINTON STREET,,Paterson,37,07522-1729
2137,Rev. Dr. Ercel F. Webb School,264 VAN HORNE STREET,,JERSEY CITY,37,7304
3276,Richard Butler School,30 PEARL PLACE,,Butler,37,7405
2397,RICHARD C CROCKETT MIDDLE SCHOOL,2631 KUSER ROAD,,Hamilton,37,8691
352,RICHARD E BYRD,640 DOREMUS AVE,,GLEN ROCK,37,07452-2033
784,Richard L Rice School,50 CROWN ROYAL PARKWAY,,Marlton,37,8053
1269,Richard M. Teitelman Middle School,687 RT 9,,CAPE MAY,37,08204-4637
1064,Richard Stockton Elementary School,200 WEXFORD DR,,CHERRY HILL,37,08003-1827
18,Richmond Avenue School,4115 Ventnor Avenue,,Atlantic City,37,08401-5860
4939,RIDGE AND VALLEY CS,1234 STATE ROUTE 94,,Blairstown,37,7825
569,Ridge Elementary School,325 WEST RIDGEWOOD AVE,,Ridgewood,37,07450-3624
4190,Ridge High School,268 SO  FINLEY AVE,,BASKING RIDGE,37,7920
516,Ridge Ranch Elementary School,345 LOCKWOOD DRIVE,,Paramus,37,7652
1711,RIDGE STREET SCHOOL,735 RIDGE ST,,Newark,37,07104-2323
3313,RIDGEDALE MIDDLE SCHOOL,71 RIDGEDALE AVENUE,,FLORHAM PARK,37,7932
553,Ridgefield Memorial High School,555 WALNUT ST,,Ridgefield,37,7657
546,Ridgefield Park Jr Sr High School,1 OZZIE NELSON DRIVE,,RIDGEFIELD PARK,37,7660
3689,Ridgeway Elementary School,2861 RIDGEWAY RD,,Manchester,37,8759
1531,Ridgewood Avenue School,235 RIDGEWOOD AVE,,GLEN RIDGE,37,07028-1019
571,Ridgewood High School,627 East Ridgewood Avenue,,Ridgewood,37,7451
1364,RIECK AVENUE ELEMENTARY SCHOOL,339 RIECK AVENUE,,Millville,37,8332
1573,Riker Hill Elementary School,31 BLACKSTONE DR,,Livingston,37,07039-1801
1020,Riletta Twyne Cream Family School,1875 Mulford Street,,Camden,37,8104
579,River Dell Middle School,230 WOODLAND AVENUE,,River Edge,37,7661
581,River Dell Regional High School,55 PYLE STREET,,Oradell,37,7649
3107,River Plaza Elementary School,155 HUBBARD AVENUE,,RED BANK,37,07701-5599
4941,RIVERBANK CHARTER SCHOOL,1300 Hornberger Ave,,Roebling,37,8554
3503,Riverdale School,52 NEWARK POMPTON TURNPIKE,,Riverdale,37,7457
911,RIVERSIDE ELEMENTARY SCHOOL,112 E WASHINGTON STREET,,Riverside,37,8075
913,Riverside High School,112 E Washington Street,,Riverside,37,8075
915,RIVERSIDE MIDDLE SCHOOL,112 E WASHINGTON STREET,,Riverside,37,8075
2454,Riverside School,58 RIVERSIDE DRIVE,,Princeton,37,08540-5425
918,Riverton School,600 FIFTH STREET,,Riverton,37,8077
3286,Riverview Elementary School,33 ST  MARYS PLACE,,Denville,37,7834
2492,Robbins Elementary School,283 TYLER STREET,,Trenton,37,8609
2458,Robbinsville High School,155 ROBBINSVILLE EDINBURG RD,,Robbinsville,37,8691
589,Roberge Elementary School,617 WESTWOOD AVE,,RIVER VALE,37,07675-6241
786,Robert B Jaggard School,2 WESTCOTT ROAD,,Marlton,37,8053
3675,Robert C. Wood Sr Early Childhood Center,950 Route 539,,Little Egg Harbor,37,8087
654,Robert D Reynolds Primary School,391 W  SADDLE RIVER RD,,UPPER SADDLE RIVER,37,7458
4016,Robert Erskine School,88 ERSKINE ROAD,,Ringwood,37,07456-2150
2169,Robert Fulton Elementary School,7407 HUDSON AVE,,NORTH BERGEN,37,07047-5607
4612,Robert Gordon Elementary School,59 WEST GRANT AVENUE,,ROSELLE PARK,37,7204
2270,Robert Hunter Elementary School,8 DAYTON ROAD,,Flemington,37,08822-9104
452,Robert L. Craig School,20 WEST PARK STREET,,Moonachie,37,07074-1115
3571,Robert L. Horbelt Elementary School,104 BURR STREET,,Barnegat,37,8005
2891,ROBERT MASCENICK ELEMENTARY SCHOOL,300 BENJAMIN AVENUE,,Iselin,37,8830
2222,Robert Menendez Elementary School,600 55TH ST,,WEST NEW YORK,37,07093-4626
4284,Robert Morris School,122 ELIZABETH STREET,,S BOUND BROOK,37,8880
4478,Robert Morris School No. 18,860 CROSS AVE,,Elizabeth,37,07208-3547
2758,Robert N. Wilentz Elementary School,51 FIRST STREET,,PERTH AMBOY,37,8861
3410,Robert R Lazar Middle School,123 CHANGEBRIDGE ROAD,,Montville,37,07045-9560
4943,ROBERT TREAT ACADEMY CS,443 CLIFTON AVENUE,,Newark,37,07104-1339
2192,Robert Waters Elementary School,2800 SUMMIT AVE,,UNION CITY,37,07087-2323
3924,ROBERTO CLEMENTE,434 ROSA PARKS BLVD,,Paterson,37,7501
1713,ROBERTO CLEMENTE ELEMENTARY SCHOOL,257 SUMMER AVE,,Newark,37,07104-2717
3077,Robertsville Elementary School,36 MENZEL LANE,,Morganville,37,07751-1299
2399,ROBINSON ELEMENTARY SCHOOL,495 GROPP AVENUE,,Hamilton,37,08610-2020
3477,Rockaway Meadow Elementary School,160 EDWARDS ROAD,,Parsippany,37,07054-2205
3270,Rockaway Valley School,11 VALLEY ROAD,,BOONTON TOWNSHIP,37,7005
7503,RockNRollChorus,None,NULL,None,38,1
792,Roebling Elementary School,1330 HORNBERGER AVE,,Roebling,37,8554
79,Roland Rogers Elementary School,105 S  REEDS ROAD,,Galloway,37,8205
4382,Rolling Hills Primary School,60 SAMMIS ROAD,,Vernon,37,07462-0769
3750,Ronald L. Meinders Primary Learning Cent,1000 McKinley Avenue,,Manahawkin,37,8050
4480,Ronald Reagan Academy School No. 30,730 PENNSYLVANIA AVE,,Elizabeth,37,7208
2151,Roosevelt,733 KEARNY AVE,,Kearny,37,07032-3005
548,Roosevelt  Elementary School,508 TEANECK ROAD,,RIDGEFIELD PARK,37,7660
3838,Roosevelt Elementary School,50 ROOSEVELT AVENUE,,Hawthorne,37,7506
2697,Roosevelt Elementary School,83 LIVINGSTON AVE,,NEW BRUNSWICK,37,08901-2522
470,Roosevelt Elementary School,50 Webster Street,,North Arlington,37,7031
1193,ROOSEVELT ELEMENTARY SCHOOL,5526 WISTERIA AVE,,Pennsauken,37,08109-1242
4608,Roosevelt Elementary School,811 ST GEORGE AVE,,Rahway,37,07065-2626
2830,Roosevelt Elementary School,135 JACKSON AVENUE,,SOUTH PLAINFIELD,37,7080
4713,ROOSEVELT INTERMEDIATE SCHOOL,301 CLARK ST,,Westfield,37,07090-4009
1827,ROOSEVELT MIDDLE SCHOOL,36 GILBERT PL,,W ORANGE,37,07052-3948
3199,Roosevelt Public School,SCHOOL LANE,,Roosevelt,37,08555-0160
402,Roosevelt School,435 PASSAIC AVENUE,,Lodi,37,7644
422,Roosevelt School,530 STUYVESANT AVE,,Lyndhurst,37,07071-2628
4238,Roosevelt School,410 BROOKS BLVD,,Manville,37,8835
585,Roosevelt School,711 SUMMIT AVE,,RIVER EDGE,37,07661-2201
337,ROOSEVELT SCHOOL #7,225 LINCOLN PL,,Garfield,37,7026
2832,Roosevelt/Administration,125 JACKSON STREET,,SOUTH PLAINFIELD,37,7080
1066,Rosa International Middle School,485 BROWNING LANE,,CHERRY HILL,37,08003-3160
3926,Rosa L. Parks School of Fine and Perform,413 12TH AVENUE,,Paterson,37,7514
1773,ROSA PARKS/CENTRAL COMMUNITY SCHOOL,369 MAIN STREET,,Orange,37,7050
4614,Roselle Park High School,185 W WEBSTER AVE,,ROSELLE PARK,37,07204-1617
4616,Roselle Park Middle School,57 W GRANT AVE,,ROSELLE PARK,37,07204-2217
4594,ROSELLE PRESCHOOL,1305 St Georges Avenue,,Roselle,37,7203
4935,Roseville Community CS,540 ORANGE STREET,,Newark,37,7107
2893,ROSS STREET ELEMENTARY SCHOOL,ROSS STREET,,Woodbridge,37,7095
2248,Round Valley,128  COKESBURY RD,,Lebanon,37,08833-9599
7516,Rowan College of South Jersey,1400 Tanyard Road,NULL,Sewell,37,8080
7472,Rowan University,201 Mullica Hill Rd,NULL,Glassboro,37,8028
3533,Roxbury High School,ONE BRYANT DRIVE,,Succasunna,37,07876-1640
187,Roy W. Brown Middle School,130 S WASHINGTON AVE,,Bergenfield,37,07621-2902
3200,RUMSON-FAIR HAVEN REGIONAL HIGH SCHOOL,74 RIDGE ROAD,,Rumson,37,07760-1896
3573,Russell O. Brackman Middle School,600 BARNEGAT BLVD  NORTH,,Barnegat,37,8005
7483,Rutgers Children's Choir Scarlet Singers,Mason Gross School of the Arts,NULL,New Brunswick,37,8901
5319,Rutgers Preparatory School,1345 Easton Ave,,Somerset,37,8873
599,Rutherford High School,56 ELLIOTT PL,,Rutherford,37,07070-1965
4044,RYERSON ELEMENTARY SCHOOL,30 MC CLELLAND AVENUE,,Wayne,37,07470-7411
609,Saddle Brook Middle/High School,355 MAYHILL STREET,,SADDLE BROOK,37,7663
7508,Saddle River Day School,147 Chestnut Ridge Road,NULL,Saddle River,37,7458
7481,Saint Joseph High School,328 Vine Street,NULL,Hammonton,37,8037
7506,Saint Mary of the Lakes School,196 NJ-70,NULL,Medford,37,8088
7478,Saint Mary School,735 Union Road,NULL,Vineland,37,8360
7519,Saint Rose High School,607 7th Avenue,NULL,Belmar,37,7719
4127,Salem Campus,45 Cheney Road,,Woodstown,37,08098-9451
4129,Salem County Career and Technical High S,880 Route 45,,Woodstown,37,08098-0350
7494,Salem County Christian Academy,104 Sparks Avenue,NULL,Pennsville,37,8070
3325,Salem Drive School,29 SALEM DRIVE,,Whippany,37,7981
4117,Salem High School,219 Walnut Street,,Salem,37,08079-9048
4119,Salem Middle School,51 New Market Street,,Salem,37,08079-9048
611,SALOME H. LONG MEMORIAL SCHOOL,260 FLORAL LANE,,SADDLE BROOK,37,7663
4550,Salt Brook School,40 MAPLE ST,,NEW PROVIDENCE,37,07974-2403
2048,Salvatore R. Calabro,524 Park Avenue,,Hoboken,37,07030-3906
4210,Sampson G. Smith School,1649 AMWELL ROAD,,Somerset,37,8873
2790,Samsel Upper Elementary School,298 ERNSTON ROAD,,Parlin,37,8859
2760,Samuel E. Shull Middle School,380 HALL AVENUE,,PERTH AMBOY,37,08861-3205
769,Samuel M Ridgway Middle School,300 DELANCO RD,,EDGEWATER PARK,37,8010
1868,Samuel Mickle School,559 KINGS HIGHWAY,,Mickleton,37,8056
3794,Samuel R. Donald Elementary School,29 CAPTOLENE AVENUE,,Bloomingdale,37,7403
1213,Samuel S. Yellin Elementary School,111 WARWICK ROAD,,Stratford,37,8084
740,Samuel Smith Elementary School,250 FARNER AVENUE,,Burlington,37,8016
909,Samuel T. Busansky School,16 SCRAPETOWN ROAD,,Pemberton,37,8068
1277,Sandman Consolidated School,838 SEASHORE RD,,CAPE MAY,37,08204-4650
3440,Sandshore Rd. Elementary School,498 SANDSHORE  ROAD,,BUDD LAKE,37,7828
4364,Sandyston Walpack Consolidated School,100 ROUTE 560,,Layton,37,7851
2401,SAYEN ELEMENTARY SCHOOL,3333 NOTTINGHAM WAY,,Hamilton,37,08690-2603
2792,Sayreville Middle School,800 WASHINGTON ROAD,,Parlin,37,08859-1050
2794,Sayreville War Memorial High School,820 WASHINGTON ROAD,,Parlin,37,08859-1050
3872,School # 16,657 Main Av.,,Passaic,37,7055
3874,School # 17,95-99 Dayton Ave.,,Passaic,37,7055
3876,School # 2,48 Bergen St.,,Passaic,37,7055
3878,School # 5,168 Monroe St.,,Passaic,37,7055
3802,School #1,158 PARK SLOPE,,Clifton,37,7011
3804,School #11,147 MERSELIS AVENUE,,Clifton,37,7011
3806,School #12,165 CLIFTON AVENUE,,Clifton,37,7011
3808,School #13,782 VAN HOUTEN AVENUE,,Clifton,37,7013
3810,School #14,99 ST  ANDREWS BOULEVARD,,Clifton,37,7012
3812,School #15,700 GREGORY AVENUE,,Clifton,37,7011
3814,School #16,755 GROVE STREET,,Clifton,37,7013
3816,School #17,361 LEXINGTON AVENUE,,Clifton,37,7011
3818,School #2,1270 VAN HOUTEN AVENUE,,Clifton,37,7013
201,School #3,397 PALISADE AVENUE,,CLIFFSIDE PARK,37,7010
3820,School #3,365 WASHINGTON AVENUE,,Clifton,37,7011
203,School #4,279 COLUMBIA AVENUE,,CLIFFSIDE PARK,37,7010
3822,School #4,194 WEST SECOND STREET,,Clifton,37,7011
205,School #5,214 DAY AVE,,CLIFFSIDE PARK,37,7010
3824,School #5,136 VALLEY ROAD,,Clifton,37,7013
207,School #6,440 OAKDENE AVE,,CLIFFSIDE PARK,37,7010
3826,School #8,41 OAK STREET,,Clifton,37,7014
3828,School #9,25 BRIGHTON ROAD,,Clifton,37,7012
3928,SCHOOL 1,1 EAST 32ND STREET,,Paterson,37,7514
3930,SCHOOL 10,48 MERCER STREET,,Paterson,37,07524-2429
3932,SCHOOL 11 (Newcomers),350 MARKET STREET,,Paterson,37,07501-2245
3934,SCHOOL 12,121 NORTH SECOND STREET,,Paterson,37,7522
3936,SCHOOL 13,690 EAST 23RD ST,,Paterson,37,7504
3938,SCHOOL 14,522 UNION AVENUE,,Paterson,37,7522
3940,SCHOOL 15,98 OAK STREET,,Paterson,37,7501
3942,SCHOOL 18,51 E  18TH STREET,,Paterson,37,7524
3944,SCHOOL 19,31 JAMES STREET,,Paterson,37,7502
3946,SCHOOL 2,22 PASSAIC STREET,,Paterson,37,7501
3948,SCHOOL 20,500 EAST 37TH STREET,,Paterson,37,07504-1739
3950,SCHOOL 21,322 TENTH AVENUE,,Paterson,37,7514
3952,SCHOOL 24,50 NINETEENTH AVENUE,,Paterson,37,7513
3954,SCHOOL 25,287 TRENTON AVENUE,,Paterson,37,7503
3956,SCHOOL 26,1 EAST 32ND STREET,,Paterson,37,7514
3958,SCHOOL 27,250 RICHMOND AVE,,Paterson,37,7502
3960,SCHOOL 28,200 PRESIDENTIAL BOULEVARD,,Paterson,37,7522
3962,SCHOOL 29,88 DANFORTH AVENUE,,Paterson,37,7501
3964,SCHOOL 3,448 MAIN STREET,,Paterson,37,07501-2818
3966,SCHOOL 5,430 TOTOWA AVENUE,,Paterson,37,07502-2135
3968,SCHOOL 6/ACADEMY OF PERFORMING ARTS,137 CARROLL STREET,,Paterson,37,7501
3970,SCHOOL 7,106 RAMSEY STREET,,Paterson,37,7501
3972,SCHOOL 8,35 CHADWICK STREET,,Paterson,37,07503-3107
6056,School Name,,,,37,Zip C
310,School No. 1,250 HOYM STREET,,FORT LEE,37,7024
312,School No. 2,2047 JONES ROAD,,FORT LEE,37,7024
314,School No. 3,2405 SECOND STREET,,FORT LEE,37,7024
316,School No. 4,1193 ANDERSON AVE,,FORT LEE,37,07024-1761
3974,SCHOOL OF ARCHITECTURE AND CONSTRUCTION ,61-127 PREAKNESS AVENUE,,Paterson,37,7502
3976,SCHOOL OF BUISINESS TECHNOLOGY,61-127 PREAKNESS AVENUE,,Paterson,37,7502
3978,"SCHOOL OF CULINARY ARTS, HOSPITALITY AND",150 PARK AVENUE,,Paterson,37,7501
3980,SCHOOL OF EARTH AND SPACE SCIENCE,201 MEMORIAL DRIVE,,Paterson,37,7505
3982,SCHOOL OF EDUCATION AND TRAINING,61-127 PREAKNESS AVENUE,,Paterson,37,7502
3984,SCHOOL OF GOVERNMENT &amp; PUBLIC ADMINI,150 PARK AVENUE,,Paterson,37,7501
3994,School of Health Science,5-7 Colt St,,Paterson,37,7505
3986,SCHOOL OF INFORMATION TECHNOLOGY,150 PARK AVENUE,,Paterson,37,7501
3988,"SCHOOL OF SCIENCE, TECHNOLOGY, ENGINEERI",61-127 PREAKNESS AVENUE,,Paterson,37,7502
4628,School One,563 WILLOW AVENUE,,SCOTCH PLAINS,37,7076
3268,School Street School,720 BIRCH STREET,,Boonton,37,7005
2153,Schuyler Elementary School,644 FOREST ST,,Kearny,37,07032-3798
4046,SCHUYLER-COLFAX MIDDLE SCHOOL,1500 HAMBURG TURNPIKE,,Wayne,37,07470-4024
1715,SCIENCE PARK HIGH SCHOOL,260 NORFOLK STREET,,Newark,37,7102
4630,Scotch Plains-Fanwood High School,667 WESTFIELD ROAD,,SCOTCH PLAINS,37,7076
3218,Sea Girt Elementary School,451 Bell Place,,Sea Girt,37,08750-2599
105,Seaview Elementary School,2013 WABASH AVE,,Linwood,37,8221
2175,Secaucus High School,11 Mill Ridge Road,,Secaucus,37,7094
2177,Secaucus Middle School,11 Mill Ridge Road,,Secaucus,37,7094
235,Selzer ElementaryMiddle School,435 PROSPECT AVE,,Dumont,37,07628-1417
799,Seneca High School,110 CARRANZA ROAD,,Tabernacle,37,8088
1787,Seth Boyden Elementary Demonstration Sch,274 BOYDEN AVE,,Maplewood,37,07040-3010
1128,SEVENTH AVE,316 Seventh Avenue,,HADDON HEIGHTS,37,8035
1922,Sewell Elementary School,40 MCANALLY DR,,Sewell,37,8080
1864,Shady Lane Elementary School,130 PEACH STREET,,Westville,37,08093-9718
555,Shaler Academy,455 SHALER BOULEVARD,,Ridgefield,37,7657
3191,Shark River Hills Elementary School,312 BRIGHTON AVENUE,,Neptune,37,07753-5599
2460,Sharon School,234 SHARON ROAD,,Robbinsville,37,08691-9741
801,Shawnee High School,600 Tabernacle Road,,Medford,37,08055-9701
4618,Sherman Elementary School,375 E GRANT AVE,,ROSELLE PARK,37,7204
3501,Shongum School,9 ARROW PLACE,,Randolph,37,7869
3212,SHORE REGIONAL HIGH SCHOOL,132 MONMOUTH PARK HIGHWAY 36,,WEST LONG BRANCH,37,07764-1396
3214,Shrewsbury Borough Elementary School,20 OBRE PLACE,,Shrewsbury,37,07702-4124
699,Sicomac Elementary School,356 SICOMAC AVE,,Wyckoff,37,07481-2129
1223,Signal Hill School,33 Signal Hill Drive,,Voorhees,37,08043-9545
3768,Silver Bay Elementary School,100 SILVER BAY ROAD,,TOMS RIVER,37,8753
1366,Silver Run Elementary School,301 SILVER RUN ROAD,,Millville,37,8332
3996,Single Gender Academy,45 SMITH STREET,,Paterson,37,7503
253,Sixteenth Avenue School,73 SIXTEENTH AVENUE,,ELMWOOD PARK,37,07407-2925
7518,SJCDA Proxy School,1 Main Street,NULL,Anytown,37,8080
3893,Skylands School fot the Exceptional,c/o Walter T Bergen School,,Bloomingdale,37,7403
2435,Slackwood Elementary School,2060 PRINCETON PIKE,,Lawrenceville,37,08648-4324
557,Slocum Skewes School,650 PROSPECT AVE,,Ridgefield,37,7657
4150,Smalley Elementary School,CHERRY AVE,,BOUND BROOK,37,8805
81,Smithville Elementary School,37 S  OLD PORT REPUBLIC ROAD,,Galloway,37,8205
4945,SOARING HEIGHTS CS,1 ROMAR AVENUE,,JERSEY CITY,37,7305
1507,Sojourner Truth Middle School,116 HAMILTON ST,,EAST ORANGE,37,07017-2912
1398,Solve D&amp;#39;Ippolito Elementary Scho,1578 NORTH VALLEY AVE,,Vineland,37,08360-2431
1207,Somerdale Park School,301 GRACE STREET,,Somerdale,37,8083
4264,SOMERSET COUNTY VOCATIONAL TECHNICAL HIG,14 VOGT DRIVE,,Bridgewater,37,08807-0350
4272,Somerset Elementary Academy,7 FINDERNE AVE,,Bridgewater,37,8807
4258,Somerset School,303 SOMERSET STREET,,N PLAINFIELD,37,7060
4274,Somerset Secondary Academy,7 FINDERNE AVE,,Bridgewater,37,8807
573,Somerville Elementary School,45 SOUTH PLEASANT AVE,,Ridgewood,37,7451
4266,Somerville High School,222 Davenport Street,,Somerville,37,08876-1515
4268,Somerville Middle School,51 WEST CLIFF STREET,,Somerville,37,08876-1903
2798,South Amboy Elementary,249 JOHN STREET,,SOUTH AMBOY,37,08879-1741
2800,South Amboy Middle/High School,200 GOVERNOR HAROLD G  HOFFMAN,,SOUTH AMBOY,37,8879
2820,South Brunswick High School,750 RIDGE ROAD,,MONMOUTH JUNCTION,37,08852-9721
1463,SOUTH END ELEMENTARY SCHOOL,116 HARPER TERR,,CEDAR GROVE,37,7009
1944,SOUTH HARRISON TOWNSHIP ELEMENTARY SCHOO,904 MULLICA HILL RD,,Harrisonville,37,08039-0112
2318,South Hunterdon Regional High School ,301 Mt Airy Harbourton Rd,,Lambertville,37,8530
130,SOUTH MAIN STREET ELEMENTARY SCHOOL,701 SOUTH MAIN STREET,,Pleasantville,37,08232-3223
1789,South Mountain Elementary/Annex,444  WEST SOUTH ORANGE AVE,,S ORANGE,37,07079-1234
1585,South Mountain School,2 SOUTHERN SLOPE DRIVE,,Millburn,37,7041
1791,South Orange Middle School,70 North Ridgewood Road,,S ORANGE,37,07079-1518
2833,South Plainfield High School,200 LAKE STREET,,SOUTH PLAINFIELD,37,7080
2835,South Plainfield Middle School,2201 PLAINFIELD AVENUE,,SOUTH PLAINFIELD,37,7080
2837,South River Elementary School,81 JOHNSON PLACE,,SOUTH RIVER,37,8882
2839,South River High School,11 MONTGOMERY STREET,,SOUTH RIVER,37,8882
2841,South River Middle School,3 MONTGOMERY STREET,,SOUTH RIVER,37,8882
2843,South River Primary School,22 DAVID STREET,,SOUTH RIVER,37,8882
1717,SOUTH SEVENTEENTH STREET SCHOOL,619 S SEVENTEENTH ST,,Newark,37,07103-1159
1719,SOUTH STREET ELEMENTARY SCHOOL,151 SOUTH ST,,Newark,37,07114-2611
3770,South Toms River Elementary School,419 DOVER ROAD,,SOUTH TOMS RIVER,37,8757
849,South Valley Elementary School,210 S  STANWICK RD,,Moorestown,37,8057
924,Southampton Township School #1,26 PLEASANT STREET,,Southampton,37,08088-3310
926,Southampton Township School #2,100 MISS MABEL DRIVE,,Southampton,37,08088-3351
927,Southampton Township School #3,100 WARRIOR WAY,,Southampton,37,08088-3349
3543,Southern Boulevard School,192 SOUTHERN BOULEVARD,,Chatham,37,07928-1324
3740,Southern Regional High School,90 CEDAR BRIDGE ROAD,,Manahawkin,37,08050-3022
3742,Southern Regional Middle School,75 CEDAR BRIDGE ROAD,,Manahawkin,37,08050-3056
2735,Southwood Elementary School,64 SOUTHWOOD DR,,OLD BRIDGE,37,08857-1453
20,Sovereign Avenue School,3205 Arctic Avenue,,Atlantic City,37,08401-3711
4355,SPARTA ALPINE SCHOOL,151 ANDOVER ROAD,,Sparta,37,7871
4357,Sparta High School,70 West Mountain Road,,Sparta,37,7871
4359,SPARTA MIDDLE SCHOOL,350 MAIN STREET,,Sparta,37,7871
1721,SPEEDWAY AVENUE SCHOOL,701 SOUTH ORANGE AVENUE,,Newark,37,07106-2209
2849,Spotswood High School,105 SUMMERHILL ROAD,,Spotswood,37,8884
2851,Spotswood Memorial Middle School,115 SUMMERHILL ROAD,,Spotswood,37,8884
1747,Spring Garden School,59 S SPRING GARDEN AVE,,Nutley,37,07110-1527
3216,Spring Lake Heights Elementary School,1110 HIGHWAY  No 71,,SPRING LAKE HEIGHTS,37,07762-2009
929,Springfield Township Elementary School,2146 JACKSONVILLE ROAD,,Jobstown,37,08041-9629
871,Springville Elementary School,520 HARTFORD ROAD,,MT  LAUREL,37,8054
2250,Spruce Run,27 BELVIDERE AVENUE,,Clinton,37,8809
3667,Spruce Street Elementary School,90 SPRUCE STREET,,Lakewood,37,8701
5322,St. Augustine Preparatory School,611 Cedar Ave,,Richland,37,8350
1829,ST. CLOUD ELEMENTARY SCHOOL,71 SHERIDAN AVE,,W ORANGE,37,07052-2635
6156,St. Peter's Preparatory School,144 Grand Street,,Jersey City,37,7302
3752,Stafford Intermediate School,1000 McKinley Avenue,,Manahawkin,37,8050
3990,STARS ACADEMY,765 14TH AVENUE,,Paterson,37,7504
7423,STEINERT HIGH SCHOOL,2900 KLOCKNER ROAD,,Hamilton,37,8690
3489,Stephen J. Gerace School,59 Boulevard,,Pequannock,37,07440-1531
1209,Sterling High School,501 South Warwick Road,,Somerdale,37,08083-2175
4752,Stewartsville Middle School,642 SOUTH MAIN STREET,,Stewartsville,37,08886-9756
4361,Stillwater Township School,904 STILLWATER ROAD,,Stillwater,37,7875
2320,STOCKTON BOROUGH SCHOOL,19 South Main St.,,Stockton,37,8559
2494,Stokes Early Childhood Center,915 PARKSIDE AVENUE,,Trenton,37,8618
1295,Stone Harbor Elementary School,275 93RD ST,,STONE HARBOR,37,8247
3242,Stonebridge Middle School,1252 Yardville-Allentown Road,,Allentown,37,8501
2417,Stony Brook Elementary School,20 STEPHENSON ROAD,,Pennington,37,8534
3519,Stony Brook Elementary School,44 STONY BROOK ROAD,,Rockaway,37,7866
4154,Stony Brook School,136 CEDAR GROVE RD,,Branchburg,37,8876
4260,Stony Brook School,269 GROVE ST,,N PLAINFIELD,37,07060-4005
518,Stony Lane Elementary School,W 110 RIDGEWOOD AVE,,Paramus,37,07652-4131
3348,Stonybrook Elementary School,118 BOONTON AVENUE,,Kinnelon,37,7405
1368,Stow Creek School,11 GUM TREE CORNER ROAD,,Bridgeton,37,8302
1132,Stoy Elementary School,206 BRIARWOOD AVENUE,,Haddonfield,37,8033
3149,Strathmore Elementary School,282 CHURCH STREET,,Aberdeen,37,07747-1599
1134,Strawbridge Elementary School,307 STRAWBRIDGE AVENUE,,Westmont,37,8108
3992,STRIVE Alternative Middle School,13 Waganaw Blvd,,Prospect Park,37,7508
7517,Stuart Country Day School of the Sacred Heart,1200 Stuart Road,NULL,Princeton,37,8540
3193,Summerfiled Elementary School,1 Summerfield La,,Neptune,37,07753-3598
4659,Summit High School,125 Kent Place Boulevard,,Summit,37,7901
2403,SUNNYBRAE ELEMENTARY SCHOOL,166 ELTON AVENUE,,Hamilton,37,08620-1622
4226,Sunnymead Elementary School,55 SUNNYMEAD RD,,Hillsborough,37,8844
3382,SUSSEX AVENUE SCHOOL,125 SUSSEX AVENUE,,Morristown,37,7960
1723,SUSSEX AVENUE SCHOOL Burnet Street  Scho,307 SUSSEX AVE,,Newark,37,07107-3133
4368,Sussex County Technical School,105 North Church Road,,Sparta,37,7871
4947,Sussex County Technology,385 N. Church Rd.,,Sparta,37,7871
4372,SUSSEX MIDDLE SCHOOL,10 LOOMIS AVENUE,,Sussex,37,7461
3224,Swimming River School,220 HANCE AVENUE,,TINTON FALLS,37,07724-2729
3635,Switlik Elementary School,75 WEST VETERANS HIGHWAY,,Jackson,37,08527-3497
3018,Sycamore Drive Early Childhood Learning ,37 SYCAMORE DRIVE,,Hazlet,37,07730-1899
3637,Sylvia Rosenauer Elementary School,60 CITADEL DRIVE,,Jackson,37,08527-3497
484,T. Baldwin Demarest Elementary School,1 SCHOOL ST,,OLD TAPPAN,37,7675
933,Tabernacle Elementary School,141 NEW ROAD,,Tabernacle,37,8088
4715,TAMAQUES ELEMENTARY SCHOOL,641 WILLOW GROVE RD,,Westfield,37,07090-3519
3002,Taunton Elementary School,41 TAUNTON DRIVE,,Howell,37,07731-2147
839,Taunton Forge Elementary School,32 EVERGREEN TRAIL,,Medford,37,8055
3129,Taylor Mills School,77 GORDONS CORNER ROAD,,Manalapan,37,07726-1599
4794,Taylor Street Elementary School,16  24 TAYLOR STREET,,Washington,37,07882-1494
4949,TEAM Academy Charter School,60 Park Place,,Newark,37,7102
4950,TEANECK COMMUNITY CS,563 CHESTNUT AVENUE,,Teaneck,37,7666
644,Teaneck High School,100 Elizabeth Street,,Teaneck,37,7666
1727,Technology High School,223 BROADWAY,,Newark,37,7102
630,Tenafly High School,19 Columbus Drive,,Tenafly,37,7670
632,Tenafly Middle School,10 Sunset Lane,,Tenafly,37,7670
211,TENAKILL MIDDLE SCHOOL,275 HIGH STREET,,Closter,37,07624-1809
4482,Terence C. Reilly School # 7,436 First Avenue,,Elizabeth,37,7206
4632,Terrill Middle School,1301 TERRILL ROAD,,SCOTCH PLAINS,37,07076-2597
5618,Test01 School,Test01 Address,,Bernardsville,37,7924
5620,Test02 School,Test02 Address,,Bernardsville,37,7924
2326,Tewksbury Elementary School,109 FAIRMOUNT ROAD EAST,,Califon,37,7830
22,Texas Avenue School,2523 Arctic Avenue,,Atlantic City,37,08401-3901
4952,The Barack Obama Green Charter High Scho,35 Watchung ave,,Plainfield,37,7060
4276,The Career Center of the SCESC,7 Finderne Avenue,,Bridgewater,37,8807
1441,The Early Childhood Center @ Forest Glen,280 Davey Street,,Bloomfield,37,7003
4954,The Ethical Community Ch,95 Broadway,,JERSEY CITY,37,7306
7476,The King's Christian School,5 Carnegie Plaza,NULL,Cherry Hill,37,8003
7489,The Lawrenceville School,2500 Main Street,NULL,Lawrenceville,37,8648
1793,The Montrose Early Childhood Center,358 Clark Street,,South Orange,37,7079
7473,The Pilgrim Academy,247 N Genoa Ave,NULL,Egg Harbor City,37,8215
4937,THE RED BANK CS,58 OAKLAND STREET,,RED BANK,37,7701
5599,The Wardlaw-Hartridge School,1295 Inman Road,,Edison,37,8820
4644,Thelma L. Sandmeier Elementary School,666 South Springfield Ave.,,Springfield,37,07081-3011
2194,Theodore Roosevelt Elementary School,4507 HUDSON AVE,,UNION CITY,37,07087-6317
2228,Theodore Roosevelt School,1 LOUISA PLACE,,Weehawken,37,7086
3880,Theodore Roosevelt School # 10,151 Harrison St.,,Passaic,37,7055
2782,Theodore Schor Middle School,243 NORTH RANDOLPHVILLE RD,,Piscataway,37,8854
4048,THEUNIS DEY ELEMENTARY SCHOOL,55 WEBSTER DRIVE,,Wayne,37,07470-5353
4737,THIRD STREET ELEMENTARY SCHOOL,300 THIRD STREET,,Belvidere,37,7823
1725,THIRTEENTH AVENUE SCHOOL MARTIN LUTHER K,359 THIRTEENTH AVE,,Newark,37,07103-2125
2196,Thomas A Edison Elementary School,507 WEST ST,,UNION CITY,37,07087-2811
4484,Thomas A. Edison Career and Technical Ac,625 Summer St,,Elizabeth,37,7202
1136,Thomas A. Edison Elementary School,205 MELROSE AVENUE,,Westmont,37,8108
2238,Thomas B. Conley Elementary School,940 IRON BRIDGE RD,,Asbury,37,08802-1135
1881,Thomas E. Bowe School,CARPENTER ST AND MANCUSO LANE,,Glassboro,37,8028
873,Thomas E. Harrington Middle School,514 MOUNT LAUREL ROAD,,MOUNT LAUREL,37,8054
4964,Thomas Edison EnergySmar,92 Cortelyous Lane,,Somerset,37,8873
4717,THOMAS EDISON INTERMEDIATE SCHOOL,800 RAHWAY AVE,,Westfield,37,7090
2050,Thomas G. Connors,201 MONROE STREET,,Hoboken,37,7030
1022,Thomas H. Dudley Family School,2250 Berwick Street,,Camden,37,08105-1160
1984,THOMAS HEFFERSON ELEMENTARY SCHOOL,95 ALTAIR DR,,Turnersville,37,08012-2437
4486,Thomas Jefferson Arts Academy,27 Martin Luther King Jr Plaza,,Elizabeth,37,7201
550,Thomas Jefferson Early Learning Center,110 Mt Vernon Street,,Ridgefield Park,37,7660
3840,Thomas Jefferson Elementary School,233 GOFFLE HILL ROAD,,Hawthorne,37,7507
2594,Thomas Jefferson Middle School,450 DIVISION STREET,,Edison,37,8817
294,THOMAS JEFFERSON MIDDLE SCHOOL,35 - 01 MORLOT AVENUE,,FAIR LAWN,37,07410-4919
404,Thomas Jefferson Middle School,75 FIRST STREET,,Lodi,37,7644
3507,Thomas Jefferson Middle School,95 EAST MAIN STREET,,Rockaway,37,07866-3517
646,Thomas Jefferson Middle School,655 TEANECK RD,,Teaneck,37,07666-4249
3384,THOMAS JEFFERSON SCHOOL,JAMES STREET &amp; OGDEN PLACE,,Morristown,37,7960
3882,Thomas Jefferson School # 1,390 Van Houten Ave.,,Passaic,37,7055
4398,Thomas P. Hughes School,446 SNYDER AVE,,BERKELEY HTS,37,07922-2017
1068,Thomas Paine Elementary School,4001 CHURCH RD,,CHERRY HILL,37,08034-1199
2517,Thomas R Grover Middle School,10 SOUTHFIELD ROAD,,West Windsor,37,8550
1229,Thomas Richards Elementary,934 LINCOLN AVE,,Atco,37,08004-1325
1082,Thomas Sharp Elementary School,400 COMLY AVE,,WEST COLLINGSWOOD,37,8107
1400,Thomas W. Wallace Jr. Middle School,688 NORTH MILL ROAD,,Vineland,37,08360-2635
3109,Thompson Middle School,1001 MIDDLETOWN  LINCROFT ROAD,,Middletown,37,07748-3299
3111,Thorne Middle School,70 MURPHY ROAD,,PORT MONMOUTH,37,07758-1099
2312,Three Bridges School,480 MAIN STREET,,THREE BRIDGES,37,8887
2912,Thurgood Marshall Elementary School,600 MONROE AVENUE,,ASBURY PARK,37,7712
1549,THURGOOD MARSHALL SCHOOL,141  181 MONTGOMERY AVENUE,,Irvington,37,7111
981,Timber Creek Regional High School,501 JARVIS ROAD,,Erial,37,8081
2419,Timberlane Middle School,51 S  TIMBERLANE DRIVE,,Pennington,37,08534-1614
3442,Tinc Rd. Elementary School,24 TINC ROAD,,Flanders,37,7836
3226,Tinton Falls Middle School,674 TINTON AVENUE,,TINTON FALLS,37,07724-3296
2421,Toll Gate Grammar School,275 SO  MAIN STREET,,Pennington,37,08534-2219
3772,Toms River High School East,1225 RAIDER WAY,,TOMS RIVER,37,8753
3774,Toms River High School North,1245 OLD FREEHOLD ROAD,,TOMS RIVER,37,08753-1304
3776,Toms River High School South,55 HYERS STREET,,TOMS RIVER,37,8753
3778,Toms River Intermediate School East,1519 HOOPER AVENUE,,TOMS RIVER,37,8753
3780,Toms River Intermediate School North,150 INTERMEDIATE NORTH WAY,,TOMS RIVER,37,8753
3782,Toms River Intermediate School South,1675 PINEWALD ROAD,,Beachwood,37,8722
3396,Torey J. Sabatini School,Glenwild Circle,,Madison,37,07940-2422
2515,TOWN CENTER ELEMENTARY SCHOOL AT PLAINSB,700 WYNDHURST DRIVE,,Plainsboro,37,8536
3232,Township of Ocean Intermediate School,1200 WEST PARK AVENUE,,Ocean,37,07712-7296
575,Travell Elementary School,340 BOGERT AVE,,Ridgewood,37,7451
2496,Trenton Central High School - Main Campu,171 DIVISION STREET,,Trenton,37,8611
2498,Trenton Central High School - West Campu,1001 West State St,,Trenton,37,8618
4966,Trenton Stem-to-Civics CS,1555 Pennington Raod,,Ewing,37,8618
4228,Triangle Elementary Shcool,156 SO  TRIANGLE RD,,Hillsborough,37,8844
983,Triton Regional High School,250 SCHUBERT AVE,,Runnemede,37,8078
3479,Troy Hills Elementary School,509 S  BEVERWYCK ROAD,,Parsippany,37,07054-3327
3790,Tuckerton Elementary School,MARINE STREET,,Tuckerton,37,8087
4335,Tulsa Trail Elementary School,2 Tulsa Trail,,Hopatcong,37,7843
1795,Tuscan Elementary,25 HARVARD AVE,,Maplewood,37,07040-3109
941,TWIN HILLS ELEMENTARY SCHOOL,110 TWIN HILL DRIVE,,Willingboro,37,8046
3884,Ulysses S. Grant School # 7,155 Summer St.,,Passaic,37,7055
1215,Uncommon Schools Camden Prep,1575 Mt. Ephraim Ave,,Camden,37,8104
1551,UNION AVENUE MIDDLE SCHOOL,427     UNION AVE,,Irvington,37,07111-2811
2198,Union City Evening High School,2215 Kerrigan Avenue,,Union City,37,7087
2200,Union City High School,2500 Kennedy Blvd,,Union City,37,7087
4701,Union County Magnet High School,1776 RARITAN ROAD,,SCOTCH PLAINS,37,07076-2997
4968,UNION COUNTY TEAMS CS,515  517 WEST FOURTH STREET,,Plainfield,37,7060
4703,Union County Tech,1776 RARITAN RD,,SCOTCH PLAINS,37,07076-2997
2202,Union Hill Middle School,3800 HUDSON AVE,,UNION CITY,37,07087-6020
601,Union School,359 UNION AVE,,Rutherford,37,07070-1519
4679,UNION SENIOR HIGH,2350 NORTH THIRD STREET,,Union,37,7083
2328,Union Township Elementary School,149 PERRYVILLE ROAD,,Hampton,37,8827
2330,Union Township Middle School,165 PERRYVILLE ROAD,,Hampton,37,08827-9715
1110,UNION VALLEY ELEMENTARY SCHOOL,1300 JARVIS ROAD,,Sicklerville,37,8081
4969,UNITY CS,1 Evergreen Place,,Morristown,37,7960
4971,UNIVERSITY ACADEMY CS,275 WEST SIDE AVENUE,,JERSEY CITY,37,7305
1553,UNIVERSITY ELEMENTARY SCHOOL,1 UNIVERSITY PLACE,,Irvington,37,7111
4973,UNIVERSITY HEIGHTS CS,74 HARTFORD STREET,,Newark,37,7103
2405,UNIVERSITY HEIGHTS ELEMENTARY SCHOOL,645 PAXSON AVENUE,,Hamilton,37,8690
1729,UNIVERSITY HIGH SCHOOL,55 CLINTON PL,,Newark,37,07108-1221
1555,UNIVERSIY MIDDLE SCHOOL,255 MYRTLE AVE,,Irvington,37,07111-2621
4064,Upper Greenwood Lake Elementary School,41 HENRY ROAD,,Hewitt,37,7421
4133,Upper Pittsgrove School,235 PINE TAVERN ROAD,,Monroeville,37,08343-9402
262,Upper School,143 CHARLOTTE PL,,ENGLEWOOD CLIFFS,37,7632
1297,Upper Township Elementary School,50 OLD TUCKAHOE RD,,Marmora,37,8223
1299,Upper Township Middle School,525 PERRY RD,,Petersburg,37,8270
1301,Upper Township Primary School,130 OLD TUCKAHOE RD,,Marmora,37,8223
24,Uptown School Complex,323 Madison Avenue,,Atlantic City,37,08401-5417
3998,URBAN LEADERSHIP ACADEMY,112 N 5TH STREET,,Paterson,37,7522
494,Valley Middle School,71 OAK ST,,Oakland,37,07436-1944
4092,Valley Park Elementary School,63 Mahoney Road,,Pennsville,37,8070
4410,Valley Road School,150 VALLEY ROAD,,Clark,37,7066
4366,Valley Road School,24 VALLEY ROAD,,Stanhope,37,7874
2298,Valley View School,400 ROUTE 513,,Califon,37,07830-9231
3412,Valley View School,30 MONTGOMERY AVENUE,,MONTVILLE TOWNSHIP,37,7045
4299,Valley View School,50 VALLEY VIEW ROAD,,Watchung,37,7069
3288,Valleyview Middle School,320 DIAMOND SPRING ROAD,,Denville,37,7834
4270,Van Derveer Elementary School,51 UNION AVENUE,,Somerville,37,8876
4178,Van Holten Elementary School,360 VAN HOLTEN RD,,Bridgewater,37,8807
1137,Van Sciver Elementary School,625 RHOADS AVENUE,,Haddonfield,37,8033
26,Venice Park School,1601 N Penrose Avenue,,Atlantic City,37,08401-1710
142,Ventnor Elementary School,400 N  LAFAYETTE AVENUE,,Ventnor,37,8406
144,Ventnor Middle School,VENTNOR EDUCATIONAL COMMUNITY,,Ventnor,37,8406
4384,Vernon Township High School,1832 ROUTE 565,,Vernon,37,07462-0800
1807,Verona High School,151 Fairview Avenue,,Verona,37,07044-1320
3605,Veterans Memorial Elementary School,103 HENDRICKSON AVENUE,,Brick,37,8724
1024,Veterans Memorial Family School,800 North 26th Street,,Camden,37,8105
3607,Veterans Memorial Middle School,105 HENDRICKSON AVENUE,,BRICK TOWN,37,8724
1402,Veterans Memorial Middle School,424 S MAIN RD,,Vineland,37,8360
2204,Veterans&amp;#39; Memorial Elementary Sc,1401 CENTRAL AVENUE,,UNION CITY,37,7087
4488,Victor Mravlag School No. 21,132 Shelley Avenue,,Elizabeth,37,7208
4962,VILLAGE CS,101 SULLIVAN WAY,,Trenton,37,8638
4250,Village Elementary School,100 MAIN BOULEVARD,,Skillman,37,8558
2519,Village Elementary School,601 NEW VILLAGE ROAD,,West Windsor,37,8550
3028,Village School,67 MCCAMPBELL ROAD,,Holmdel,37,07733-2299
3886,Vincent Capuana School # 15,374 Broadway,,Passaic,37,7055
4975,Vineland Public Charter School,23 West Chestnut Avenue,,Vineland,37,8360
1404,Vineland Senior High School South,2880 E CHESTNUT AVE,,Vineland,37,8361
2942,Viola L Sickles School,25 WILLOW STREET,,FAIR HAVEN,37,07704-3599
2737,Virgil I. Grissom Elementary School,ONE SIMS AVENUE,,OLD BRIDGE,37,08857-1435
2628,VON E MAUGER MIDDLE SCHOOL,FISHER AVENUE,,Middlesex,37,8846
2306,Voorhees High School,256 County Route 513,,Glen Gardner,37,8826
1225,Voorhees Middle School,1000 HOLLY OAK DR,,Voorhees,37,8043
943,W. R. JAMES SR. ELEMENTARY SCHOOL,41 PINETREE LANE,,Willingboro,37,8046
1942,W.C.K. WALLS ELEMENTARY SCHOOL,320 GRANT AVENUE,,Pitman,37,8071
1509,Wahlstrom Early Childhood Academy,340 PROSPECT STREET,,EAST ORANGE,37,7017
672,Waldwick High School,155 WYCKOFF AVENUE,,Waldwick,37,7463
674,Waldwick Middle School,155 WYCKOFF AVENUE,,Waldwick,37,7463
3252,Wall High School,1630 18TH AVE,,Wall,37,07719-1199
3254,Wall Intermediate School,2801 ALLAIRE ROAD,,Wall,37,07719-1199
3256,Wall Primary School,2500 BEDFORD CORNER LANE,,Wall,37,07719-1199
2052,Wallace Elementary School,1100 WILLOW AVENUE,,Hoboken,37,7030
679,WALLINGTON JUNIOR SENIOR HIGH SCHOOL,234 MAIN AVE,,Wallington,37,07057-1523
4388,Wallkill Valley Regional High School,10 GRUMM ROAD,,HARDYSTON TOWNSHIP,37,7419
4424,Walnut Avenue School,370 WALNUT AVENUE,,Cranford,37,7016
4386,Walnut Ridge Primary School,625 ROUTE 517,,Vernon,37,07462-0190
3784,Walnut Street Elementary School,60 WALNUT STREET,,TOMS RIVER,37,8753
7510,Walnut Street Middle School,411 Walnut St,NULL,Delanco,37,8075
756,Walnut Street School,411 WALNUT ST,,Delanco,37,08075-4645
1998,Walnut Street School,60 Walnut Street,,Woodbury,37,8096
2351,WALTER C. BLACK ELEMENTARY SCHOOL,371 STOCKTON STREET,,Hightstown,37,8520
1952,Walter Hill School,1815 KINGS HIGHWAY,,Swedesboro,37,08085-9571
2739,Walter M. Schirra Elementary School,ONE AWN ST,,OLD BRIDGE,37,08857-1819
4508,Walter O. Krumbiegel Middle School,145 HILLSIDE AVE,,Hillside,37,07205-1858
634,WALTER STILLMAN SCHOOL,75 TENAFLY ROAD,,Tenafly,37,7670
3796,Walter T. Bergen Middle School,225 GLENWILD AVENUE,,Bloomingdale,37,7403
3234,Wanamassa Elementary School,901 BENDERMERE AVENUE,,Wanamassa,37,07712-4103
4024,Wanaque Elementary School,FIRST STREET,,Wanaque,37,7465
615,Wandell School,97 E ALLENDALE RD,,SADDLE RIVER,37,07458-3023
4374,WANTAGE ELEMENTARY SCHOOL,815 ROUTE 23,,Wantage,37,7461
5023,Wardlaw Hartridge,1295 Inman Road,,Edison,37,8820
3712,Waretown Elementary School,64 RAILROAD AVENUE,,Waretown,37,08758-2717
2563,Warnsdorfer Elementary School,9 HARDENBURG LANE,,EAST BRUNSWICK,37,8816
4800,Warren County Special Services School,682 Oxford Road,,Oxford,37,7863
4792,Warren County Vocational Technical Schoo,1500 ROUTE 57,,Washington,37,07882-9618
101,Warren E. Sooy Jr. Elementary School,601 N  FOURTH STREET,,Hammonton,37,08037-9720
4512,Warren G. Harding Elementary School,426 BOULEVARD,,Kenilworth,37,07033-1529
3609,Warren H. Wolf Elementary School,224  260 CHAMBERS BRIDGE RD,,Brick,37,08723-9999
4802,Warren Hills Regional High School,41 JACKSON VALLEY ROAD,,Washington,37,7882
4804,Warren Hills Regional Middle School,64  66 CARLTON AVENUE,,Washington,37,7882
4294,Warren Middle School,100 OLD STIRLING RD,,Warren,37,07060-5819
296,WARREN POINT ELEMENTARY SCHOOL,30-07 BROADWAY,,FAIR LAWN,37,07410-3918
4681,Washington,301 WASHINGTON AVENUE,,Union,37,7083
132,WASHINGTON AVENUE ELEMENTARY SCHOOL,225 W  WASHINGTON AVENUE,,Pleasantville,37,8232
3545,Washington Avenue School,102 WASHINGTON AVENUE,,Chatham,37,7928
4578,Washington Community School,427 DARROW AVE,,Plainfield,37,07060-2012
2028,Washington Community School #9,191 AVENUE B,,Bayonne,37,7002
189,Washington Elementary School,49 S  SUMMIT STREET,,Bergenfield,37,7621
2596,Washington Elementary School,153 WINTHROP ROAD,,Edison,37,8817
3842,Washington Elementary School,176 MOHAWK AVENUE,,Hawthorne,37,7506
2155,Washington Elementary School,80 BELGROVE DR,,Kearny,37,07032-1504
394,Washington Elementary School,123 LIBERTY ST,,LITTLE FERRY,37,07643-1710
472,Washington Elementary School,175 Albert Street,,North Arlington,37,7031
4596,WASHINGTON ELEMENTARY SCHOOL,501 WASHINGTON AVENUE,,Roselle,37,07203-2329
4661,Washington Elementary School,507 MORRIS AVE,,Summit,37,07901-1544
664,Washington Elementary School,600 SCHOOL STREET,,TOWNSHIP OF WASHINGTON,37,7676
2500,Washington Elementary School,331 EMORY AVENUE,,Trenton,37,8611
1831,WASHINGTON ELEMENTARY SCHOOL,289 MAIN ST,,W ORANGE,37,07052-5615
1453,WASHINGTON ELEMENTARY SCHOOL,201 CENTRAL AVE,,WEST CALDWELL,37,7006
4719,WASHINGTON ELEMENTARY SCHOOL,900 ST MARKS AVENUE,,Westfield,37,07090-2039
339,WASHINGTON IRVING SCHOOL #4,12 MADONNA PLACE,,Garfield,37,7026
4796,Washington Memorial Elementary School,300 WEST STEWART STREET,,Washington,37,7882
2042,Washington Middle School,One Nortrh Fifth Street,,Harrison,37,07029-2515
4020,Washington Park School,10 CREWS STREET,,Totowa,37,07512-2022
406,Washington School,310 N  MAIN STREET,,Lodi,37,7644
424,Washington School,709 RIDGE RD,,Lyndhurst,37,07071-3215
1749,WASHINGTON SCHOOL,155 WASHINGTON AVE,,Nutley,37,07110-3501
603,Washington School,89 WOOD ST,,Rutherford,37,07070-1571
613,Washington School,225 Market Street,,Saddle Brook,37,7663
3786,Washington Street Elementary School,500 WEST EARL COURT,,TOMS RIVER,37,8753
1986,Washington Township High School,519 HURFFVILLE  CROSSKEYS RD,,Sewell,37,08080-2700
950,Washington Twp. - Green Bank School,2434 ROUTE 563,,EGG HARBOR,37,08215-9419
2630,WATCHUNG ELEMENTARY SCHOOL,FISHER AVENUE,,Middlesex,37,8846
1609,Watchung Elementary School,14 GARDEN ST,,Montclair,37,07042-4116
4286,Watchung Hills Regional High School,108 STIRLING RD,,Warren,37,07059-5772
1231,Waterford Elementary School,1106 OLD WHITE HORSE PIKE,,Waterford,37,08089-1816
1443,WATSESSING ELEMENTARY,71 Prospect Street,,Bloomfield,37,07003-3223
4050,Wayne Hills High School,272 Berdan Avenue,,Wayne,37,7470
4052,Wayne Valley High School,551 Valley Road,,Wayne,37,7470
3236,Wayside Elementary School,733 BOWNE ROAD,,Ocean,37,07712-2599
1988,WEDGWOOD ELEMENTARY SCHOOL,236 HURFFVILLE RD,,Sewell,37,08080-9475
2230,Weehawken High School,53 LIBERTY PLACE,,Weehawken,37,7086
1731,WEEQUAHIC HIGH SCHOOL,279 CHANCELLOR AVE,,Newark,37,07112-1201
3131,Wemrock Brook School,118 MILLHURST ROAD,,Manalapan,37,7726
1992,Wenonah Elementary School,200 N CLINTON AVE,,Wenonah,37,8090
540,Wesley D Tisdale Elementary School,200 ISLAND AVENUE,,Ramsey,37,07446-1566
2322,WEST AMWELL TWP SCHOOL,1417 Rt 179,,Lambertville,37,8530
1327,West Avenue School,51 NORTH WEST AVENUE,,Bridgeton,37,08302-1388
3258,West Belmar Elementary School,925 17TH AVENUE,,Wall,37,07719-1199
520,West Brook Middle School,560 ROOSEVELT BLVD,,Paramus,37,7652
1519,West Caldwell Tech,620 PASSAIC AVE,,WEST CALDWELL,37,07006-6711
1303,West Cape May Elementary School,301 Moore Street,,West Cape May,37,08204-1199
1966,West Deptford High School,1600 OLD CROWN POINT RD,,WEST DEPTFORD,37,8093
1968,West Deptford Middle School,675 GROVE RD,,WEST DEPTFORD,37,08066-1925
3788,West Dover Elementary School,50 BLUE JAY DRIVE,,TOMS RIVER,37,8753
2000,West End Memorial Elementary School,215 Queen Street,,Woodbury,37,8096
4262,West End School,447 GREENBROOK RD,,N PLAINFIELD,37,07060-1738
1809,West Essex High School,65 WEST GREENBROOK RD,,NORTH CALDWELL,37,7006
1811,West Essex Middle School,65 WEST GREENBROOK RD,,NORTH CALDWELL,37,7006
2978,West Freehold School,100 CASTRONOVA WAY,,Freehold,37,07728-2551
4066,West Milford High School,67 HIGHLANDER DRIVE,,WEST MILFORD,37,07480-3708
3547,West Morris Central High School,259 Bartley Road,,Chester,37,7930
3549,West Morris Mendham High School,65 East Main Street,,Mendham,37,7945
2224,West New York Middle School,201 57TH ST,,WEST NEW YORK,37,07093-2705
1833,West Orange High School,51 CONFORTI AVE,,WEST ORANGE,37,07052-2829
526,West Ridge Elementary School,18 South  First Street,,PARK RIDGE,37,7656
7087,West Windsor Plainsboro High School South,26 Windsor Drive,,Princeton Junction,37,8550
2521,West Windsor-Plainsboro High School North,90 GROVERS MILL ROAD,,Plainsboro,37,8536
2523,West Windsor-Plainsboro High School South,346 CLARKSVILLE ROAD,,West Windsor,37,8550
715,WESTAMPTON CAMPUS,20 PIONEER BLVD,,Westampton,37,08060-3824
953,Westampton Township Middle School,700 RANCOCAS ROAD,,Westampton,37,08060-9601
4068,Westbrook Elementary School,55 NOSENZO POND ROAD,,WEST MILFORD,37,07480-2804
4721,Westfield Senior High School,550 Dorian Road,,Westfield,37,07090-3302
4691,Westlake,1571 LAMBERTS MILL ROAD,,Westfield,37,7090
298,WESTMORELAND ELEMENTARY SCHOOL,16-50 PARMALEE  AVE,,FAIR LAWN,37,7410
4240,Weston Elementary School,600 NEWARK AVE,,Manville,37,8835
6942,Westwood Regional Jr./Sr. High School,701 Ridgewood Road,,Washington Township,37,7676
666,Westwood Regional Middle School,23 THIRD AVENUE,,Westwood,37,07675-3331
146,Weymouth Township Elementary School,1202 ELEVENTH AVENUE,,Dorothy,37,08317-9711
3317,Whippany Park High School,165 WHIPPANY ROAD,,Whippany,37,07981-1741
3340,White Rock Elementary School,2 FRANCINE PLACE,,OAK RIDGE,37,07438-9515
4798,WHITE TOWNSHIP CONSOLIDATED SCHOOL,565 CR 519,,Belvidere,37,07823-9798
1912,Whitehall Elementary School,161 Whitehall Road,,Williamstown,37,08094-9201
2314,Whitehouse School,50 WHITEHOUSE AVE,,WHITEHOUSE STATION,37,08889-0157
3691,Whiting Elementary School,412 MANCHESTER BLVD,,Whiting,37,08759-1336
1990,WHITMAN ELEMENTARY SCHOOL,827 WHITMAN SCHOOL DR,,Turnersville,37,08012-1186
1511,Whitney E. Houston Academy,215 DODD ST,,EAST ORANGE,37,07017-2106
2139,"Whitney M. Young, Jr. School",135 STEGMAN ST,,JERSEY CITY,37,07305-3208
4156,Whiton Elementary School,470 WHITON ROAD,,NESHANIC STATION,37,8853
7474,Wiggins College Preparatory Lab Family School, 400 Mt. Vernon Street,NULL,Camden,37,8103
742,Wilbur Watts Intermediate School,550 HIGH STREET,,Burlington,37,8016
3450,Wildwood Elementary School,51 Glen Rd.,,Mountain Lakes,37,7046
1307,WILDWOOD HIGH SCHOOL,4300 PACIFIC AVE,,Wildwood,37,8260
1309,WILDWOOD MIDDLE SCHOOL,4300 PACIFIC AVE,,Wildwood,37,8260
577,Willard Elementary School,601 MORNINGSIDE RD,,Ridgewood,37,7451
2741,William A. Miller Elementary School,2 OLD MATAWAN ROAD,,OLD BRIDGE,37,8857
851,William Allen Middle School,801 N  STANWICK ROAD,,Moorestown,37,8057
4192,William Annin Middle School,70 QUINCY ROAD,,BASKING RIDGE,37,07920-2245
3888,William B. Cruise Memorial School # 11,390 Gregory Ave.,,Passaic,37,7055
2762,William C. McGinnis Middle School,271 STATE STREET,,PERTH AMBOY,37,08861-4347
648,William Cullen Bryant School,1 TRYON AVENUE,,Teaneck,37,7666
93,William Davies Middle School,1876 Dr Dennis Foreman Drive,,Mays Landing,37,8330
4490,William F. Halloran School No.22,1014 South Elmora Avenue,,Elizabeth,37,7202
1139,WILLIAM G. ROHRER MIDDLE SCHOOL,101 MACARTHUR BOULEVARD,,Westmont,37,8108
111,William H. Ross III School,101 N  HAVERFORD AVENUE,,Margate,37,8402
4634,William J. McGinn,1100 ROOSEVELT AVENUE,,SCOTCH PLAINS,37,7076
2141,William L Dickinson High School,2 PALISADE AVE,,JERSEY CITY,37,07306-1202
3414,William Mason School,5 SHAWNEE TRAIL,,Montville,37,07045-9739
1084,William P Tatem Elementary School,265 LINCOLN AVENUE,,Collingswood,37,8108
3030,William R. Satz School,24 CRAWFORDS CORNER ROAD,,Holmdel,37,07733-1998
4137,William Roper Early Childhood Learning C,211 East Lake Road,,Pilesgrove,37,8098
4400,William Woodruff School,BRIARWOOD DR WEST,,BERKELEY HTS,37,7922
1914,Williamstown High School,700 N TUCKAHOE RD,,Williamstown,37,08094-8827
1916,Williamstown Middle School,561 CLAYTON RD,,Williamstown,37,8094
945,WILLINGBORO HIGH SCHOOL,20 JFK WAY,,Willingboro,37,08046-2121
947,WILLINGBORO MEMORIAL MIDDLE SCHOOL,451 Van Sciver Parkway,,Willingboro,37,8046
4762,Willow Grove Elementary School,601 WILLOW GROVE STREET,,Hackettstown,37,07840-1713
1733,WILSON AVENUE SCHOOL,19 WILSON AVE,,Newark,37,07108-3214
2502,Wilson Elementary School,175 GIRARD AVENUE,,Trenton,37,08638-3431
1455,WILSON ELEMENTARY SCHOOL,71 ORTON RD,,WEST CALDWELL,37,7006
4723,WILSON ELEMENTARY SCHOOL,301 LINDEN AVE,,Westfield,37,07090-1923
408,Wilson School,80 UNION STREET,,Lodi,37,7644
4492,Winfield Scott School No. 2,125 MADISON AVE,,Elizabeth,37,07201-2420
4725,Winfield Township,7 1/2 GULFSTREAM AVENUE,,Winfield,37,7036
1233,Winslow Township Elementary School Five,130 OAK LEAF ROAD,,Berlin,37,8009
1235,Winslow Township Elementary School Four,541 KALI ROAD,,Sicklerville,37,8081
1237,Winslow Township Elementary School One,413 INSKIP ROAD,,BLUE ANCHOR,37,08037-9511
1239,Winslow Township Elementary School Six,617 SICKLER AVENUE,,Sicklerville,37,8081
1241,Winslow Township Elementary School Three,131 SICKLERVILLE ROAD,,Sicklerville,37,8081
1243,Winslow Township Elementary School Two,125 FIRST AVENUE,,Sicklerville,37,8081
1245,Winslow Township High School,10 Cooper Folly Rd.,,Atco,37,8004
1247,Winslow Township Middle School,30 COOPER FOLLY ROAD,,Atco,37,8004
2361,WL ANTHEIL ELEMENTARY SCHOOL,339 EWINGVILLE ROAD,,Ewing,37,08638-1721
3197,WOLF HILL ELEMENTARY SCHOOL,29 WOLF HILL AVENUE,,Oceanport,37,07757-1000
2896,WOODBINE AVENUE ELEMENTARY SCHOOL,WOODBINE AVENUE,,Avenel,37,7001
1311,Woodbine Elementary School,801 WEBSTER STREET,,Woodbine,37,8270
2898,Woodbridge High School,25 Samuel Lupo PLACE,,Woodbridge,37,7095
2900,WOODBRIDGE MIDDLE SCHOOL,525 BARRON AVENUE,,Woodbridge,37,7095
2598,Woodbrook Elementary School,15 ROBIN ROAD,,Edison,37,8820
2004,Woodbury Heights Elementary,100 ACADEMY AVE,,WOODBURY HTS,37,8097
2002,Woodbury Junior/Senior High School,25 N. Broad Street,,Woodbury,37,08096-4602
689,Woodcliff Middle School,134 WOODCLIFF AVE,,WOODCLIFF LAKE,37,07677-8245
1070,Woodcrest Elementary School,400 CRANFORD DR.,,CHERRY HILL,37,08003-3499
4230,Woodfern Elementary School,425 WOODFERN RD,,Hillsborough,37,8844
2300,Woodglen School,70 BUNNVALE ROAD,,Califon,37,07830-9231
2677,WOODLAND ELEMENTARY SCHOOL,42 Harrison Ave,,Monroe Township,37,8831
4580,Woodland Elementary School,730 CENTRAL STREET,,Plainfield,37,7062
963,Woodland Middle School,1 SCHOOL LANE,,Barrington,37,8007
3386,WOODLAND SCHOOL,51 JOHNSTON DRIVE,,CONVENT STATION,37,7961
4296,Woodland School,114 STIRLING RD,,Warren,37,7059
1249,Woodlynne Boro Public School,131 ELM AVENUE,,Woodlynne,37,8107
2938,Woodmere,65 RALEIGH COURT,,Eatontown,37,07724-2192
3416,Woodmont School,39 WOODMONT ROAD,,PINE BROOK,37,7058
683,WOOD-RIDGE INTERMEDIATE SCHOOL,151 FIRST STREET,,WOOD-RIDGE,37,7075
685,Wood-Ridge Jr/Sr High School,258 HACKENSACK ST,,WOOD  RIDGE,37,07075-1207
3178,Woodrow Wilson,210 WEST SYLVANIA AVE,,NEPTUNE CITY,37,07753-6299
2030,Woodrow Wilson #10,101 WEST 56TH STREET,,Bayonne,37,7002
2699,Woodrow Wilson Elementary School,133 TUNISON RD,,NEW BRUNSWICK,37,08901-1652
2796,Woodrow Wilson Elementary School,65 DANE STREET,,Sayreville,37,8872
2206,Woodrow Wilson Elementary School,80 HAUXHURST AVENUE,,Weehawken,37,7086
1026,Woodrow Wilson High School,3100 Federal Street,,Camden,37,8105
3830,Woodrow Wilson Middle School,1400 VAN HOUTEN AVENUE,,Clifton,37,7013
2600,Woodrow Wilson Middle School,50 WOODROW WILSON DRIVE,,Edison,37,8820
340,WOODROW WILSON SCHOOL #5,205 OUTWATER LANE,,Garfield,37,07026-2635
4494,Woodrow Wilson School No. 19,529 EDGAR RD,,Elizabeth,37,07202-3301
1373,Woodruff Middle School,1385 Highway 77,,Seabrook,37,08302-4261
4232,Woods Road Elementary School,120 SOUTH WOODS RD,,Hillsborough,37,8844
280,WOODSIDE AVENUE SCHOOL,305 WOODSIDE AVE,,FRANKLIN LAKES,37,07417-2030
591,Woodside Elementary School,801 RIVERVALE RD,,RIVER VALE,37,07675-6148
4139,Woodstown High School,WOODSTOWN HIGH SCHOOL,,Woodstown,37,08098-1392
4141,Woodstown Middle School,WOODSTOWN MIDDLE SCHOOL,,Woodstown,37,08098-1391
1587,Wyoming School,55 MYRTLE AVE,,Millburn,37,7041
1126,xHADDON HEIGHTS JR-SR HS,301 SECOND AVENUE,,HADDON HEIGHTS,37,8035
4109,xPenns Grove High School,334 HARDING HIGHWAY,,CARNEYS POINT,37,08069-1369
1751,YANTACAW SCHOOL,20 YANTACAW PLACE,,Nutley,37,7110
2407,YARDVILLE ELEMENTARY SCHOOL,450 YARDVILLE  ALLENTOWN RD,,Hamilton,37,8620
2409,YARDVILLE HEIGHTS ELEMENTARY SCHOOL,3880 SOUTH BROAD STREET,,Hamilton,37,08620-2502
1028,Yorkship Elementary School,1251 Collings Road,,Camden,37,8104
1086,Zane North Elementary School,801 STOKES AVENUE,,Collingswood,37,8108
